<?xml version="1.0" encoding="UTF-8"?>
<gpx creator="StravaGPX iPhone" version="1.1" xmlns="http://www.topografix.com/GPX/1/1" xmlns:gpxtpx="http://www.garmin.com/xmlschemas/TrackPointExtension/v1">
  <metadata>
    <time>2026-06-14T08:45:00Z</time>
    <name>Ridge walk</name>
  </metadata>
  <trk>
    <name>Ridge walk</name>
    <type>hiking</type>
    <trkseg>
      <trkpt lat="45.071267" lon="7.667069">
        <ele>240.0</ele>
        <time>2026-06-14T08:45:00Z</time>
      </trkpt>
      <trkpt lat="45.070386" lon="7.667175">
        <ele>243.2</ele>
        <time>2026-06-14T08:46:00Z</time>
      </trkpt>
      <trkpt lat="45.069727" lon="7.667359">
        <ele>245.5</ele>
        <time>2026-06-14T08:47:00Z</time>
      </trkpt>
      <trkpt lat="45.068975" lon="7.667557">
        <ele>248.3</ele>
        <time>2026-06-14T08:48:00Z</time>
      </trkpt>
      <trkpt lat="45.068375" lon="7.667554">
        <ele>250.4</ele>
        <time>2026-06-14T08:49:00Z</time>
      </trkpt>
      <trkpt lat="45.067562" lon="7.66754">
        <ele>253.3</ele>
        <time>2026-06-14T08:50:00Z</time>
      </trkpt>
      <trkpt lat="45.066884" lon="7.667509">
        <ele>255.7</ele>
        <time>2026-06-14T08:51:00Z</time>
      </trkpt>
      <trkpt lat="45.066123" lon="7.667583">
        <ele>258.4</ele>
        <time>2026-06-14T08:52:00Z</time>
      </trkpt>
      <trkpt lat="45.065408" lon="7.667521">
        <ele>261.0</ele>
        <time>2026-06-14T08:53:00Z</time>
      </trkpt>
      <trkpt lat="45.064675" lon="7.667264">
        <ele>263.6</ele>
        <time>2026-06-14T08:54:00Z</time>
      </trkpt>
      <trkpt lat="45.06399" lon="7.667187">
        <ele>266.0</ele>
        <time>2026-06-14T08:55:00Z</time>
      </trkpt>
      <trkpt lat="45.063246" lon="7.666907">
        <ele>268.8</ele>
        <time>2026-06-14T08:56:00Z</time>
      </trkpt>
      <trkpt lat="45.062468" lon="7.666645">
        <ele>271.6</ele>
        <time>2026-06-14T08:57:00Z</time>
      </trkpt>
      <trkpt lat="45.061829" lon="7.666357">
        <ele>273.9</ele>
        <time>2026-06-14T08:58:00Z</time>
      </trkpt>
      <trkpt lat="45.061136" lon="7.666102">
        <ele>276.4</ele>
        <time>2026-06-14T08:59:00Z</time>
      </trkpt>
      <trkpt lat="45.060326" lon="7.665905">
        <ele>279.3</ele>
        <time>2026-06-14T09:00:00Z</time>
      </trkpt>
      <trkpt lat="45.059696" lon="7.665697">
        <ele>281.5</ele>
        <time>2026-06-14T09:01:00Z</time>
      </trkpt>
      <trkpt lat="45.059173" lon="7.6653">
        <ele>283.6</ele>
        <time>2026-06-14T09:02:00Z</time>
      </trkpt>
      <trkpt lat="45.058499" lon="7.664748">
        <ele>286.3</ele>
        <time>2026-06-14T09:03:00Z</time>
      </trkpt>
      <trkpt lat="45.057773" lon="7.664285">
        <ele>289.0</ele>
        <time>2026-06-14T09:04:00Z</time>
      </trkpt>
      <trkpt lat="45.057131" lon="7.663899">
        <ele>291.4</ele>
        <time>2026-06-14T09:05:00Z</time>
      </trkpt>
      <trkpt lat="45.056396" lon="7.6635">
        <ele>294.1</ele>
        <time>2026-06-14T09:06:00Z</time>
      </trkpt>
      <trkpt lat="45.055716" lon="7.663134">
        <ele>296.5</ele>
        <time>2026-06-14T09:07:00Z</time>
      </trkpt>
      <trkpt lat="45.055039" lon="7.662786">
        <ele>298.9</ele>
        <time>2026-06-14T09:08:00Z</time>
      </trkpt>
      <trkpt lat="45.054407" lon="7.662668">
        <ele>301.1</ele>
        <time>2026-06-14T09:09:00Z</time>
      </trkpt>
      <trkpt lat="45.053632" lon="7.662591">
        <ele>303.7</ele>
        <time>2026-06-14T09:10:00Z</time>
      </trkpt>
      <trkpt lat="45.052942" lon="7.662723">
        <ele>306.0</ele>
        <time>2026-06-14T09:11:00Z</time>
      </trkpt>
      <trkpt lat="45.052249" lon="7.66283">
        <ele>308.3</ele>
        <time>2026-06-14T09:12:00Z</time>
      </trkpt>
      <trkpt lat="45.051573" lon="7.662934">
        <ele>310.5</ele>
        <time>2026-06-14T09:13:00Z</time>
      </trkpt>
      <trkpt lat="45.050781" lon="7.663179">
        <ele>313.1</ele>
        <time>2026-06-14T09:14:00Z</time>
      </trkpt>
      <trkpt lat="45.050124" lon="7.663324">
        <ele>315.3</ele>
        <time>2026-06-14T09:15:00Z</time>
      </trkpt>
      <trkpt lat="45.049435" lon="7.663268">
        <ele>317.5</ele>
        <time>2026-06-14T09:16:00Z</time>
      </trkpt>
      <trkpt lat="45.04873" lon="7.66333">
        <ele>319.8</ele>
        <time>2026-06-14T09:17:00Z</time>
      </trkpt>
      <trkpt lat="45.048123" lon="7.663536">
        <ele>321.7</ele>
        <time>2026-06-14T09:18:00Z</time>
      </trkpt>
      <trkpt lat="45.047461" lon="7.663979">
        <ele>324.0</ele>
        <time>2026-06-14T09:19:00Z</time>
      </trkpt>
      <trkpt lat="45.046719" lon="7.664269">
        <ele>326.4</ele>
        <time>2026-06-14T09:20:00Z</time>
      </trkpt>
      <trkpt lat="45.045978" lon="7.664581">
        <ele>328.8</ele>
        <time>2026-06-14T09:21:00Z</time>
      </trkpt>
      <trkpt lat="45.045237" lon="7.664985">
        <ele>331.3</ele>
        <time>2026-06-14T09:22:00Z</time>
      </trkpt>
      <trkpt lat="45.044659" lon="7.665397">
        <ele>333.2</ele>
        <time>2026-06-14T09:23:00Z</time>
      </trkpt>
      <trkpt lat="45.043972" lon="7.665756">
        <ele>335.4</ele>
        <time>2026-06-14T09:24:00Z</time>
      </trkpt>
      <trkpt lat="45.043245" lon="7.66616">
        <ele>337.7</ele>
        <time>2026-06-14T09:25:00Z</time>
      </trkpt>
      <trkpt lat="45.042522" lon="7.666542">
        <ele>340.0</ele>
        <time>2026-06-14T09:26:00Z</time>
      </trkpt>
      <trkpt lat="45.041805" lon="7.666771">
        <ele>342.2</ele>
        <time>2026-06-14T09:27:00Z</time>
      </trkpt>
      <trkpt lat="45.041152" lon="7.666798">
        <ele>344.1</ele>
        <time>2026-06-14T09:28:00Z</time>
      </trkpt>
      <trkpt lat="45.040424" lon="7.666828">
        <ele>346.1</ele>
        <time>2026-06-14T09:29:00Z</time>
      </trkpt>
      <trkpt lat="45.039703" lon="7.666761">
        <ele>348.2</ele>
        <time>2026-06-14T09:30:00Z</time>
      </trkpt>
      <trkpt lat="45.03893" lon="7.666723">
        <ele>350.3</ele>
        <time>2026-06-14T09:31:00Z</time>
      </trkpt>
      <trkpt lat="45.038191" lon="7.66662">
        <ele>352.4</ele>
        <time>2026-06-14T09:32:00Z</time>
      </trkpt>
      <trkpt lat="45.037591" lon="7.666527">
        <ele>354.0</ele>
        <time>2026-06-14T09:33:00Z</time>
      </trkpt>
      <trkpt lat="45.036834" lon="7.666301">
        <ele>356.1</ele>
        <time>2026-06-14T09:34:00Z</time>
      </trkpt>
      <trkpt lat="45.036136" lon="7.665986">
        <ele>358.1</ele>
        <time>2026-06-14T09:35:00Z</time>
      </trkpt>
      <trkpt lat="45.035371" lon="7.665729">
        <ele>360.1</ele>
        <time>2026-06-14T09:36:00Z</time>
      </trkpt>
      <trkpt lat="45.034737" lon="7.665324">
        <ele>361.9</ele>
        <time>2026-06-14T09:37:00Z</time>
      </trkpt>
      <trkpt lat="45.033944" lon="7.665136">
        <ele>364.0</ele>
        <time>2026-06-14T09:38:00Z</time>
      </trkpt>
      <trkpt lat="45.033202" lon="7.664839">
        <ele>365.9</ele>
        <time>2026-06-14T09:39:00Z</time>
      </trkpt>
      <trkpt lat="45.032331" lon="7.664543">
        <ele>368.1</ele>
        <time>2026-06-14T09:40:00Z</time>
      </trkpt>
      <trkpt lat="45.031697" lon="7.664247">
        <ele>369.7</ele>
        <time>2026-06-14T09:41:00Z</time>
      </trkpt>
      <trkpt lat="45.031092" lon="7.663755">
        <ele>371.4</ele>
        <time>2026-06-14T09:42:00Z</time>
      </trkpt>
      <trkpt lat="45.030454" lon="7.663265">
        <ele>373.1</ele>
        <time>2026-06-14T09:43:00Z</time>
      </trkpt>
      <trkpt lat="45.029728" lon="7.663076">
        <ele>374.8</ele>
        <time>2026-06-14T09:44:00Z</time>
      </trkpt>
      <trkpt lat="45.028952" lon="7.662943">
        <ele>376.6</ele>
        <time>2026-06-14T09:45:00Z</time>
      </trkpt>
      <trkpt lat="45.028242" lon="7.662912">
        <ele>378.2</ele>
        <time>2026-06-14T09:46:00Z</time>
      </trkpt>
      <trkpt lat="45.02751" lon="7.662792">
        <ele>379.8</ele>
        <time>2026-06-14T09:47:00Z</time>
      </trkpt>
      <trkpt lat="45.026682" lon="7.662806">
        <ele>381.5</ele>
        <time>2026-06-14T09:48:00Z</time>
      </trkpt>
      <trkpt lat="45.025884" lon="7.662575">
        <ele>383.2</ele>
        <time>2026-06-14T09:49:00Z</time>
      </trkpt>
      <trkpt lat="45.025138" lon="7.662297">
        <ele>384.8</ele>
        <time>2026-06-14T09:50:00Z</time>
      </trkpt>
      <trkpt lat="45.024392" lon="7.662165">
        <ele>386.3</ele>
        <time>2026-06-14T09:51:00Z</time>
      </trkpt>
      <trkpt lat="45.02354" lon="7.662009">
        <ele>388.0</ele>
        <time>2026-06-14T09:52:00Z</time>
      </trkpt>
      <trkpt lat="45.022766" lon="7.661624">
        <ele>389.6</ele>
        <time>2026-06-14T09:53:00Z</time>
      </trkpt>
      <trkpt lat="45.021981" lon="7.661224">
        <ele>391.1</ele>
        <time>2026-06-14T09:54:00Z</time>
      </trkpt>
      <trkpt lat="45.021424" lon="7.660672">
        <ele>392.3</ele>
        <time>2026-06-14T09:55:00Z</time>
      </trkpt>
      <trkpt lat="45.020759" lon="7.660391">
        <ele>393.5</ele>
        <time>2026-06-14T09:56:00Z</time>
      </trkpt>
      <trkpt lat="45.02002" lon="7.660121">
        <ele>394.8</ele>
        <time>2026-06-14T09:57:00Z</time>
      </trkpt>
      <trkpt lat="45.019259" lon="7.659941">
        <ele>396.1</ele>
        <time>2026-06-14T09:58:00Z</time>
      </trkpt>
      <trkpt lat="45.018511" lon="7.659741">
        <ele>397.4</ele>
        <time>2026-06-14T09:59:00Z</time>
      </trkpt>
      <trkpt lat="45.017738" lon="7.659517">
        <ele>398.6</ele>
        <time>2026-06-14T10:00:00Z</time>
      </trkpt>
      <trkpt lat="45.016924" lon="7.659252">
        <ele>399.9</ele>
        <time>2026-06-14T10:01:00Z</time>
      </trkpt>
      <trkpt lat="45.016122" lon="7.659192">
        <ele>401.0</ele>
        <time>2026-06-14T10:02:00Z</time>
      </trkpt>
      <trkpt lat="45.015361" lon="7.659187">
        <ele>402.1</ele>
        <time>2026-06-14T10:03:00Z</time>
      </trkpt>
      <trkpt lat="45.014622" lon="7.659189">
        <ele>403.1</ele>
        <time>2026-06-14T10:04:00Z</time>
      </trkpt>
      <trkpt lat="45.013784" lon="7.659022">
        <ele>404.2</ele>
        <time>2026-06-14T10:05:00Z</time>
      </trkpt>
      <trkpt lat="45.012933" lon="7.659154">
        <ele>405.3</ele>
        <time>2026-06-14T10:06:00Z</time>
      </trkpt>
      <trkpt lat="45.012225" lon="7.659196">
        <ele>406.1</ele>
        <time>2026-06-14T10:07:00Z</time>
      </trkpt>
      <trkpt lat="45.011412" lon="7.658994">
        <ele>407.0</ele>
        <time>2026-06-14T10:08:00Z</time>
      </trkpt>
      <trkpt lat="45.010598" lon="7.658646">
        <ele>408.0</ele>
        <time>2026-06-14T10:09:00Z</time>
      </trkpt>
      <trkpt lat="45.009853" lon="7.658199">
        <ele>408.8</ele>
        <time>2026-06-14T10:10:00Z</time>
      </trkpt>
      <trkpt lat="45.009033" lon="7.657897">
        <ele>409.6</ele>
        <time>2026-06-14T10:11:00Z</time>
      </trkpt>
      <trkpt lat="45.008295" lon="7.65766">
        <ele>410.3</ele>
        <time>2026-06-14T10:12:00Z</time>
      </trkpt>
      <trkpt lat="45.007524" lon="7.657394">
        <ele>411.0</ele>
        <time>2026-06-14T10:13:00Z</time>
      </trkpt>
      <trkpt lat="45.006774" lon="7.65696">
        <ele>411.6</ele>
        <time>2026-06-14T10:14:00Z</time>
      </trkpt>
      <trkpt lat="45.005972" lon="7.656456">
        <ele>412.3</ele>
        <time>2026-06-14T10:15:00Z</time>
      </trkpt>
      <trkpt lat="45.005253" lon="7.655764">
        <ele>412.9</ele>
        <time>2026-06-14T10:16:00Z</time>
      </trkpt>
      <trkpt lat="45.004494" lon="7.655256">
        <ele>413.4</ele>
        <time>2026-06-14T10:17:00Z</time>
      </trkpt>
      <trkpt lat="45.003783" lon="7.654744">
        <ele>413.8</ele>
        <time>2026-06-14T10:18:00Z</time>
      </trkpt>
      <trkpt lat="45.003037" lon="7.654261">
        <ele>414.2</ele>
        <time>2026-06-14T10:19:00Z</time>
      </trkpt>
      <trkpt lat="45.002311" lon="7.653822">
        <ele>414.6</ele>
        <time>2026-06-14T10:20:00Z</time>
      </trkpt>
      <trkpt lat="45.001519" lon="7.653219">
        <ele>414.9</ele>
        <time>2026-06-14T10:21:00Z</time>
      </trkpt>
      <trkpt lat="45.000765" lon="7.652874">
        <ele>415.2</ele>
        <time>2026-06-14T10:22:00Z</time>
      </trkpt>
      <trkpt lat="44.999938" lon="7.652732">
        <ele>415.4</ele>
        <time>2026-06-14T10:23:00Z</time>
      </trkpt>
      <trkpt lat="44.99912" lon="7.652548">
        <ele>415.6</ele>
        <time>2026-06-14T10:24:00Z</time>
      </trkpt>
      <trkpt lat="44.99832" lon="7.652314">
        <ele>415.7</ele>
        <time>2026-06-14T10:25:00Z</time>
      </trkpt>
      <trkpt lat="44.997575" lon="7.651946">
        <ele>415.8</ele>
        <time>2026-06-14T10:26:00Z</time>
      </trkpt>
      <trkpt lat="44.996687" lon="7.651455">
        <ele>415.8</ele>
        <time>2026-06-14T10:27:00Z</time>
      </trkpt>
      <trkpt lat="44.995824" lon="7.651064">
        <ele>415.7</ele>
        <time>2026-06-14T10:28:00Z</time>
      </trkpt>
      <trkpt lat="44.994891" lon="7.650701">
        <ele>415.6</ele>
        <time>2026-06-14T10:29:00Z</time>
      </trkpt>
      <trkpt lat="44.99414" lon="7.650191">
        <ele>415.5</ele>
        <time>2026-06-14T10:30:00Z</time>
      </trkpt>
      <trkpt lat="44.993378" lon="7.64966">
        <ele>415.3</ele>
        <time>2026-06-14T10:31:00Z</time>
      </trkpt>
      <trkpt lat="44.992623" lon="7.649083">
        <ele>415.0</ele>
        <time>2026-06-14T10:32:00Z</time>
      </trkpt>
      <trkpt lat="44.991846" lon="7.64845">
        <ele>414.7</ele>
        <time>2026-06-14T10:33:00Z</time>
      </trkpt>
      <trkpt lat="44.990979" lon="7.647822">
        <ele>414.3</ele>
        <time>2026-06-14T10:34:00Z</time>
      </trkpt>
      <trkpt lat="44.990131" lon="7.647252">
        <ele>413.8</ele>
        <time>2026-06-14T10:35:00Z</time>
      </trkpt>
      <trkpt lat="44.989409" lon="7.646842">
        <ele>413.4</ele>
        <time>2026-06-14T10:36:00Z</time>
      </trkpt>
      <trkpt lat="44.988513" lon="7.646492">
        <ele>412.8</ele>
        <time>2026-06-14T10:37:00Z</time>
      </trkpt>
      <trkpt lat="44.98763" lon="7.646057">
        <ele>412.2</ele>
        <time>2026-06-14T10:38:00Z</time>
      </trkpt>
      <trkpt lat="44.986698" lon="7.645881">
        <ele>411.4</ele>
        <time>2026-06-14T10:39:00Z</time>
      </trkpt>
      <trkpt lat="44.985766" lon="7.645641">
        <ele>410.7</ele>
        <time>2026-06-14T10:40:00Z</time>
      </trkpt>
      <trkpt lat="44.984767" lon="7.645232">
        <ele>409.7</ele>
        <time>2026-06-14T10:41:00Z</time>
      </trkpt>
      <trkpt lat="44.983937" lon="7.64472">
        <ele>408.9</ele>
        <time>2026-06-14T10:42:00Z</time>
      </trkpt>
      <trkpt lat="44.983109" lon="7.644119">
        <ele>407.9</ele>
        <time>2026-06-14T10:43:00Z</time>
      </trkpt>
      <trkpt lat="44.98227" lon="7.643422">
        <ele>406.9</ele>
        <time>2026-06-14T10:44:00Z</time>
      </trkpt>
      <trkpt lat="44.981314" lon="7.643162">
        <ele>405.7</ele>
        <time>2026-06-14T10:45:00Z</time>
      </trkpt>
      <trkpt lat="44.980362" lon="7.642711">
        <ele>404.5</ele>
        <time>2026-06-14T10:46:00Z</time>
      </trkpt>
      <trkpt lat="44.97944" lon="7.642479">
        <ele>403.3</ele>
        <time>2026-06-14T10:47:00Z</time>
      </trkpt>
      <trkpt lat="44.978418" lon="7.642467">
        <ele>401.9</ele>
        <time>2026-06-14T10:48:00Z</time>
      </trkpt>
      <trkpt lat="44.977484" lon="7.642378">
        <ele>400.6</ele>
        <time>2026-06-14T10:49:00Z</time>
      </trkpt>
      <trkpt lat="44.976485" lon="7.642084">
        <ele>399.1</ele>
        <time>2026-06-14T10:50:00Z</time>
      </trkpt>
      <trkpt lat="44.975645" lon="7.641588">
        <ele>397.7</ele>
        <time>2026-06-14T10:51:00Z</time>
      </trkpt>
      <trkpt lat="44.974868" lon="7.640776">
        <ele>396.1</ele>
        <time>2026-06-14T10:52:00Z</time>
      </trkpt>
      <trkpt lat="44.974003" lon="7.639959">
        <ele>394.4</ele>
        <time>2026-06-14T10:53:00Z</time>
      </trkpt>
      <trkpt lat="44.973114" lon="7.63928">
        <ele>392.6</ele>
        <time>2026-06-14T10:54:00Z</time>
      </trkpt>
      <trkpt lat="44.972243" lon="7.638772">
        <ele>390.9</ele>
        <time>2026-06-14T10:55:00Z</time>
      </trkpt>
      <trkpt lat="44.971351" lon="7.638539">
        <ele>389.3</ele>
        <time>2026-06-14T10:56:00Z</time>
      </trkpt>
      <trkpt lat="44.970405" lon="7.638356">
        <ele>387.4</ele>
        <time>2026-06-14T10:57:00Z</time>
      </trkpt>
      <trkpt lat="44.969376" lon="7.638075">
        <ele>385.4</ele>
        <time>2026-06-14T10:58:00Z</time>
      </trkpt>
      <trkpt lat="44.968403" lon="7.637745">
        <ele>383.3</ele>
        <time>2026-06-14T10:59:00Z</time>
      </trkpt>
      <trkpt lat="44.967465" lon="7.637563">
        <ele>381.3</ele>
        <time>2026-06-14T11:00:00Z</time>
      </trkpt>
      <trkpt lat="44.966463" lon="7.637275">
        <ele>379.1</ele>
        <time>2026-06-14T11:01:00Z</time>
      </trkpt>
      <trkpt lat="44.965377" lon="7.63687">
        <ele>376.7</ele>
        <time>2026-06-14T11:02:00Z</time>
      </trkpt>
      <trkpt lat="44.964466" lon="7.636284">
        <ele>374.4</ele>
        <time>2026-06-14T11:03:00Z</time>
      </trkpt>
      <trkpt lat="44.963507" lon="7.636091">
        <ele>372.1</ele>
        <time>2026-06-14T11:04:00Z</time>
      </trkpt>
      <trkpt lat="44.962566" lon="7.635764">
        <ele>369.8</ele>
        <time>2026-06-14T11:05:00Z</time>
      </trkpt>
      <trkpt lat="44.961621" lon="7.635328">
        <ele>367.4</ele>
        <time>2026-06-14T11:06:00Z</time>
      </trkpt>
      <trkpt lat="44.960626" lon="7.634696">
        <ele>364.7</ele>
        <time>2026-06-14T11:07:00Z</time>
      </trkpt>
      <trkpt lat="44.959706" lon="7.634103">
        <ele>362.1</ele>
        <time>2026-06-14T11:08:00Z</time>
      </trkpt>
      <trkpt lat="44.958749" lon="7.633592">
        <ele>359.5</ele>
        <time>2026-06-14T11:09:00Z</time>
      </trkpt>
      <trkpt lat="44.957777" lon="7.633335">
        <ele>356.9</ele>
        <time>2026-06-14T11:10:00Z</time>
      </trkpt>
      <trkpt lat="44.956755" lon="7.633069">
        <ele>354.1</ele>
        <time>2026-06-14T11:11:00Z</time>
      </trkpt>
      <trkpt lat="44.955714" lon="7.632966">
        <ele>351.2</ele>
        <time>2026-06-14T11:12:00Z</time>
      </trkpt>
      <trkpt lat="44.954733" lon="7.632995">
        <ele>348.5</ele>
        <time>2026-06-14T11:13:00Z</time>
      </trkpt>
      <trkpt lat="44.953728" lon="7.633158">
        <ele>345.6</ele>
        <time>2026-06-14T11:14:00Z</time>
      </trkpt>
      <trkpt lat="44.952782" lon="7.633248">
        <ele>342.9</ele>
        <time>2026-06-14T11:15:00Z</time>
      </trkpt>
      <trkpt lat="44.951757" lon="7.633647">
        <ele>339.8</ele>
        <time>2026-06-14T11:16:00Z</time>
      </trkpt>
      <trkpt lat="44.950718" lon="7.634192">
        <ele>336.6</ele>
        <time>2026-06-14T11:17:00Z</time>
      </trkpt>
      <trkpt lat="44.949811" lon="7.634634">
        <ele>333.7</ele>
        <time>2026-06-14T11:18:00Z</time>
      </trkpt>
      <trkpt lat="44.948958" lon="7.635048">
        <ele>330.9</ele>
        <time>2026-06-14T11:19:00Z</time>
      </trkpt>
      <trkpt lat="44.947955" lon="7.635221">
        <ele>327.8</ele>
        <time>2026-06-14T11:20:00Z</time>
      </trkpt>
      <trkpt lat="44.946826" lon="7.635245">
        <ele>324.3</ele>
        <time>2026-06-14T11:21:00Z</time>
      </trkpt>
      <trkpt lat="44.945796" lon="7.634901">
        <ele>321.0</ele>
        <time>2026-06-14T11:22:00Z</time>
      </trkpt>
      <trkpt lat="44.944728" lon="7.634555">
        <ele>317.5</ele>
        <time>2026-06-14T11:23:00Z</time>
      </trkpt>
      <trkpt lat="44.943676" lon="7.634193">
        <ele>314.0</ele>
        <time>2026-06-14T11:24:00Z</time>
      </trkpt>
      <trkpt lat="44.9427" lon="7.633626">
        <ele>310.6</ele>
        <time>2026-06-14T11:25:00Z</time>
      </trkpt>
      <trkpt lat="44.9417" lon="7.633191">
        <ele>307.2</ele>
        <time>2026-06-14T11:26:00Z</time>
      </trkpt>
      <trkpt lat="44.940708" lon="7.632473">
        <ele>303.5</ele>
        <time>2026-06-14T11:27:00Z</time>
      </trkpt>
      <trkpt lat="44.939931" lon="7.631821">
        <ele>300.5</ele>
        <time>2026-06-14T11:28:00Z</time>
      </trkpt>
      <trkpt lat="44.939111" lon="7.63098">
        <ele>297.1</ele>
        <time>2026-06-14T11:29:00Z</time>
      </trkpt>
      <trkpt lat="44.938298" lon="7.630052">
        <ele>293.5</ele>
        <time>2026-06-14T11:30:00Z</time>
      </trkpt>
      <trkpt lat="44.937495" lon="7.629091">
        <ele>289.9</ele>
        <time>2026-06-14T11:31:00Z</time>
      </trkpt>
      <trkpt lat="44.936633" lon="7.628187">
        <ele>286.3</ele>
        <time>2026-06-14T11:32:00Z</time>
      </trkpt>
      <trkpt lat="44.93565" lon="7.627322">
        <ele>282.3</ele>
        <time>2026-06-14T11:33:00Z</time>
      </trkpt>
      <trkpt lat="44.934632" lon="7.6266">
        <ele>278.3</ele>
        <time>2026-06-14T11:34:00Z</time>
      </trkpt>
      <trkpt lat="44.933654" lon="7.625897">
        <ele>274.5</ele>
        <time>2026-06-14T11:35:00Z</time>
      </trkpt>
      <trkpt lat="44.932453" lon="7.62542">
        <ele>270.1</ele>
        <time>2026-06-14T11:36:00Z</time>
      </trkpt>
      <trkpt lat="44.931418" lon="7.625088">
        <ele>266.4</ele>
        <time>2026-06-14T11:37:00Z</time>
      </trkpt>
      <trkpt lat="44.930432" lon="7.624834">
        <ele>262.8</ele>
        <time>2026-06-14T11:38:00Z</time>
      </trkpt>
      <trkpt lat="44.929165" lon="7.624788">
        <ele>258.3</ele>
        <time>2026-06-14T11:39:00Z</time>
      </trkpt>
      <trkpt lat="44.928027" lon="7.625111">
        <ele>254.2</ele>
        <time>2026-06-14T11:40:00Z</time>
      </trkpt>
      <trkpt lat="44.926955" lon="7.625222">
        <ele>250.4</ele>
        <time>2026-06-14T11:41:00Z</time>
      </trkpt>
      <trkpt lat="44.925885" lon="7.625425">
        <ele>246.6</ele>
        <time>2026-06-14T11:42:00Z</time>
      </trkpt>
      <trkpt lat="44.924898" lon="7.625867">
        <ele>242.9</ele>
        <time>2026-06-14T11:43:00Z</time>
      </trkpt>
    </trkseg>
  </trk>
</gpx>
