<?xml version="1.0" encoding="UTF-8"?>
<gpx creator="komoot - https://www.komoot.com" version="1.1" xmlns="http://www.topografix.com/GPX/1/1" xmlns:gpxtpx="http://www.garmin.com/xmlschemas/TrackPointExtension/v1">
  <metadata>
    <time>2026-06-02T18:45:00Z</time>
    <name>Interval session</name>
  </metadata>
  <trk>
    <name>Interval session</name>
    <type>running</type>
    <trkseg>
      <trkpt lat="45.056781" lon="7.669379">
        <ele>240.0</ele>
        <time>2026-06-02T18:45:00Z</time>
        <extensions><gpxtpx:TrackPointExtension><gpxtpx:cad>85</gpxtpx:cad></gpxtpx:TrackPointExtension></extensions>
      </trkpt>
      <trkpt lat="45.058372" lon="7.668578">
        <ele>254.3</ele>
        <time>2026-06-02T18:46:00Z</time>
        <extensions><gpxtpx:TrackPointExtension><gpxtpx:cad>84</gpxtpx:cad></gpxtpx:TrackPointExtension></extensions>
      </trkpt>
      <trkpt lat="45.059949" lon="7.667725">
        <ele>268.6</ele>
        <time>2026-06-02T18:47:00Z</time>
        <extensions><gpxtpx:TrackPointExtension><gpxtpx:cad>90</gpxtpx:cad></gpxtpx:TrackPointExtension></extensions>
      </trkpt>
      <trkpt lat="45.061469" lon="7.666684">
        <ele>282.7</ele>
        <time>2026-06-02T18:48:00Z</time>
        <extensions><gpxtpx:TrackPointExtension><gpxtpx:cad>85</gpxtpx:cad></gpxtpx:TrackPointExtension></extensions>
      </trkpt>
      <trkpt lat="45.06299" lon="7.665647">
        <ele>296.7</ele>
        <time>2026-06-02T18:49:00Z</time>
        <extensions><gpxtpx:TrackPointExtension><gpxtpx:cad>85</gpxtpx:cad></gpxtpx:TrackPointExtension></extensions>
      </trkpt>
      <trkpt lat="45.064319" lon="7.664172">
        <ele>310.5</ele>
        <time>2026-06-02T18:50:00Z</time>
        <extensions><gpxtpx:TrackPointExtension><gpxtpx:cad>87</gpxtpx:cad></gpxtpx:TrackPointExtension></extensions>
      </trkpt>
      <trkpt lat="45.065678" lon="7.662754">
        <ele>324.1</ele>
        <time>2026-06-02T18:51:00Z</time>
        <extensions><gpxtpx:TrackPointExtension><gpxtpx:cad>89</gpxtpx:cad></gpxtpx:TrackPointExtension></extensions>
      </trkpt>
      <trkpt lat="45.067186" lon="7.66168">
        <ele>337.3</ele>
        <time>2026-06-02T18:52:00Z</time>
        <extensions><gpxtpx:TrackPointExtension><gpxtpx:cad>90</gpxtpx:cad></gpxtpx:TrackPointExtension></extensions>
      </trkpt>
      <trkpt lat="45.068713" lon="7.66066">
        <ele>350.2</ele>
        <time>2026-06-02T18:53:00Z</time>
        <extensions><gpxtpx:TrackPointExtension><gpxtpx:cad>88</gpxtpx:cad></gpxtpx:TrackPointExtension></extensions>
      </trkpt>
      <trkpt lat="45.070145" lon="7.659394">
        <ele>362.7</ele>
        <time>2026-06-02T18:54:00Z</time>
        <extensions><gpxtpx:TrackPointExtension><gpxtpx:cad>86</gpxtpx:cad></gpxtpx:TrackPointExtension></extensions>
      </trkpt>
      <trkpt lat="45.071428" lon="7.657839">
        <ele>374.7</ele>
        <time>2026-06-02T18:55:00Z</time>
        <extensions><gpxtpx:TrackPointExtension><gpxtpx:cad>85</gpxtpx:cad></gpxtpx:TrackPointExtension></extensions>
      </trkpt>
      <trkpt lat="45.072681" lon="7.656237">
        <ele>386.2</ele>
        <time>2026-06-02T18:56:00Z</time>
        <extensions><gpxtpx:TrackPointExtension><gpxtpx:cad>88</gpxtpx:cad></gpxtpx:TrackPointExtension></extensions>
      </trkpt>
      <trkpt lat="45.074024" lon="7.654787">
        <ele>397.2</ele>
        <time>2026-06-02T18:57:00Z</time>
        <extensions><gpxtpx:TrackPointExtension><gpxtpx:cad>81</gpxtpx:cad></gpxtpx:TrackPointExtension></extensions>
      </trkpt>
      <trkpt lat="45.075526" lon="7.653695">
        <ele>407.7</ele>
        <time>2026-06-02T18:58:00Z</time>
        <extensions><gpxtpx:TrackPointExtension><gpxtpx:cad>85</gpxtpx:cad></gpxtpx:TrackPointExtension></extensions>
      </trkpt>
      <trkpt lat="45.076993" lon="7.652512">
        <ele>417.5</ele>
        <time>2026-06-02T18:59:00Z</time>
        <extensions><gpxtpx:TrackPointExtension><gpxtpx:cad>83</gpxtpx:cad></gpxtpx:TrackPointExtension></extensions>
      </trkpt>
      <trkpt lat="45.078396" lon="7.651182">
        <ele>426.6</ele>
        <time>2026-06-02T19:00:00Z</time>
        <extensions><gpxtpx:TrackPointExtension><gpxtpx:cad>86</gpxtpx:cad></gpxtpx:TrackPointExtension></extensions>
      </trkpt>
      <trkpt lat="45.079872" lon="7.65002">
        <ele>435.1</ele>
        <time>2026-06-02T19:01:00Z</time>
        <extensions><gpxtpx:TrackPointExtension><gpxtpx:cad>92</gpxtpx:cad></gpxtpx:TrackPointExtension></extensions>
      </trkpt>
      <trkpt lat="45.081343" lon="7.648848">
        <ele>442.9</ele>
        <time>2026-06-02T19:02:00Z</time>
        <extensions><gpxtpx:TrackPointExtension><gpxtpx:cad>85</gpxtpx:cad></gpxtpx:TrackPointExtension></extensions>
      </trkpt>
      <trkpt lat="45.082993" lon="7.648338">
        <ele>449.9</ele>
        <time>2026-06-02T19:03:00Z</time>
        <extensions><gpxtpx:TrackPointExtension><gpxtpx:cad>86</gpxtpx:cad></gpxtpx:TrackPointExtension></extensions>
      </trkpt>
      <trkpt lat="45.084654" lon="7.647909">
        <ele>456.2</ele>
        <time>2026-06-02T19:04:00Z</time>
        <extensions><gpxtpx:TrackPointExtension><gpxtpx:cad>85</gpxtpx:cad></gpxtpx:TrackPointExtension></extensions>
      </trkpt>
      <trkpt lat="45.086276" lon="7.647247">
        <ele>461.7</ele>
        <time>2026-06-02T19:05:00Z</time>
        <extensions><gpxtpx:TrackPointExtension><gpxtpx:cad>85</gpxtpx:cad></gpxtpx:TrackPointExtension></extensions>
      </trkpt>
      <trkpt lat="45.087797" lon="7.646208">
        <ele>466.4</ele>
        <time>2026-06-02T19:06:00Z</time>
        <extensions><gpxtpx:TrackPointExtension><gpxtpx:cad>90</gpxtpx:cad></gpxtpx:TrackPointExtension></extensions>
      </trkpt>
      <trkpt lat="45.0893" lon="7.645118">
        <ele>470.2</ele>
        <time>2026-06-02T19:07:00Z</time>
        <extensions><gpxtpx:TrackPointExtension><gpxtpx:cad>89</gpxtpx:cad></gpxtpx:TrackPointExtension></extensions>
      </trkpt>
      <trkpt lat="45.090873" lon="7.644249">
        <ele>473.2</ele>
        <time>2026-06-02T19:08:00Z</time>
        <extensions><gpxtpx:TrackPointExtension><gpxtpx:cad>90</gpxtpx:cad></gpxtpx:TrackPointExtension></extensions>
      </trkpt>
      <trkpt lat="45.092536" lon="7.643839">
        <ele>475.4</ele>
        <time>2026-06-02T19:09:00Z</time>
        <extensions><gpxtpx:TrackPointExtension><gpxtpx:cad>87</gpxtpx:cad></gpxtpx:TrackPointExtension></extensions>
      </trkpt>
      <trkpt lat="45.094197" lon="7.643408">
        <ele>476.7</ele>
        <time>2026-06-02T19:10:00Z</time>
        <extensions><gpxtpx:TrackPointExtension><gpxtpx:cad>87</gpxtpx:cad></gpxtpx:TrackPointExtension></extensions>
      </trkpt>
      <trkpt lat="45.095726" lon="7.642393">
        <ele>477.1</ele>
        <time>2026-06-02T19:11:00Z</time>
        <extensions><gpxtpx:TrackPointExtension><gpxtpx:cad>85</gpxtpx:cad></gpxtpx:TrackPointExtension></extensions>
      </trkpt>
      <trkpt lat="45.09734" lon="7.641692">
        <ele>476.7</ele>
        <time>2026-06-02T19:12:00Z</time>
        <extensions><gpxtpx:TrackPointExtension><gpxtpx:cad>82</gpxtpx:cad></gpxtpx:TrackPointExtension></extensions>
      </trkpt>
      <trkpt lat="45.098955" lon="7.640996">
        <ele>475.4</ele>
        <time>2026-06-02T19:13:00Z</time>
        <extensions><gpxtpx:TrackPointExtension><gpxtpx:cad>87</gpxtpx:cad></gpxtpx:TrackPointExtension></extensions>
      </trkpt>
      <trkpt lat="45.100492" lon="7.640004">
        <ele>473.2</ele>
        <time>2026-06-02T19:14:00Z</time>
        <extensions><gpxtpx:TrackPointExtension><gpxtpx:cad>85</gpxtpx:cad></gpxtpx:TrackPointExtension></extensions>
      </trkpt>
      <trkpt lat="45.102048" lon="7.639076">
        <ele>470.2</ele>
        <time>2026-06-02T19:15:00Z</time>
        <extensions><gpxtpx:TrackPointExtension><gpxtpx:cad>88</gpxtpx:cad></gpxtpx:TrackPointExtension></extensions>
      </trkpt>
      <trkpt lat="45.103628" lon="7.638232">
        <ele>466.4</ele>
        <time>2026-06-02T19:16:00Z</time>
        <extensions><gpxtpx:TrackPointExtension><gpxtpx:cad>87</gpxtpx:cad></gpxtpx:TrackPointExtension></extensions>
      </trkpt>
      <trkpt lat="45.105126" lon="7.63713">
        <ele>461.7</ele>
        <time>2026-06-02T19:17:00Z</time>
        <extensions><gpxtpx:TrackPointExtension><gpxtpx:cad>84</gpxtpx:cad></gpxtpx:TrackPointExtension></extensions>
      </trkpt>
      <trkpt lat="45.10657" lon="7.63589">
        <ele>456.2</ele>
        <time>2026-06-02T19:18:00Z</time>
        <extensions><gpxtpx:TrackPointExtension><gpxtpx:cad>87</gpxtpx:cad></gpxtpx:TrackPointExtension></extensions>
      </trkpt>
      <trkpt lat="45.108002" lon="7.634622">
        <ele>449.9</ele>
        <time>2026-06-02T19:19:00Z</time>
        <extensions><gpxtpx:TrackPointExtension><gpxtpx:cad>81</gpxtpx:cad></gpxtpx:TrackPointExtension></extensions>
      </trkpt>
      <trkpt lat="45.109491" lon="7.633495">
        <ele>442.9</ele>
        <time>2026-06-02T19:20:00Z</time>
        <extensions><gpxtpx:TrackPointExtension><gpxtpx:cad>84</gpxtpx:cad></gpxtpx:TrackPointExtension></extensions>
      </trkpt>
      <trkpt lat="45.110822" lon="7.632023">
        <ele>435.1</ele>
        <time>2026-06-02T19:21:00Z</time>
        <extensions><gpxtpx:TrackPointExtension><gpxtpx:cad>94</gpxtpx:cad></gpxtpx:TrackPointExtension></extensions>
      </trkpt>
      <trkpt lat="45.112054" lon="7.630387">
        <ele>426.6</ele>
        <time>2026-06-02T19:22:00Z</time>
        <extensions><gpxtpx:TrackPointExtension><gpxtpx:cad>84</gpxtpx:cad></gpxtpx:TrackPointExtension></extensions>
      </trkpt>
      <trkpt lat="45.113358" lon="7.628868">
        <ele>417.5</ele>
        <time>2026-06-02T19:23:00Z</time>
        <extensions><gpxtpx:TrackPointExtension><gpxtpx:cad>89</gpxtpx:cad></gpxtpx:TrackPointExtension></extensions>
      </trkpt>
      <trkpt lat="45.114657" lon="7.627339">
        <ele>407.7</ele>
        <time>2026-06-02T19:24:00Z</time>
        <extensions><gpxtpx:TrackPointExtension><gpxtpx:cad>83</gpxtpx:cad></gpxtpx:TrackPointExtension></extensions>
      </trkpt>
      <trkpt lat="45.116063" lon="7.626014">
        <ele>397.2</ele>
        <time>2026-06-02T19:25:00Z</time>
        <extensions><gpxtpx:TrackPointExtension><gpxtpx:cad>81</gpxtpx:cad></gpxtpx:TrackPointExtension></extensions>
      </trkpt>
      <trkpt lat="45.117409" lon="7.624569">
        <ele>386.2</ele>
        <time>2026-06-02T19:26:00Z</time>
        <extensions><gpxtpx:TrackPointExtension><gpxtpx:cad>85</gpxtpx:cad></gpxtpx:TrackPointExtension></extensions>
      </trkpt>
      <trkpt lat="45.118857" lon="7.62334">
        <ele>374.7</ele>
        <time>2026-06-02T19:27:00Z</time>
        <extensions><gpxtpx:TrackPointExtension><gpxtpx:cad>85</gpxtpx:cad></gpxtpx:TrackPointExtension></extensions>
      </trkpt>
      <trkpt lat="45.12023" lon="7.621946">
        <ele>362.7</ele>
        <time>2026-06-02T19:28:00Z</time>
        <extensions><gpxtpx:TrackPointExtension><gpxtpx:cad>84</gpxtpx:cad></gpxtpx:TrackPointExtension></extensions>
      </trkpt>
      <trkpt lat="45.121685" lon="7.620732">
        <ele>350.2</ele>
        <time>2026-06-02T19:29:00Z</time>
        <extensions><gpxtpx:TrackPointExtension><gpxtpx:cad>91</gpxtpx:cad></gpxtpx:TrackPointExtension></extensions>
      </trkpt>
      <trkpt lat="45.123207" lon="7.619696">
        <ele>337.3</ele>
        <time>2026-06-02T19:30:00Z</time>
        <extensions><gpxtpx:TrackPointExtension><gpxtpx:cad>83</gpxtpx:cad></gpxtpx:TrackPointExtension></extensions>
      </trkpt>
      <trkpt lat="45.124717" lon="7.618627">
        <ele>324.1</ele>
        <time>2026-06-02T19:31:00Z</time>
        <extensions><gpxtpx:TrackPointExtension><gpxtpx:cad>89</gpxtpx:cad></gpxtpx:TrackPointExtension></extensions>
      </trkpt>
      <trkpt lat="45.126313" lon="7.617846">
        <ele>310.5</ele>
        <time>2026-06-02T19:32:00Z</time>
        <extensions><gpxtpx:TrackPointExtension><gpxtpx:cad>82</gpxtpx:cad></gpxtpx:TrackPointExtension></extensions>
      </trkpt>
      <trkpt lat="45.127975" lon="7.617422">
        <ele>296.7</ele>
        <time>2026-06-02T19:33:00Z</time>
        <extensions><gpxtpx:TrackPointExtension><gpxtpx:cad>84</gpxtpx:cad></gpxtpx:TrackPointExtension></extensions>
      </trkpt>
      <trkpt lat="45.129644" lon="7.617061">
        <ele>282.7</ele>
        <time>2026-06-02T19:34:00Z</time>
        <extensions><gpxtpx:TrackPointExtension><gpxtpx:cad>87</gpxtpx:cad></gpxtpx:TrackPointExtension></extensions>
      </trkpt>
      <trkpt lat="45.131325" lon="7.617284">
        <ele>268.6</ele>
        <time>2026-06-02T19:35:00Z</time>
        <extensions><gpxtpx:TrackPointExtension><gpxtpx:cad>86</gpxtpx:cad></gpxtpx:TrackPointExtension></extensions>
      </trkpt>
      <trkpt lat="45.133013" lon="7.617289">
        <ele>254.3</ele>
        <time>2026-06-02T19:36:00Z</time>
        <extensions><gpxtpx:TrackPointExtension><gpxtpx:cad>83</gpxtpx:cad></gpxtpx:TrackPointExtension></extensions>
      </trkpt>
      <trkpt lat="45.134694" lon="7.61706">
        <ele>240.0</ele>
        <time>2026-06-02T19:37:00Z</time>
        <extensions><gpxtpx:TrackPointExtension><gpxtpx:cad>85</gpxtpx:cad></gpxtpx:TrackPointExtension></extensions>
      </trkpt>
    </trkseg>
  </trk>
</gpx>
