<?xml version="1.0" encoding="UTF-8"?>
<TrainingCenterDatabase xmlns="http://www.garmin.com/xmlschemas/TrainingCenterDatabase/v2" xmlns:ns3="http://www.garmin.com/xmlschemas/ActivityExtension/v2" xmlns:xsi="http://www.w3.org/2001/XMLSchema-instance">
  <Activities>
    <Activity Sport="Running">
      <Id>2026-05-26T18:30:00Z</Id>
      <Lap StartTime="2026-05-26T18:30:00Z">
        <TotalTimeSeconds>2820.0</TotalTimeSeconds>
        <DistanceMeters>6280.5</DistanceMeters>
        <Calories>562</Calories>
        <AverageHeartRateBpm><Value>157</Value></AverageHeartRateBpm>
        <MaximumHeartRateBpm><Value>170</Value></MaximumHeartRateBpm>
        <Intensity>Active</Intensity>
        <Notes>Easy run</Notes>
        <Track>
          <Trackpoint>
            <Time>2026-05-26T18:30:00Z</Time>
            <Position>
              <LatitudeDegrees>45.055932</LatitudeDegrees>
              <LongitudeDegrees>7.697819</LongitudeDegrees>
            </Position>
            <AltitudeMeters>240.0</AltitudeMeters>
            <DistanceMeters>0.0</DistanceMeters>
            <HeartRateBpm><Value>85</Value></HeartRateBpm>
            <Extensions><ns3:TPX><ns3:RunCadence>92</ns3:RunCadence></ns3:TPX></Extensions>
          </Trackpoint>
          <Trackpoint>
            <Time>2026-05-26T18:31:00Z</Time>
            <Position>
              <LatitudeDegrees>45.057554</LatitudeDegrees>
              <LongitudeDegrees>7.698156</LongitudeDegrees>
            </Position>
            <AltitudeMeters>266.8</AltitudeMeters>
            <DistanceMeters>182.3</DistanceMeters>
            <HeartRateBpm><Value>142</Value></HeartRateBpm>
            <Extensions><ns3:TPX><ns3:RunCadence>84</ns3:RunCadence></ns3:TPX></Extensions>
          </Trackpoint>
          <Trackpoint>
            <Time>2026-05-26T18:32:00Z</Time>
            <Position>
              <LatitudeDegrees>45.058296</LatitudeDegrees>
              <LongitudeDegrees>7.698073</LongitudeDegrees>
            </Position>
            <AltitudeMeters>278.9</AltitudeMeters>
            <DistanceMeters>265.1</DistanceMeters>
            <HeartRateBpm><Value>155</Value></HeartRateBpm>
            <Extensions><ns3:TPX><ns3:RunCadence>89</ns3:RunCadence></ns3:TPX></Extensions>
          </Trackpoint>
          <Trackpoint>
            <Time>2026-05-26T18:33:00Z</Time>
            <Position>
              <LatitudeDegrees>45.059177</LatitudeDegrees>
              <LongitudeDegrees>7.697989</LongitudeDegrees>
            </Position>
            <AltitudeMeters>293.3</AltitudeMeters>
            <DistanceMeters>363.3</DistanceMeters>
            <HeartRateBpm><Value>163</Value></HeartRateBpm>
            <Extensions><ns3:TPX><ns3:RunCadence>85</ns3:RunCadence></ns3:TPX></Extensions>
          </Trackpoint>
          <Trackpoint>
            <Time>2026-05-26T18:34:00Z</Time>
            <Position>
              <LatitudeDegrees>45.059942</LatitudeDegrees>
              <LongitudeDegrees>7.69796</LongitudeDegrees>
            </Position>
            <AltitudeMeters>305.7</AltitudeMeters>
            <DistanceMeters>448.4</DistanceMeters>
            <HeartRateBpm><Value>165</Value></HeartRateBpm>
            <Extensions><ns3:TPX><ns3:RunCadence>89</ns3:RunCadence></ns3:TPX></Extensions>
          </Trackpoint>
          <Trackpoint>
            <Time>2026-05-26T18:35:00Z</Time>
            <Position>
              <LatitudeDegrees>45.060804</LatitudeDegrees>
              <LongitudeDegrees>7.697942</LongitudeDegrees>
            </Position>
            <AltitudeMeters>319.5</AltitudeMeters>
            <DistanceMeters>544.3</DistanceMeters>
            <HeartRateBpm><Value>161</Value></HeartRateBpm>
            <Extensions><ns3:TPX><ns3:RunCadence>87</ns3:RunCadence></ns3:TPX></Extensions>
          </Trackpoint>
          <Trackpoint>
            <Time>2026-05-26T18:36:00Z</Time>
            <Position>
              <LatitudeDegrees>45.061608</LatitudeDegrees>
              <LongitudeDegrees>7.697732</LongitudeDegrees>
            </Position>
            <AltitudeMeters>332.6</AltitudeMeters>
            <DistanceMeters>635.1</DistanceMeters>
            <HeartRateBpm><Value>168</Value></HeartRateBpm>
            <Extensions><ns3:TPX><ns3:RunCadence>86</ns3:RunCadence></ns3:TPX></Extensions>
          </Trackpoint>
          <Trackpoint>
            <Time>2026-05-26T18:37:00Z</Time>
            <Position>
              <LatitudeDegrees>45.062508</LatitudeDegrees>
              <LongitudeDegrees>7.69771</LongitudeDegrees>
            </Position>
            <AltitudeMeters>346.9</AltitudeMeters>
            <DistanceMeters>735.2</DistanceMeters>
            <HeartRateBpm><Value>164</Value></HeartRateBpm>
            <Extensions><ns3:TPX><ns3:RunCadence>87</ns3:RunCadence></ns3:TPX></Extensions>
          </Trackpoint>
          <Trackpoint>
            <Time>2026-05-26T18:38:00Z</Time>
            <Position>
              <LatitudeDegrees>45.063291</LatitudeDegrees>
              <LongitudeDegrees>7.697706</LongitudeDegrees>
            </Position>
            <AltitudeMeters>359.2</AltitudeMeters>
            <DistanceMeters>822.3</DistanceMeters>
            <HeartRateBpm><Value>167</Value></HeartRateBpm>
            <Extensions><ns3:TPX><ns3:RunCadence>84</ns3:RunCadence></ns3:TPX></Extensions>
          </Trackpoint>
          <Trackpoint>
            <Time>2026-05-26T18:39:00Z</Time>
            <Position>
              <LatitudeDegrees>45.064204</LatitudeDegrees>
              <LongitudeDegrees>7.697683</LongitudeDegrees>
            </Position>
            <AltitudeMeters>373.4</AltitudeMeters>
            <DistanceMeters>923.8</DistanceMeters>
            <HeartRateBpm><Value>165</Value></HeartRateBpm>
            <Extensions><ns3:TPX><ns3:RunCadence>85</ns3:RunCadence></ns3:TPX></Extensions>
          </Trackpoint>
          <Trackpoint>
            <Time>2026-05-26T18:40:00Z</Time>
            <Position>
              <LatitudeDegrees>45.06499</LatitudeDegrees>
              <LongitudeDegrees>7.697648</LongitudeDegrees>
            </Position>
            <AltitudeMeters>385.6</AltitudeMeters>
            <DistanceMeters>1011.3</DistanceMeters>
            <HeartRateBpm><Value>162</Value></HeartRateBpm>
            <Extensions><ns3:TPX><ns3:RunCadence>91</ns3:RunCadence></ns3:TPX></Extensions>
          </Trackpoint>
          <Trackpoint>
            <Time>2026-05-26T18:41:00Z</Time>
            <Position>
              <LatitudeDegrees>45.065938</LatitudeDegrees>
              <LongitudeDegrees>7.697491</LongitudeDegrees>
            </Position>
            <AltitudeMeters>400.1</AltitudeMeters>
            <DistanceMeters>1117.4</DistanceMeters>
            <HeartRateBpm><Value>164</Value></HeartRateBpm>
            <Extensions><ns3:TPX><ns3:RunCadence>85</ns3:RunCadence></ns3:TPX></Extensions>
          </Trackpoint>
          <Trackpoint>
            <Time>2026-05-26T18:42:00Z</Time>
            <Position>
              <LatitudeDegrees>45.066662</LatitudeDegrees>
              <LongitudeDegrees>7.697276</LongitudeDegrees>
            </Position>
            <AltitudeMeters>411.2</AltitudeMeters>
            <DistanceMeters>1199.7</DistanceMeters>
            <HeartRateBpm><Value>165</Value></HeartRateBpm>
            <Extensions><ns3:TPX><ns3:RunCadence>86</ns3:RunCadence></ns3:TPX></Extensions>
          </Trackpoint>
          <Trackpoint>
            <Time>2026-05-26T18:43:00Z</Time>
            <Position>
              <LatitudeDegrees>45.067488</LatitudeDegrees>
              <LongitudeDegrees>7.697337</LongitudeDegrees>
            </Position>
            <AltitudeMeters>423.4</AltitudeMeters>
            <DistanceMeters>1291.7</DistanceMeters>
            <HeartRateBpm><Value>164</Value></HeartRateBpm>
            <Extensions><ns3:TPX><ns3:RunCadence>86</ns3:RunCadence></ns3:TPX></Extensions>
          </Trackpoint>
          <Trackpoint>
            <Time>2026-05-26T18:44:00Z</Time>
            <Position>
              <LatitudeDegrees>45.068483</LatitudeDegrees>
              <LongitudeDegrees>7.697617</LongitudeDegrees>
            </Position>
            <AltitudeMeters>438.2</AltitudeMeters>
            <DistanceMeters>1404.4</DistanceMeters>
            <HeartRateBpm><Value>167</Value></HeartRateBpm>
            <Extensions><ns3:TPX><ns3:RunCadence>85</ns3:RunCadence></ns3:TPX></Extensions>
          </Trackpoint>
          <Trackpoint>
            <Time>2026-05-26T18:45:00Z</Time>
            <Position>
              <LatitudeDegrees>45.069293</LatitudeDegrees>
              <LongitudeDegrees>7.697933</LongitudeDegrees>
            </Position>
            <AltitudeMeters>450.1</AltitudeMeters>
            <DistanceMeters>1497.9</DistanceMeters>
            <HeartRateBpm><Value>163</Value></HeartRateBpm>
            <Extensions><ns3:TPX><ns3:RunCadence>89</ns3:RunCadence></ns3:TPX></Extensions>
          </Trackpoint>
          <Trackpoint>
            <Time>2026-05-26T18:46:00Z</Time>
            <Position>
              <LatitudeDegrees>45.070212</LatitudeDegrees>
              <LongitudeDegrees>7.698257</LongitudeDegrees>
            </Position>
            <AltitudeMeters>463.4</AltitudeMeters>
            <DistanceMeters>1603.2</DistanceMeters>
            <HeartRateBpm><Value>166</Value></HeartRateBpm>
            <Extensions><ns3:TPX><ns3:RunCadence>90</ns3:RunCadence></ns3:TPX></Extensions>
          </Trackpoint>
          <Trackpoint>
            <Time>2026-05-26T18:47:00Z</Time>
            <Position>
              <LatitudeDegrees>45.071163</LatitudeDegrees>
              <LongitudeDegrees>7.698461</LongitudeDegrees>
            </Position>
            <AltitudeMeters>476.5</AltitudeMeters>
            <DistanceMeters>1710.2</DistanceMeters>
            <HeartRateBpm><Value>166</Value></HeartRateBpm>
            <Extensions><ns3:TPX><ns3:RunCadence>89</ns3:RunCadence></ns3:TPX></Extensions>
          </Trackpoint>
          <Trackpoint>
            <Time>2026-05-26T18:48:00Z</Time>
            <Position>
              <LatitudeDegrees>45.072097</LatitudeDegrees>
              <LongitudeDegrees>7.6985</LongitudeDegrees>
            </Position>
            <AltitudeMeters>488.9</AltitudeMeters>
            <DistanceMeters>1814.1</DistanceMeters>
            <HeartRateBpm><Value>170</Value></HeartRateBpm>
            <Extensions><ns3:TPX><ns3:RunCadence>88</ns3:RunCadence></ns3:TPX></Extensions>
          </Trackpoint>
          <Trackpoint>
            <Time>2026-05-26T18:49:00Z</Time>
            <Position>
              <LatitudeDegrees>45.073066</LatitudeDegrees>
              <LongitudeDegrees>7.698777</LongitudeDegrees>
            </Position>
            <AltitudeMeters>501.7</AltitudeMeters>
            <DistanceMeters>1923.9</DistanceMeters>
            <HeartRateBpm><Value>167</Value></HeartRateBpm>
            <Extensions><ns3:TPX><ns3:RunCadence>82</ns3:RunCadence></ns3:TPX></Extensions>
          </Trackpoint>
          <Trackpoint>
            <Time>2026-05-26T18:50:00Z</Time>
            <Position>
              <LatitudeDegrees>45.073945</LatitudeDegrees>
              <LongitudeDegrees>7.698941</LongitudeDegrees>
            </Position>
            <AltitudeMeters>512.8</AltitudeMeters>
            <DistanceMeters>2022.6</DistanceMeters>
            <HeartRateBpm><Value>162</Value></HeartRateBpm>
            <Extensions><ns3:TPX><ns3:RunCadence>89</ns3:RunCadence></ns3:TPX></Extensions>
          </Trackpoint>
          <Trackpoint>
            <Time>2026-05-26T18:51:00Z</Time>
            <Position>
              <LatitudeDegrees>45.07485</LatitudeDegrees>
              <LongitudeDegrees>7.698764</LongitudeDegrees>
            </Position>
            <AltitudeMeters>523.9</AltitudeMeters>
            <DistanceMeters>2124.1</DistanceMeters>
            <HeartRateBpm><Value>162</Value></HeartRateBpm>
            <Extensions><ns3:TPX><ns3:RunCadence>87</ns3:RunCadence></ns3:TPX></Extensions>
          </Trackpoint>
          <Trackpoint>
            <Time>2026-05-26T18:52:00Z</Time>
            <Position>
              <LatitudeDegrees>45.075728</LatitudeDegrees>
              <LongitudeDegrees>7.698569</LongitudeDegrees>
            </Position>
            <AltitudeMeters>534.4</AltitudeMeters>
            <DistanceMeters>2223.0</DistanceMeters>
            <HeartRateBpm><Value>164</Value></HeartRateBpm>
            <Extensions><ns3:TPX><ns3:RunCadence>88</ns3:RunCadence></ns3:TPX></Extensions>
          </Trackpoint>
          <Trackpoint>
            <Time>2026-05-26T18:53:00Z</Time>
            <Position>
              <LatitudeDegrees>45.076683</LatitudeDegrees>
              <LongitudeDegrees>7.698223</LongitudeDegrees>
            </Position>
            <AltitudeMeters>545.6</AltitudeMeters>
            <DistanceMeters>2332.5</DistanceMeters>
            <HeartRateBpm><Value>163</Value></HeartRateBpm>
            <Extensions><ns3:TPX><ns3:RunCadence>85</ns3:RunCadence></ns3:TPX></Extensions>
          </Trackpoint>
          <Trackpoint>
            <Time>2026-05-26T18:54:00Z</Time>
            <Position>
              <LatitudeDegrees>45.077528</LatitudeDegrees>
              <LongitudeDegrees>7.697968</LongitudeDegrees>
            </Position>
            <AltitudeMeters>555.0</AltitudeMeters>
            <DistanceMeters>2428.6</DistanceMeters>
            <HeartRateBpm><Value>163</Value></HeartRateBpm>
            <Extensions><ns3:TPX><ns3:RunCadence>87</ns3:RunCadence></ns3:TPX></Extensions>
          </Trackpoint>
          <Trackpoint>
            <Time>2026-05-26T18:55:00Z</Time>
            <Position>
              <LatitudeDegrees>45.078599</LatitudeDegrees>
              <LongitudeDegrees>7.698014</LongitudeDegrees>
            </Position>
            <AltitudeMeters>566.2</AltitudeMeters>
            <DistanceMeters>2547.8</DistanceMeters>
            <HeartRateBpm><Value>167</Value></HeartRateBpm>
            <Extensions><ns3:TPX><ns3:RunCadence>85</ns3:RunCadence></ns3:TPX></Extensions>
          </Trackpoint>
          <Trackpoint>
            <Time>2026-05-26T18:56:00Z</Time>
            <Position>
              <LatitudeDegrees>45.079543</LatitudeDegrees>
              <LongitudeDegrees>7.698084</LongitudeDegrees>
            </Position>
            <AltitudeMeters>575.6</AltitudeMeters>
            <DistanceMeters>2652.9</DistanceMeters>
            <HeartRateBpm><Value>162</Value></HeartRateBpm>
            <Extensions><ns3:TPX><ns3:RunCadence>83</ns3:RunCadence></ns3:TPX></Extensions>
          </Trackpoint>
          <Trackpoint>
            <Time>2026-05-26T18:57:00Z</Time>
            <Position>
              <LatitudeDegrees>45.080658</LatitudeDegrees>
              <LongitudeDegrees>7.698057</LongitudeDegrees>
            </Position>
            <AltitudeMeters>586.1</AltitudeMeters>
            <DistanceMeters>2776.9</DistanceMeters>
            <HeartRateBpm><Value>162</Value></HeartRateBpm>
            <Extensions><ns3:TPX><ns3:RunCadence>79</ns3:RunCadence></ns3:TPX></Extensions>
          </Trackpoint>
          <Trackpoint>
            <Time>2026-05-26T18:58:00Z</Time>
            <Position>
              <LatitudeDegrees>45.081677</LatitudeDegrees>
              <LongitudeDegrees>7.697887</LongitudeDegrees>
            </Position>
            <AltitudeMeters>595.2</AltitudeMeters>
            <DistanceMeters>2891.0</DistanceMeters>
            <HeartRateBpm><Value>165</Value></HeartRateBpm>
            <Extensions><ns3:TPX><ns3:RunCadence>85</ns3:RunCadence></ns3:TPX></Extensions>
          </Trackpoint>
          <Trackpoint>
            <Time>2026-05-26T18:59:00Z</Time>
            <Position>
              <LatitudeDegrees>45.082839</LatitudeDegrees>
              <LongitudeDegrees>7.697796</LongitudeDegrees>
            </Position>
            <AltitudeMeters>604.8</AltitudeMeters>
            <DistanceMeters>3020.4</DistanceMeters>
            <HeartRateBpm><Value>158</Value></HeartRateBpm>
            <Extensions><ns3:TPX><ns3:RunCadence>84</ns3:RunCadence></ns3:TPX></Extensions>
          </Trackpoint>
          <Trackpoint>
            <Time>2026-05-26T19:00:00Z</Time>
            <Position>
              <LatitudeDegrees>45.084006</LatitudeDegrees>
              <LongitudeDegrees>7.697546</LongitudeDegrees>
            </Position>
            <AltitudeMeters>613.8</AltitudeMeters>
            <DistanceMeters>3151.7</DistanceMeters>
            <HeartRateBpm><Value>167</Value></HeartRateBpm>
            <Extensions><ns3:TPX><ns3:RunCadence>85</ns3:RunCadence></ns3:TPX></Extensions>
          </Trackpoint>
          <Trackpoint>
            <Time>2026-05-26T19:01:00Z</Time>
            <Position>
              <LatitudeDegrees>45.085113</LatitudeDegrees>
              <LongitudeDegrees>7.697442</LongitudeDegrees>
            </Position>
            <AltitudeMeters>621.4</AltitudeMeters>
            <DistanceMeters>3275.0</DistanceMeters>
            <HeartRateBpm><Value>160</Value></HeartRateBpm>
            <Extensions><ns3:TPX><ns3:RunCadence>84</ns3:RunCadence></ns3:TPX></Extensions>
          </Trackpoint>
          <Trackpoint>
            <Time>2026-05-26T19:02:00Z</Time>
            <Position>
              <LatitudeDegrees>45.086376</LatitudeDegrees>
              <LongitudeDegrees>7.69696</LongitudeDegrees>
            </Position>
            <AltitudeMeters>629.6</AltitudeMeters>
            <DistanceMeters>3420.4</DistanceMeters>
            <HeartRateBpm><Value>161</Value></HeartRateBpm>
            <Extensions><ns3:TPX><ns3:RunCadence>85</ns3:RunCadence></ns3:TPX></Extensions>
          </Trackpoint>
          <Trackpoint>
            <Time>2026-05-26T19:03:00Z</Time>
            <Position>
              <LatitudeDegrees>45.087601</LatitudeDegrees>
              <LongitudeDegrees>7.696682</LongitudeDegrees>
            </Position>
            <AltitudeMeters>636.4</AltitudeMeters>
            <DistanceMeters>3558.4</DistanceMeters>
            <HeartRateBpm><Value>162</Value></HeartRateBpm>
            <Extensions><ns3:TPX><ns3:RunCadence>87</ns3:RunCadence></ns3:TPX></Extensions>
          </Trackpoint>
          <Trackpoint>
            <Time>2026-05-26T19:04:00Z</Time>
            <Position>
              <LatitudeDegrees>45.08879</LatitudeDegrees>
              <LongitudeDegrees>7.696729</LongitudeDegrees>
            </Position>
            <AltitudeMeters>642.0</AltitudeMeters>
            <DistanceMeters>3690.7</DistanceMeters>
            <HeartRateBpm><Value>163</Value></HeartRateBpm>
            <Extensions><ns3:TPX><ns3:RunCadence>85</ns3:RunCadence></ns3:TPX></Extensions>
          </Trackpoint>
          <Trackpoint>
            <Time>2026-05-26T19:05:00Z</Time>
            <Position>
              <LatitudeDegrees>45.090017</LatitudeDegrees>
              <LongitudeDegrees>7.696973</LongitudeDegrees>
            </Position>
            <AltitudeMeters>646.9</AltitudeMeters>
            <DistanceMeters>3828.5</DistanceMeters>
            <HeartRateBpm><Value>157</Value></HeartRateBpm>
            <Extensions><ns3:TPX><ns3:RunCadence>91</ns3:RunCadence></ns3:TPX></Extensions>
          </Trackpoint>
          <Trackpoint>
            <Time>2026-05-26T19:06:00Z</Time>
            <Position>
              <LatitudeDegrees>45.091168</LatitudeDegrees>
              <LongitudeDegrees>7.697636</LongitudeDegrees>
            </Position>
            <AltitudeMeters>650.9</AltitudeMeters>
            <DistanceMeters>3966.7</DistanceMeters>
            <HeartRateBpm><Value>154</Value></HeartRateBpm>
            <Extensions><ns3:TPX><ns3:RunCadence>90</ns3:RunCadence></ns3:TPX></Extensions>
          </Trackpoint>
          <Trackpoint>
            <Time>2026-05-26T19:07:00Z</Time>
            <Position>
              <LatitudeDegrees>45.09232</LatitudeDegrees>
              <LongitudeDegrees>7.698104</LongitudeDegrees>
            </Position>
            <AltitudeMeters>653.8</AltitudeMeters>
            <DistanceMeters>4099.8</DistanceMeters>
            <HeartRateBpm><Value>152</Value></HeartRateBpm>
            <Extensions><ns3:TPX><ns3:RunCadence>83</ns3:RunCadence></ns3:TPX></Extensions>
          </Trackpoint>
          <Trackpoint>
            <Time>2026-05-26T19:08:00Z</Time>
            <Position>
              <LatitudeDegrees>45.093896</LatitudeDegrees>
              <LongitudeDegrees>7.698714</LongitudeDegrees>
            </Position>
            <AltitudeMeters>656.3</AltitudeMeters>
            <DistanceMeters>4281.5</DistanceMeters>
            <HeartRateBpm><Value>159</Value></HeartRateBpm>
            <Extensions><ns3:TPX><ns3:RunCadence>86</ns3:RunCadence></ns3:TPX></Extensions>
          </Trackpoint>
          <Trackpoint>
            <Time>2026-05-26T19:09:00Z</Time>
            <Position>
              <LatitudeDegrees>45.095486</LatitudeDegrees>
              <LongitudeDegrees>7.699504</LongitudeDegrees>
            </Position>
            <AltitudeMeters>657.0</AltitudeMeters>
            <DistanceMeters>4468.9</DistanceMeters>
            <HeartRateBpm><Value>153</Value></HeartRateBpm>
            <Extensions><ns3:TPX><ns3:RunCadence>84</ns3:RunCadence></ns3:TPX></Extensions>
          </Trackpoint>
          <Trackpoint>
            <Time>2026-05-26T19:10:00Z</Time>
            <Position>
              <LatitudeDegrees>45.097076</LatitudeDegrees>
              <LongitudeDegrees>7.700208</LongitudeDegrees>
            </Position>
            <AltitudeMeters>656.0</AltitudeMeters>
            <DistanceMeters>4654.1</DistanceMeters>
            <HeartRateBpm><Value>154</Value></HeartRateBpm>
            <Extensions><ns3:TPX><ns3:RunCadence>84</ns3:RunCadence></ns3:TPX></Extensions>
          </Trackpoint>
          <Trackpoint>
            <Time>2026-05-26T19:11:00Z</Time>
            <Position>
              <LatitudeDegrees>45.09885</LatitudeDegrees>
              <LongitudeDegrees>7.700675</LongitudeDegrees>
            </Position>
            <AltitudeMeters>652.9</AltitudeMeters>
            <DistanceMeters>4854.7</DistanceMeters>
            <HeartRateBpm><Value>150</Value></HeartRateBpm>
            <Extensions><ns3:TPX><ns3:RunCadence>87</ns3:RunCadence></ns3:TPX></Extensions>
          </Trackpoint>
          <Trackpoint>
            <Time>2026-05-26T19:12:00Z</Time>
            <Position>
              <LatitudeDegrees>45.10069</LatitudeDegrees>
              <LongitudeDegrees>7.701255</LongitudeDegrees>
            </Position>
            <AltitudeMeters>647.5</AltitudeMeters>
            <DistanceMeters>5064.4</DistanceMeters>
            <HeartRateBpm><Value>146</Value></HeartRateBpm>
            <Extensions><ns3:TPX><ns3:RunCadence>89</ns3:RunCadence></ns3:TPX></Extensions>
          </Trackpoint>
          <Trackpoint>
            <Time>2026-05-26T19:13:00Z</Time>
            <Position>
              <LatitudeDegrees>45.102486</LatitudeDegrees>
              <LongitudeDegrees>7.70218</LongitudeDegrees>
            </Position>
            <AltitudeMeters>639.7</AltitudeMeters>
            <DistanceMeters>5276.9</DistanceMeters>
            <HeartRateBpm><Value>148</Value></HeartRateBpm>
            <Extensions><ns3:TPX><ns3:RunCadence>91</ns3:RunCadence></ns3:TPX></Extensions>
          </Trackpoint>
          <Trackpoint>
            <Time>2026-05-26T19:14:00Z</Time>
            <Position>
              <LatitudeDegrees>45.104422</LatitudeDegrees>
              <LongitudeDegrees>7.703299</LongitudeDegrees>
            </Position>
            <AltitudeMeters>628.6</AltitudeMeters>
            <DistanceMeters>5509.4</DistanceMeters>
            <HeartRateBpm><Value>141</Value></HeartRateBpm>
            <Extensions><ns3:TPX><ns3:RunCadence>81</ns3:RunCadence></ns3:TPX></Extensions>
          </Trackpoint>
          <Trackpoint>
            <Time>2026-05-26T19:15:00Z</Time>
            <Position>
              <LatitudeDegrees>45.106322</LatitudeDegrees>
              <LongitudeDegrees>7.704994</LongitudeDegrees>
            </Position>
            <AltitudeMeters>613.8</AltitudeMeters>
            <DistanceMeters>5759.1</DistanceMeters>
            <HeartRateBpm><Value>136</Value></HeartRateBpm>
            <Extensions><ns3:TPX><ns3:RunCadence>83</ns3:RunCadence></ns3:TPX></Extensions>
          </Trackpoint>
          <Trackpoint>
            <Time>2026-05-26T19:16:00Z</Time>
            <Position>
              <LatitudeDegrees>45.108299</LatitudeDegrees>
              <LongitudeDegrees>7.706648</LongitudeDegrees>
            </Position>
            <AltitudeMeters>595.6</AltitudeMeters>
            <DistanceMeters>6014.3</DistanceMeters>
            <HeartRateBpm><Value>131</Value></HeartRateBpm>
            <Extensions><ns3:TPX><ns3:RunCadence>87</ns3:RunCadence></ns3:TPX></Extensions>
          </Trackpoint>
          <Trackpoint>
            <Time>2026-05-26T19:17:00Z</Time>
            <Position>
              <LatitudeDegrees>45.110515</LatitudeDegrees>
              <LongitudeDegrees>7.70793</LongitudeDegrees>
            </Position>
            <AltitudeMeters>573.6</AltitudeMeters>
            <DistanceMeters>6280.5</DistanceMeters>
            <HeartRateBpm><Value>128</Value></HeartRateBpm>
            <Extensions><ns3:TPX><ns3:RunCadence>84</ns3:RunCadence></ns3:TPX></Extensions>
          </Trackpoint>
        </Track>
      </Lap>
      <Creator xsi:type="Device_t">
        <Name>Garmin Forerunner 265</Name>
      </Creator>
    </Activity>
  </Activities>
  <Author xsi:type="Application_t"><Name>Garmin Connect</Name></Author>
</TrainingCenterDatabase>
