<?xml version="1.0" encoding="UTF-8"?>
<TrainingCenterDatabase xmlns="http://www.garmin.com/xmlschemas/TrainingCenterDatabase/v2" xmlns:ns3="http://www.garmin.com/xmlschemas/ActivityExtension/v2" xmlns:xsi="http://www.w3.org/2001/XMLSchema-instance">
  <Activities>
    <Activity Sport="Running">
      <Id>2026-06-22T08:45:00+02:00</Id>
      <Lap StartTime="2026-06-22T08:45:00+02:00">
        <TotalTimeSeconds>4620.0</TotalTimeSeconds>
        <DistanceMeters>11832.3</DistanceMeters>
        <Calories>874</Calories>
        <AverageHeartRateBpm><Value>150</Value></AverageHeartRateBpm>
        <MaximumHeartRateBpm><Value>178</Value></MaximumHeartRateBpm>
        <Intensity>Active</Intensity>
        <Notes>Interval session</Notes>
        <Track>
          <Trackpoint>
            <Time>2026-06-22T08:45:00+02:00</Time>
            <Position>
              <LatitudeDegrees>45.071928</LatitudeDegrees>
              <LongitudeDegrees>7.691994</LongitudeDegrees>
            </Position>
            <AltitudeMeters>240.0</AltitudeMeters>
            <DistanceMeters>0.0</DistanceMeters>
            <HeartRateBpm><Value>83</Value></HeartRateBpm>
            <Extensions><ns3:TPX><ns3:RunCadence>84</ns3:RunCadence></ns3:TPX></Extensions>
          </Trackpoint>
          <Trackpoint>
            <Time>2026-06-22T08:46:00+02:00</Time>
            <Position>
              <LatitudeDegrees>45.071323</LatitudeDegrees>
              <LongitudeDegrees>7.693753</LongitudeDegrees>
            </Position>
            <AltitudeMeters>258.6</AltitudeMeters>
            <DistanceMeters>153.7</DistanceMeters>
            <HeartRateBpm><Value>142</Value></HeartRateBpm>
            <Extensions><ns3:TPX><ns3:RunCadence>87</ns3:RunCadence></ns3:TPX></Extensions>
          </Trackpoint>
          <Trackpoint>
            <Time>2026-06-22T08:47:00+02:00</Time>
            <Position>
              <LatitudeDegrees>45.070733</LatitudeDegrees>
              <LongitudeDegrees>7.695522</LongitudeDegrees>
            </Position>
            <AltitudeMeters>277.2</AltitudeMeters>
            <DistanceMeters>307.3</DistanceMeters>
            <HeartRateBpm><Value>168</Value></HeartRateBpm>
            <Extensions><ns3:TPX><ns3:RunCadence>85</ns3:RunCadence></ns3:TPX></Extensions>
          </Trackpoint>
          <Trackpoint>
            <Time>2026-06-22T08:48:00+02:00</Time>
            <Position>
              <LatitudeDegrees>45.069838</LatitudeDegrees>
              <LongitudeDegrees>7.697013</LongitudeDegrees>
            </Position>
            <AltitudeMeters>295.7</AltitudeMeters>
            <DistanceMeters>461.0</DistanceMeters>
            <HeartRateBpm><Value>170</Value></HeartRateBpm>
            <Extensions><ns3:TPX><ns3:RunCadence>90</ns3:RunCadence></ns3:TPX></Extensions>
          </Trackpoint>
          <Trackpoint>
            <Time>2026-06-22T08:49:00+02:00</Time>
            <Position>
              <LatitudeDegrees>45.068738</LatitudeDegrees>
              <LongitudeDegrees>7.698199</LongitudeDegrees>
            </Position>
            <AltitudeMeters>314.2</AltitudeMeters>
            <DistanceMeters>614.7</DistanceMeters>
            <HeartRateBpm><Value>176</Value></HeartRateBpm>
            <Extensions><ns3:TPX><ns3:RunCadence>88</ns3:RunCadence></ns3:TPX></Extensions>
          </Trackpoint>
          <Trackpoint>
            <Time>2026-06-22T08:50:00+02:00</Time>
            <Position>
              <LatitudeDegrees>45.067629</LatitudeDegrees>
              <LongitudeDegrees>7.699366</LongitudeDegrees>
            </Position>
            <AltitudeMeters>332.5</AltitudeMeters>
            <DistanceMeters>768.3</DistanceMeters>
            <HeartRateBpm><Value>171</Value></HeartRateBpm>
            <Extensions><ns3:TPX><ns3:RunCadence>86</ns3:RunCadence></ns3:TPX></Extensions>
          </Trackpoint>
          <Trackpoint>
            <Time>2026-06-22T08:51:00+02:00</Time>
            <Position>
              <LatitudeDegrees>45.066524</LatitudeDegrees>
              <LongitudeDegrees>7.700541</LongitudeDegrees>
            </Position>
            <AltitudeMeters>350.6</AltitudeMeters>
            <DistanceMeters>922.0</DistanceMeters>
            <HeartRateBpm><Value>175</Value></HeartRateBpm>
            <Extensions><ns3:TPX><ns3:RunCadence>89</ns3:RunCadence></ns3:TPX></Extensions>
          </Trackpoint>
          <Trackpoint>
            <Time>2026-06-22T08:52:00+02:00</Time>
            <Position>
              <LatitudeDegrees>45.065737</LatitudeDegrees>
              <LongitudeDegrees>7.702149</LongitudeDegrees>
            </Position>
            <AltitudeMeters>368.6</AltitudeMeters>
            <DistanceMeters>1075.7</DistanceMeters>
            <HeartRateBpm><Value>174</Value></HeartRateBpm>
            <Extensions><ns3:TPX><ns3:RunCadence>86</ns3:RunCadence></ns3:TPX></Extensions>
          </Trackpoint>
          <Trackpoint>
            <Time>2026-06-22T08:53:00+02:00</Time>
            <Position>
              <LatitudeDegrees>45.064885</LatitudeDegrees>
              <LongitudeDegrees>7.70369</LongitudeDegrees>
            </Position>
            <AltitudeMeters>386.4</AltitudeMeters>
            <DistanceMeters>1229.3</DistanceMeters>
            <HeartRateBpm><Value>171</Value></HeartRateBpm>
            <Extensions><ns3:TPX><ns3:RunCadence>84</ns3:RunCadence></ns3:TPX></Extensions>
          </Trackpoint>
          <Trackpoint>
            <Time>2026-06-22T08:54:00+02:00</Time>
            <Position>
              <LatitudeDegrees>45.064012</LatitudeDegrees>
              <LongitudeDegrees>7.705206</LongitudeDegrees>
            </Position>
            <AltitudeMeters>403.9</AltitudeMeters>
            <DistanceMeters>1383.0</DistanceMeters>
            <HeartRateBpm><Value>172</Value></HeartRateBpm>
            <Extensions><ns3:TPX><ns3:RunCadence>87</ns3:RunCadence></ns3:TPX></Extensions>
          </Trackpoint>
          <Trackpoint>
            <Time>2026-06-22T08:55:00+02:00</Time>
            <Position>
              <LatitudeDegrees>45.062814</LatitudeDegrees>
              <LongitudeDegrees>7.706182</LongitudeDegrees>
            </Position>
            <AltitudeMeters>421.1</AltitudeMeters>
            <DistanceMeters>1536.7</DistanceMeters>
            <HeartRateBpm><Value>171</Value></HeartRateBpm>
            <Extensions><ns3:TPX><ns3:RunCadence>89</ns3:RunCadence></ns3:TPX></Extensions>
          </Trackpoint>
          <Trackpoint>
            <Time>2026-06-22T08:56:00+02:00</Time>
            <Position>
              <LatitudeDegrees>45.06163</LatitudeDegrees>
              <LongitudeDegrees>7.70719</LongitudeDegrees>
            </Position>
            <AltitudeMeters>438.1</AltitudeMeters>
            <DistanceMeters>1690.3</DistanceMeters>
            <HeartRateBpm><Value>178</Value></HeartRateBpm>
            <Extensions><ns3:TPX><ns3:RunCadence>84</ns3:RunCadence></ns3:TPX></Extensions>
          </Trackpoint>
          <Trackpoint>
            <Time>2026-06-22T08:57:00+02:00</Time>
            <Position>
              <LatitudeDegrees>45.060421</LatitudeDegrees>
              <LongitudeDegrees>7.70814</LongitudeDegrees>
            </Position>
            <AltitudeMeters>454.7</AltitudeMeters>
            <DistanceMeters>1844.0</DistanceMeters>
            <HeartRateBpm><Value>173</Value></HeartRateBpm>
            <Extensions><ns3:TPX><ns3:RunCadence>88</ns3:RunCadence></ns3:TPX></Extensions>
          </Trackpoint>
          <Trackpoint>
            <Time>2026-06-22T08:58:00+02:00</Time>
            <Position>
              <LatitudeDegrees>45.05921</LatitudeDegrees>
              <LongitudeDegrees>7.709081</LongitudeDegrees>
            </Position>
            <AltitudeMeters>471.0</AltitudeMeters>
            <DistanceMeters>1997.7</DistanceMeters>
            <HeartRateBpm><Value>167</Value></HeartRateBpm>
            <Extensions><ns3:TPX><ns3:RunCadence>86</ns3:RunCadence></ns3:TPX></Extensions>
          </Trackpoint>
          <Trackpoint>
            <Time>2026-06-22T08:59:00+02:00</Time>
            <Position>
              <LatitudeDegrees>45.058042</LatitudeDegrees>
              <LongitudeDegrees>7.710127</LongitudeDegrees>
            </Position>
            <AltitudeMeters>486.8</AltitudeMeters>
            <DistanceMeters>2151.3</DistanceMeters>
            <HeartRateBpm><Value>171</Value></HeartRateBpm>
            <Extensions><ns3:TPX><ns3:RunCadence>88</ns3:RunCadence></ns3:TPX></Extensions>
          </Trackpoint>
          <Trackpoint>
            <Time>2026-06-22T09:00:00+02:00</Time>
            <Position>
              <LatitudeDegrees>45.05701</LatitudeDegrees>
              <LongitudeDegrees>7.711429</LongitudeDegrees>
            </Position>
            <AltitudeMeters>502.3</AltitudeMeters>
            <DistanceMeters>2305.0</DistanceMeters>
            <HeartRateBpm><Value>172</Value></HeartRateBpm>
            <Extensions><ns3:TPX><ns3:RunCadence>89</ns3:RunCadence></ns3:TPX></Extensions>
          </Trackpoint>
          <Trackpoint>
            <Time>2026-06-22T09:01:00+02:00</Time>
            <Position>
              <LatitudeDegrees>45.056116</LatitudeDegrees>
              <LongitudeDegrees>7.71292</LongitudeDegrees>
            </Position>
            <AltitudeMeters>517.3</AltitudeMeters>
            <DistanceMeters>2458.7</DistanceMeters>
            <HeartRateBpm><Value>173</Value></HeartRateBpm>
            <Extensions><ns3:TPX><ns3:RunCadence>87</ns3:RunCadence></ns3:TPX></Extensions>
          </Trackpoint>
          <Trackpoint>
            <Time>2026-06-22T09:02:00+02:00</Time>
            <Position>
              <LatitudeDegrees>45.055116</LatitudeDegrees>
              <LongitudeDegrees>7.714271</LongitudeDegrees>
            </Position>
            <AltitudeMeters>531.9</AltitudeMeters>
            <DistanceMeters>2612.3</DistanceMeters>
            <HeartRateBpm><Value>168</Value></HeartRateBpm>
            <Extensions><ns3:TPX><ns3:RunCadence>87</ns3:RunCadence></ns3:TPX></Extensions>
          </Trackpoint>
          <Trackpoint>
            <Time>2026-06-22T09:03:00+02:00</Time>
            <Position>
              <LatitudeDegrees>45.054042</LatitudeDegrees>
              <LongitudeDegrees>7.715501</LongitudeDegrees>
            </Position>
            <AltitudeMeters>545.9</AltitudeMeters>
            <DistanceMeters>2766.0</DistanceMeters>
            <HeartRateBpm><Value>166</Value></HeartRateBpm>
            <Extensions><ns3:TPX><ns3:RunCadence>86</ns3:RunCadence></ns3:TPX></Extensions>
          </Trackpoint>
          <Trackpoint>
            <Time>2026-06-22T09:04:00+02:00</Time>
            <Position>
              <LatitudeDegrees>45.052894</LatitudeDegrees>
              <LongitudeDegrees>7.716591</LongitudeDegrees>
            </Position>
            <AltitudeMeters>559.5</AltitudeMeters>
            <DistanceMeters>2919.7</DistanceMeters>
            <HeartRateBpm><Value>169</Value></HeartRateBpm>
            <Extensions><ns3:TPX><ns3:RunCadence>86</ns3:RunCadence></ns3:TPX></Extensions>
          </Trackpoint>
          <Trackpoint>
            <Time>2026-06-22T09:05:00+02:00</Time>
            <Position>
              <LatitudeDegrees>45.051654</LatitudeDegrees>
              <LongitudeDegrees>7.717454</LongitudeDegrees>
            </Position>
            <AltitudeMeters>572.5</AltitudeMeters>
            <DistanceMeters>3073.3</DistanceMeters>
            <HeartRateBpm><Value>171</Value></HeartRateBpm>
            <Extensions><ns3:TPX><ns3:RunCadence>84</ns3:RunCadence></ns3:TPX></Extensions>
          </Trackpoint>
          <Trackpoint>
            <Time>2026-06-22T09:06:00+02:00</Time>
            <Position>
              <LatitudeDegrees>45.050482</LatitudeDegrees>
              <LongitudeDegrees>7.71849</LongitudeDegrees>
            </Position>
            <AltitudeMeters>585.0</AltitudeMeters>
            <DistanceMeters>3227.0</DistanceMeters>
            <HeartRateBpm><Value>170</Value></HeartRateBpm>
            <Extensions><ns3:TPX><ns3:RunCadence>90</ns3:RunCadence></ns3:TPX></Extensions>
          </Trackpoint>
          <Trackpoint>
            <Time>2026-06-22T09:07:00+02:00</Time>
            <Position>
              <LatitudeDegrees>45.04922</LatitudeDegrees>
              <LongitudeDegrees>7.719286</LongitudeDegrees>
            </Position>
            <AltitudeMeters>596.9</AltitudeMeters>
            <DistanceMeters>3380.7</DistanceMeters>
            <HeartRateBpm><Value>167</Value></HeartRateBpm>
            <Extensions><ns3:TPX><ns3:RunCadence>84</ns3:RunCadence></ns3:TPX></Extensions>
          </Trackpoint>
          <Trackpoint>
            <Time>2026-06-22T09:08:00+02:00</Time>
            <Position>
              <LatitudeDegrees>45.047934</LatitudeDegrees>
              <LongitudeDegrees>7.720004</LongitudeDegrees>
            </Position>
            <AltitudeMeters>608.2</AltitudeMeters>
            <DistanceMeters>3534.3</DistanceMeters>
            <HeartRateBpm><Value>171</Value></HeartRateBpm>
            <Extensions><ns3:TPX><ns3:RunCadence>86</ns3:RunCadence></ns3:TPX></Extensions>
          </Trackpoint>
          <Trackpoint>
            <Time>2026-06-22T09:09:00+02:00</Time>
            <Position>
              <LatitudeDegrees>45.046674</LatitudeDegrees>
              <LongitudeDegrees>7.720806</LongitudeDegrees>
            </Position>
            <AltitudeMeters>618.9</AltitudeMeters>
            <DistanceMeters>3688.0</DistanceMeters>
            <HeartRateBpm><Value>165</Value></HeartRateBpm>
            <Extensions><ns3:TPX><ns3:RunCadence>89</ns3:RunCadence></ns3:TPX></Extensions>
          </Trackpoint>
          <Trackpoint>
            <Time>2026-06-22T09:10:00+02:00</Time>
            <Position>
              <LatitudeDegrees>45.045388</LatitudeDegrees>
              <LongitudeDegrees>7.721522</LongitudeDegrees>
            </Position>
            <AltitudeMeters>629.0</AltitudeMeters>
            <DistanceMeters>3841.7</DistanceMeters>
            <HeartRateBpm><Value>168</Value></HeartRateBpm>
            <Extensions><ns3:TPX><ns3:RunCadence>89</ns3:RunCadence></ns3:TPX></Extensions>
          </Trackpoint>
          <Trackpoint>
            <Time>2026-06-22T09:11:00+02:00</Time>
            <Position>
              <LatitudeDegrees>45.044021</LatitudeDegrees>
              <LongitudeDegrees>7.721807</LongitudeDegrees>
            </Position>
            <AltitudeMeters>638.4</AltitudeMeters>
            <DistanceMeters>3995.3</DistanceMeters>
            <HeartRateBpm><Value>165</Value></HeartRateBpm>
            <Extensions><ns3:TPX><ns3:RunCadence>87</ns3:RunCadence></ns3:TPX></Extensions>
          </Trackpoint>
          <Trackpoint>
            <Time>2026-06-22T09:12:00+02:00</Time>
            <Position>
              <LatitudeDegrees>45.042639</LatitudeDegrees>
              <LongitudeDegrees>7.72177</LongitudeDegrees>
            </Position>
            <AltitudeMeters>647.2</AltitudeMeters>
            <DistanceMeters>4149.0</DistanceMeters>
            <HeartRateBpm><Value>164</Value></HeartRateBpm>
            <Extensions><ns3:TPX><ns3:RunCadence>83</ns3:RunCadence></ns3:TPX></Extensions>
          </Trackpoint>
          <Trackpoint>
            <Time>2026-06-22T09:13:00+02:00</Time>
            <Position>
              <LatitudeDegrees>45.041259</LatitudeDegrees>
              <LongitudeDegrees>7.721871</LongitudeDegrees>
            </Position>
            <AltitudeMeters>655.3</AltitudeMeters>
            <DistanceMeters>4302.7</DistanceMeters>
            <HeartRateBpm><Value>162</Value></HeartRateBpm>
            <Extensions><ns3:TPX><ns3:RunCadence>87</ns3:RunCadence></ns3:TPX></Extensions>
          </Trackpoint>
          <Trackpoint>
            <Time>2026-06-22T09:14:00+02:00</Time>
            <Position>
              <LatitudeDegrees>45.03995</LatitudeDegrees>
              <LongitudeDegrees>7.722502</LongitudeDegrees>
            </Position>
            <AltitudeMeters>662.7</AltitudeMeters>
            <DistanceMeters>4456.3</DistanceMeters>
            <HeartRateBpm><Value>161</Value></HeartRateBpm>
            <Extensions><ns3:TPX><ns3:RunCadence>89</ns3:RunCadence></ns3:TPX></Extensions>
          </Trackpoint>
          <Trackpoint>
            <Time>2026-06-22T09:15:00+02:00</Time>
            <Position>
              <LatitudeDegrees>45.038759</LatitudeDegrees>
              <LongitudeDegrees>7.723494</LongitudeDegrees>
            </Position>
            <AltitudeMeters>669.4</AltitudeMeters>
            <DistanceMeters>4610.0</DistanceMeters>
            <HeartRateBpm><Value>158</Value></HeartRateBpm>
            <Extensions><ns3:TPX><ns3:RunCadence>89</ns3:RunCadence></ns3:TPX></Extensions>
          </Trackpoint>
          <Trackpoint>
            <Time>2026-06-22T09:16:00+02:00</Time>
            <Position>
              <LatitudeDegrees>45.037557</LatitudeDegrees>
              <LongitudeDegrees>7.724456</LongitudeDegrees>
            </Position>
            <AltitudeMeters>675.3</AltitudeMeters>
            <DistanceMeters>4763.7</DistanceMeters>
            <HeartRateBpm><Value>157</Value></HeartRateBpm>
            <Extensions><ns3:TPX><ns3:RunCadence>82</ns3:RunCadence></ns3:TPX></Extensions>
          </Trackpoint>
          <Trackpoint>
            <Time>2026-06-22T09:17:00+02:00</Time>
            <Position>
              <LatitudeDegrees>45.036324</LatitudeDegrees>
              <LongitudeDegrees>7.725342</LongitudeDegrees>
            </Position>
            <AltitudeMeters>680.6</AltitudeMeters>
            <DistanceMeters>4917.3</DistanceMeters>
            <HeartRateBpm><Value>158</Value></HeartRateBpm>
            <Extensions><ns3:TPX><ns3:RunCadence>85</ns3:RunCadence></ns3:TPX></Extensions>
          </Trackpoint>
          <Trackpoint>
            <Time>2026-06-22T09:18:00+02:00</Time>
            <Position>
              <LatitudeDegrees>45.035065</LatitudeDegrees>
              <LongitudeDegrees>7.726148</LongitudeDegrees>
            </Position>
            <AltitudeMeters>685.1</AltitudeMeters>
            <DistanceMeters>5071.0</DistanceMeters>
            <HeartRateBpm><Value>159</Value></HeartRateBpm>
            <Extensions><ns3:TPX><ns3:RunCadence>85</ns3:RunCadence></ns3:TPX></Extensions>
          </Trackpoint>
          <Trackpoint>
            <Time>2026-06-22T09:19:00+02:00</Time>
            <Position>
              <LatitudeDegrees>45.033835</LatitudeDegrees>
              <LongitudeDegrees>7.727038</LongitudeDegrees>
            </Position>
            <AltitudeMeters>688.9</AltitudeMeters>
            <DistanceMeters>5224.7</DistanceMeters>
            <HeartRateBpm><Value>160</Value></HeartRateBpm>
            <Extensions><ns3:TPX><ns3:RunCadence>85</ns3:RunCadence></ns3:TPX></Extensions>
          </Trackpoint>
          <Trackpoint>
            <Time>2026-06-22T09:20:00+02:00</Time>
            <Position>
              <LatitudeDegrees>45.032713</LatitudeDegrees>
              <LongitudeDegrees>7.728181</LongitudeDegrees>
            </Position>
            <AltitudeMeters>691.9</AltitudeMeters>
            <DistanceMeters>5378.3</DistanceMeters>
            <HeartRateBpm><Value>158</Value></HeartRateBpm>
            <Extensions><ns3:TPX><ns3:RunCadence>91</ns3:RunCadence></ns3:TPX></Extensions>
          </Trackpoint>
          <Trackpoint>
            <Time>2026-06-22T09:21:00+02:00</Time>
            <Position>
              <LatitudeDegrees>45.031707</LatitudeDegrees>
              <LongitudeDegrees>7.729521</LongitudeDegrees>
            </Position>
            <AltitudeMeters>694.2</AltitudeMeters>
            <DistanceMeters>5532.0</DistanceMeters>
            <HeartRateBpm><Value>155</Value></HeartRateBpm>
            <Extensions><ns3:TPX><ns3:RunCadence>89</ns3:RunCadence></ns3:TPX></Extensions>
          </Trackpoint>
          <Trackpoint>
            <Time>2026-06-22T09:22:00+02:00</Time>
            <Position>
              <LatitudeDegrees>45.030752</LatitudeDegrees>
              <LongitudeDegrees>7.730935</LongitudeDegrees>
            </Position>
            <AltitudeMeters>695.7</AltitudeMeters>
            <DistanceMeters>5685.7</DistanceMeters>
            <HeartRateBpm><Value>155</Value></HeartRateBpm>
            <Extensions><ns3:TPX><ns3:RunCadence>88</ns3:RunCadence></ns3:TPX></Extensions>
          </Trackpoint>
          <Trackpoint>
            <Time>2026-06-22T09:23:00+02:00</Time>
            <Position>
              <LatitudeDegrees>45.029909</LatitudeDegrees>
              <LongitudeDegrees>7.732484</LongitudeDegrees>
            </Position>
            <AltitudeMeters>696.4</AltitudeMeters>
            <DistanceMeters>5839.3</DistanceMeters>
            <HeartRateBpm><Value>150</Value></HeartRateBpm>
            <Extensions><ns3:TPX><ns3:RunCadence>90</ns3:RunCadence></ns3:TPX></Extensions>
          </Trackpoint>
          <Trackpoint>
            <Time>2026-06-22T09:24:00+02:00</Time>
            <Position>
              <LatitudeDegrees>45.029067</LatitudeDegrees>
              <LongitudeDegrees>7.734035</LongitudeDegrees>
            </Position>
            <AltitudeMeters>696.4</AltitudeMeters>
            <DistanceMeters>5993.0</DistanceMeters>
            <HeartRateBpm><Value>151</Value></HeartRateBpm>
            <Extensions><ns3:TPX><ns3:RunCadence>85</ns3:RunCadence></ns3:TPX></Extensions>
          </Trackpoint>
          <Trackpoint>
            <Time>2026-06-22T09:25:00+02:00</Time>
            <Position>
              <LatitudeDegrees>45.02839</LatitudeDegrees>
              <LongitudeDegrees>7.73574</LongitudeDegrees>
            </Position>
            <AltitudeMeters>695.7</AltitudeMeters>
            <DistanceMeters>6146.7</DistanceMeters>
            <HeartRateBpm><Value>151</Value></HeartRateBpm>
            <Extensions><ns3:TPX><ns3:RunCadence>87</ns3:RunCadence></ns3:TPX></Extensions>
          </Trackpoint>
          <Trackpoint>
            <Time>2026-06-22T09:26:00+02:00</Time>
            <Position>
              <LatitudeDegrees>45.027794</LatitudeDegrees>
              <LongitudeDegrees>7.737504</LongitudeDegrees>
            </Position>
            <AltitudeMeters>694.2</AltitudeMeters>
            <DistanceMeters>6300.3</DistanceMeters>
            <HeartRateBpm><Value>150</Value></HeartRateBpm>
            <Extensions><ns3:TPX><ns3:RunCadence>85</ns3:RunCadence></ns3:TPX></Extensions>
          </Trackpoint>
          <Trackpoint>
            <Time>2026-06-22T09:27:00+02:00</Time>
            <Position>
              <LatitudeDegrees>45.027434</LatitudeDegrees>
              <LongitudeDegrees>7.739391</LongitudeDegrees>
            </Position>
            <AltitudeMeters>691.9</AltitudeMeters>
            <DistanceMeters>6454.0</DistanceMeters>
            <HeartRateBpm><Value>151</Value></HeartRateBpm>
            <Extensions><ns3:TPX><ns3:RunCadence>85</ns3:RunCadence></ns3:TPX></Extensions>
          </Trackpoint>
          <Trackpoint>
            <Time>2026-06-22T09:28:00+02:00</Time>
            <Position>
              <LatitudeDegrees>45.027031</LatitudeDegrees>
              <LongitudeDegrees>7.741262</LongitudeDegrees>
            </Position>
            <AltitudeMeters>688.9</AltitudeMeters>
            <DistanceMeters>6607.7</DistanceMeters>
            <HeartRateBpm><Value>146</Value></HeartRateBpm>
            <Extensions><ns3:TPX><ns3:RunCadence>88</ns3:RunCadence></ns3:TPX></Extensions>
          </Trackpoint>
          <Trackpoint>
            <Time>2026-06-22T09:29:00+02:00</Time>
            <Position>
              <LatitudeDegrees>45.026548</LatitudeDegrees>
              <LongitudeDegrees>7.743094</LongitudeDegrees>
            </Position>
            <AltitudeMeters>685.1</AltitudeMeters>
            <DistanceMeters>6761.3</DistanceMeters>
            <HeartRateBpm><Value>146</Value></HeartRateBpm>
            <Extensions><ns3:TPX><ns3:RunCadence>90</ns3:RunCadence></ns3:TPX></Extensions>
          </Trackpoint>
          <Trackpoint>
            <Time>2026-06-22T09:30:00+02:00</Time>
            <Position>
              <LatitudeDegrees>45.026099</LatitudeDegrees>
              <LongitudeDegrees>7.744943</LongitudeDegrees>
            </Position>
            <AltitudeMeters>680.6</AltitudeMeters>
            <DistanceMeters>6915.0</DistanceMeters>
            <HeartRateBpm><Value>153</Value></HeartRateBpm>
            <Extensions><ns3:TPX><ns3:RunCadence>84</ns3:RunCadence></ns3:TPX></Extensions>
          </Trackpoint>
          <Trackpoint>
            <Time>2026-06-22T09:31:00+02:00</Time>
            <Position>
              <LatitudeDegrees>45.025651</LatitudeDegrees>
              <LongitudeDegrees>7.746793</LongitudeDegrees>
            </Position>
            <AltitudeMeters>675.3</AltitudeMeters>
            <DistanceMeters>7068.7</DistanceMeters>
            <HeartRateBpm><Value>145</Value></HeartRateBpm>
            <Extensions><ns3:TPX><ns3:RunCadence>92</ns3:RunCadence></ns3:TPX></Extensions>
          </Trackpoint>
          <Trackpoint>
            <Time>2026-06-22T09:32:00+02:00</Time>
            <Position>
              <LatitudeDegrees>45.025262</LatitudeDegrees>
              <LongitudeDegrees>7.748669</LongitudeDegrees>
            </Position>
            <AltitudeMeters>669.4</AltitudeMeters>
            <DistanceMeters>7222.3</DistanceMeters>
            <HeartRateBpm><Value>139</Value></HeartRateBpm>
            <Extensions><ns3:TPX><ns3:RunCadence>86</ns3:RunCadence></ns3:TPX></Extensions>
          </Trackpoint>
          <Trackpoint>
            <Time>2026-06-22T09:33:00+02:00</Time>
            <Position>
              <LatitudeDegrees>45.025128</LatitudeDegrees>
              <LongitudeDegrees>7.750615</LongitudeDegrees>
            </Position>
            <AltitudeMeters>662.7</AltitudeMeters>
            <DistanceMeters>7376.0</DistanceMeters>
            <HeartRateBpm><Value>141</Value></HeartRateBpm>
            <Extensions><ns3:TPX><ns3:RunCadence>85</ns3:RunCadence></ns3:TPX></Extensions>
          </Trackpoint>
          <Trackpoint>
            <Time>2026-06-22T09:34:00+02:00</Time>
            <Position>
              <LatitudeDegrees>45.024828</LatitudeDegrees>
              <LongitudeDegrees>7.752524</LongitudeDegrees>
            </Position>
            <AltitudeMeters>655.3</AltitudeMeters>
            <DistanceMeters>7529.7</DistanceMeters>
            <HeartRateBpm><Value>136</Value></HeartRateBpm>
            <Extensions><ns3:TPX><ns3:RunCadence>90</ns3:RunCadence></ns3:TPX></Extensions>
          </Trackpoint>
          <Trackpoint>
            <Time>2026-06-22T09:35:00+02:00</Time>
            <Position>
              <LatitudeDegrees>45.024487</LatitudeDegrees>
              <LongitudeDegrees>7.754418</LongitudeDegrees>
            </Position>
            <AltitudeMeters>647.2</AltitudeMeters>
            <DistanceMeters>7683.3</DistanceMeters>
            <HeartRateBpm><Value>139</Value></HeartRateBpm>
            <Extensions><ns3:TPX><ns3:RunCadence>90</ns3:RunCadence></ns3:TPX></Extensions>
          </Trackpoint>
          <Trackpoint>
            <Time>2026-06-22T09:36:00+02:00</Time>
            <Position>
              <LatitudeDegrees>45.024411</LatitudeDegrees>
              <LongitudeDegrees>7.756371</LongitudeDegrees>
            </Position>
            <AltitudeMeters>638.4</AltitudeMeters>
            <DistanceMeters>7837.0</DistanceMeters>
            <HeartRateBpm><Value>136</Value></HeartRateBpm>
            <Extensions><ns3:TPX><ns3:RunCadence>84</ns3:RunCadence></ns3:TPX></Extensions>
          </Trackpoint>
          <Trackpoint>
            <Time>2026-06-22T09:37:00+02:00</Time>
            <Position>
              <LatitudeDegrees>45.024529</LatitudeDegrees>
              <LongitudeDegrees>7.758319</LongitudeDegrees>
            </Position>
            <AltitudeMeters>629.0</AltitudeMeters>
            <DistanceMeters>7990.7</DistanceMeters>
            <HeartRateBpm><Value>140</Value></HeartRateBpm>
            <Extensions><ns3:TPX><ns3:RunCadence>89</ns3:RunCadence></ns3:TPX></Extensions>
          </Trackpoint>
          <Trackpoint>
            <Time>2026-06-22T09:38:00+02:00</Time>
            <Position>
              <LatitudeDegrees>45.024892</LatitudeDegrees>
              <LongitudeDegrees>7.760205</LongitudeDegrees>
            </Position>
            <AltitudeMeters>618.9</AltitudeMeters>
            <DistanceMeters>8144.3</DistanceMeters>
            <HeartRateBpm><Value>136</Value></HeartRateBpm>
            <Extensions><ns3:TPX><ns3:RunCadence>85</ns3:RunCadence></ns3:TPX></Extensions>
          </Trackpoint>
          <Trackpoint>
            <Time>2026-06-22T09:39:00+02:00</Time>
            <Position>
              <LatitudeDegrees>45.02532</LatitudeDegrees>
              <LongitudeDegrees>7.762064</LongitudeDegrees>
            </Position>
            <AltitudeMeters>608.2</AltitudeMeters>
            <DistanceMeters>8298.0</DistanceMeters>
            <HeartRateBpm><Value>137</Value></HeartRateBpm>
            <Extensions><ns3:TPX><ns3:RunCadence>88</ns3:RunCadence></ns3:TPX></Extensions>
          </Trackpoint>
          <Trackpoint>
            <Time>2026-06-22T09:40:00+02:00</Time>
            <Position>
              <LatitudeDegrees>45.025852</LatitudeDegrees>
              <LongitudeDegrees>7.763869</LongitudeDegrees>
            </Position>
            <AltitudeMeters>596.9</AltitudeMeters>
            <DistanceMeters>8451.7</DistanceMeters>
            <HeartRateBpm><Value>133</Value></HeartRateBpm>
            <Extensions><ns3:TPX><ns3:RunCadence>87</ns3:RunCadence></ns3:TPX></Extensions>
          </Trackpoint>
          <Trackpoint>
            <Time>2026-06-22T09:41:00+02:00</Time>
            <Position>
              <LatitudeDegrees>45.026465</LatitudeDegrees>
              <LongitudeDegrees>7.765621</LongitudeDegrees>
            </Position>
            <AltitudeMeters>585.0</AltitudeMeters>
            <DistanceMeters>8605.3</DistanceMeters>
            <HeartRateBpm><Value>136</Value></HeartRateBpm>
            <Extensions><ns3:TPX><ns3:RunCadence>89</ns3:RunCadence></ns3:TPX></Extensions>
          </Trackpoint>
          <Trackpoint>
            <Time>2026-06-22T09:42:00+02:00</Time>
            <Position>
              <LatitudeDegrees>45.027034</LatitudeDegrees>
              <LongitudeDegrees>7.767403</LongitudeDegrees>
            </Position>
            <AltitudeMeters>572.5</AltitudeMeters>
            <DistanceMeters>8759.0</DistanceMeters>
            <HeartRateBpm><Value>133</Value></HeartRateBpm>
            <Extensions><ns3:TPX><ns3:RunCadence>92</ns3:RunCadence></ns3:TPX></Extensions>
          </Trackpoint>
          <Trackpoint>
            <Time>2026-06-22T09:43:00+02:00</Time>
            <Position>
              <LatitudeDegrees>45.027497</LatitudeDegrees>
              <LongitudeDegrees>7.769246</LongitudeDegrees>
            </Position>
            <AltitudeMeters>559.5</AltitudeMeters>
            <DistanceMeters>8912.7</DistanceMeters>
            <HeartRateBpm><Value>134</Value></HeartRateBpm>
            <Extensions><ns3:TPX><ns3:RunCadence>84</ns3:RunCadence></ns3:TPX></Extensions>
          </Trackpoint>
          <Trackpoint>
            <Time>2026-06-22T09:44:00+02:00</Time>
            <Position>
              <LatitudeDegrees>45.027836</LatitudeDegrees>
              <LongitudeDegrees>7.771141</LongitudeDegrees>
            </Position>
            <AltitudeMeters>545.9</AltitudeMeters>
            <DistanceMeters>9066.3</DistanceMeters>
            <HeartRateBpm><Value>127</Value></HeartRateBpm>
            <Extensions><ns3:TPX><ns3:RunCadence>88</ns3:RunCadence></ns3:TPX></Extensions>
          </Trackpoint>
          <Trackpoint>
            <Time>2026-06-22T09:45:00+02:00</Time>
            <Position>
              <LatitudeDegrees>45.027867</LatitudeDegrees>
              <LongitudeDegrees>7.773096</LongitudeDegrees>
            </Position>
            <AltitudeMeters>531.9</AltitudeMeters>
            <DistanceMeters>9220.0</DistanceMeters>
            <HeartRateBpm><Value>136</Value></HeartRateBpm>
            <Extensions><ns3:TPX><ns3:RunCadence>85</ns3:RunCadence></ns3:TPX></Extensions>
          </Trackpoint>
          <Trackpoint>
            <Time>2026-06-22T09:46:00+02:00</Time>
            <Position>
              <LatitudeDegrees>45.027907</LatitudeDegrees>
              <LongitudeDegrees>7.77505</LongitudeDegrees>
            </Position>
            <AltitudeMeters>517.3</AltitudeMeters>
            <DistanceMeters>9373.7</DistanceMeters>
            <HeartRateBpm><Value>132</Value></HeartRateBpm>
            <Extensions><ns3:TPX><ns3:RunCadence>88</ns3:RunCadence></ns3:TPX></Extensions>
          </Trackpoint>
          <Trackpoint>
            <Time>2026-06-22T09:47:00+02:00</Time>
            <Position>
              <LatitudeDegrees>45.028208</LatitudeDegrees>
              <LongitudeDegrees>7.776959</LongitudeDegrees>
            </Position>
            <AltitudeMeters>502.3</AltitudeMeters>
            <DistanceMeters>9527.3</DistanceMeters>
            <HeartRateBpm><Value>134</Value></HeartRateBpm>
            <Extensions><ns3:TPX><ns3:RunCadence>86</ns3:RunCadence></ns3:TPX></Extensions>
          </Trackpoint>
          <Trackpoint>
            <Time>2026-06-22T09:48:00+02:00</Time>
            <Position>
              <LatitudeDegrees>45.028342</LatitudeDegrees>
              <LongitudeDegrees>7.778905</LongitudeDegrees>
            </Position>
            <AltitudeMeters>486.8</AltitudeMeters>
            <DistanceMeters>9681.0</DistanceMeters>
            <HeartRateBpm><Value>128</Value></HeartRateBpm>
            <Extensions><ns3:TPX><ns3:RunCadence>87</ns3:RunCadence></ns3:TPX></Extensions>
          </Trackpoint>
          <Trackpoint>
            <Time>2026-06-22T09:49:00+02:00</Time>
            <Position>
              <LatitudeDegrees>45.028756</LatitudeDegrees>
              <LongitudeDegrees>7.780771</LongitudeDegrees>
            </Position>
            <AltitudeMeters>471.0</AltitudeMeters>
            <DistanceMeters>9834.7</DistanceMeters>
            <HeartRateBpm><Value>134</Value></HeartRateBpm>
            <Extensions><ns3:TPX><ns3:RunCadence>88</ns3:RunCadence></ns3:TPX></Extensions>
          </Trackpoint>
          <Trackpoint>
            <Time>2026-06-22T09:50:00+02:00</Time>
            <Position>
              <LatitudeDegrees>45.029026</LatitudeDegrees>
              <LongitudeDegrees>7.782688</LongitudeDegrees>
            </Position>
            <AltitudeMeters>454.7</AltitudeMeters>
            <DistanceMeters>9988.3</DistanceMeters>
            <HeartRateBpm><Value>133</Value></HeartRateBpm>
            <Extensions><ns3:TPX><ns3:RunCadence>88</ns3:RunCadence></ns3:TPX></Extensions>
          </Trackpoint>
          <Trackpoint>
            <Time>2026-06-22T09:51:00+02:00</Time>
            <Position>
              <LatitudeDegrees>45.029157</LatitudeDegrees>
              <LongitudeDegrees>7.784635</LongitudeDegrees>
            </Position>
            <AltitudeMeters>438.1</AltitudeMeters>
            <DistanceMeters>10142.0</DistanceMeters>
            <HeartRateBpm><Value>130</Value></HeartRateBpm>
            <Extensions><ns3:TPX><ns3:RunCadence>85</ns3:RunCadence></ns3:TPX></Extensions>
          </Trackpoint>
          <Trackpoint>
            <Time>2026-06-22T09:52:00+02:00</Time>
            <Position>
              <LatitudeDegrees>45.029384</LatitudeDegrees>
              <LongitudeDegrees>7.786564</LongitudeDegrees>
            </Position>
            <AltitudeMeters>421.1</AltitudeMeters>
            <DistanceMeters>10295.7</DistanceMeters>
            <HeartRateBpm><Value>127</Value></HeartRateBpm>
            <Extensions><ns3:TPX><ns3:RunCadence>83</ns3:RunCadence></ns3:TPX></Extensions>
          </Trackpoint>
          <Trackpoint>
            <Time>2026-06-22T09:53:00+02:00</Time>
            <Position>
              <LatitudeDegrees>45.029355</LatitudeDegrees>
              <LongitudeDegrees>7.788519</LongitudeDegrees>
            </Position>
            <AltitudeMeters>403.9</AltitudeMeters>
            <DistanceMeters>10449.3</DistanceMeters>
            <HeartRateBpm><Value>126</Value></HeartRateBpm>
            <Extensions><ns3:TPX><ns3:RunCadence>85</ns3:RunCadence></ns3:TPX></Extensions>
          </Trackpoint>
          <Trackpoint>
            <Time>2026-06-22T09:54:00+02:00</Time>
            <Position>
              <LatitudeDegrees>45.029205</LatitudeDegrees>
              <LongitudeDegrees>7.790463</LongitudeDegrees>
            </Position>
            <AltitudeMeters>386.4</AltitudeMeters>
            <DistanceMeters>10603.0</DistanceMeters>
            <HeartRateBpm><Value>130</Value></HeartRateBpm>
            <Extensions><ns3:TPX><ns3:RunCadence>88</ns3:RunCadence></ns3:TPX></Extensions>
          </Trackpoint>
          <Trackpoint>
            <Time>2026-06-22T09:55:00+02:00</Time>
            <Position>
              <LatitudeDegrees>45.029174</LatitudeDegrees>
              <LongitudeDegrees>7.792418</LongitudeDegrees>
            </Position>
            <AltitudeMeters>368.6</AltitudeMeters>
            <DistanceMeters>10756.7</DistanceMeters>
            <HeartRateBpm><Value>131</Value></HeartRateBpm>
            <Extensions><ns3:TPX><ns3:RunCadence>82</ns3:RunCadence></ns3:TPX></Extensions>
          </Trackpoint>
          <Trackpoint>
            <Time>2026-06-22T09:56:00+02:00</Time>
            <Position>
              <LatitudeDegrees>45.029106</LatitudeDegrees>
              <LongitudeDegrees>7.794371</LongitudeDegrees>
            </Position>
            <AltitudeMeters>350.6</AltitudeMeters>
            <DistanceMeters>10910.3</DistanceMeters>
            <HeartRateBpm><Value>130</Value></HeartRateBpm>
            <Extensions><ns3:TPX><ns3:RunCadence>87</ns3:RunCadence></ns3:TPX></Extensions>
          </Trackpoint>
          <Trackpoint>
            <Time>2026-06-22T09:57:00+02:00</Time>
            <Position>
              <LatitudeDegrees>45.029047</LatitudeDegrees>
              <LongitudeDegrees>7.796324</LongitudeDegrees>
            </Position>
            <AltitudeMeters>332.5</AltitudeMeters>
            <DistanceMeters>11064.0</DistanceMeters>
            <HeartRateBpm><Value>123</Value></HeartRateBpm>
            <Extensions><ns3:TPX><ns3:RunCadence>86</ns3:RunCadence></ns3:TPX></Extensions>
          </Trackpoint>
          <Trackpoint>
            <Time>2026-06-22T09:58:00+02:00</Time>
            <Position>
              <LatitudeDegrees>45.029142</LatitudeDegrees>
              <LongitudeDegrees>7.798275</LongitudeDegrees>
            </Position>
            <AltitudeMeters>314.2</AltitudeMeters>
            <DistanceMeters>11217.7</DistanceMeters>
            <HeartRateBpm><Value>123</Value></HeartRateBpm>
            <Extensions><ns3:TPX><ns3:RunCadence>83</ns3:RunCadence></ns3:TPX></Extensions>
          </Trackpoint>
          <Trackpoint>
            <Time>2026-06-22T09:59:00+02:00</Time>
            <Position>
              <LatitudeDegrees>45.02915</LatitudeDegrees>
              <LongitudeDegrees>7.80023</LongitudeDegrees>
            </Position>
            <AltitudeMeters>295.7</AltitudeMeters>
            <DistanceMeters>11371.3</DistanceMeters>
            <HeartRateBpm><Value>127</Value></HeartRateBpm>
            <Extensions><ns3:TPX><ns3:RunCadence>85</ns3:RunCadence></ns3:TPX></Extensions>
          </Trackpoint>
          <Trackpoint>
            <Time>2026-06-22T10:00:00+02:00</Time>
            <Position>
              <LatitudeDegrees>45.029237</LatitudeDegrees>
              <LongitudeDegrees>7.802182</LongitudeDegrees>
            </Position>
            <AltitudeMeters>277.2</AltitudeMeters>
            <DistanceMeters>11525.0</DistanceMeters>
            <HeartRateBpm><Value>124</Value></HeartRateBpm>
            <Extensions><ns3:TPX><ns3:RunCadence>84</ns3:RunCadence></ns3:TPX></Extensions>
          </Trackpoint>
          <Trackpoint>
            <Time>2026-06-22T10:01:00+02:00</Time>
            <Position>
              <LatitudeDegrees>45.029275</LatitudeDegrees>
              <LongitudeDegrees>7.804136</LongitudeDegrees>
            </Position>
            <AltitudeMeters>258.6</AltitudeMeters>
            <DistanceMeters>11678.7</DistanceMeters>
            <HeartRateBpm><Value>127</Value></HeartRateBpm>
            <Extensions><ns3:TPX><ns3:RunCadence>84</ns3:RunCadence></ns3:TPX></Extensions>
          </Trackpoint>
          <Trackpoint>
            <Time>2026-06-22T10:02:00+02:00</Time>
            <Position>
              <LatitudeDegrees>45.02922</LatitudeDegrees>
              <LongitudeDegrees>7.80609</LongitudeDegrees>
            </Position>
            <AltitudeMeters>240.0</AltitudeMeters>
            <DistanceMeters>11832.3</DistanceMeters>
            <HeartRateBpm><Value>130</Value></HeartRateBpm>
            <Extensions><ns3:TPX><ns3:RunCadence>84</ns3:RunCadence></ns3:TPX></Extensions>
          </Trackpoint>
        </Track>
      </Lap>
      <Creator xsi:type="Device_t">
        <Name>Garmin Forerunner 265</Name>
      </Creator>
    </Activity>
  </Activities>
  <Author xsi:type="Application_t"><Name>Garmin Connect</Name></Author>
</TrainingCenterDatabase>
