<?xml version="1.0" encoding="UTF-8"?>
<gpx creator="StravaGPX iPhone" version="1.1" xmlns="http://www.topografix.com/GPX/1/1" xmlns:gpxtpx="http://www.garmin.com/xmlschemas/TrackPointExtension/v1">
  <metadata>
    <time>2026-06-05T07:30:00Z</time>
    <name>Interval session</name>
  </metadata>
  <trk>
    <name>Interval session</name>
    <type>running</type>
    <trkseg>
      <trkpt lat="45.055337" lon="7.689119">
        <ele>240.0</ele>
        <time>2026-06-05T07:30:00Z</time>
        <extensions><gpxtpx:TrackPointExtension><gpxtpx:hr>87</gpxtpx:hr><gpxtpx:cad>83</gpxtpx:cad></gpxtpx:TrackPointExtension></extensions>
      </trkpt>
      <trkpt lat="45.055801" lon="7.686697">
        <ele>291.2</ele>
        <time>2026-06-05T07:31:00Z</time>
        <extensions><gpxtpx:TrackPointExtension><gpxtpx:hr>174</gpxtpx:hr><gpxtpx:cad>85</gpxtpx:cad></gpxtpx:TrackPointExtension></extensions>
      </trkpt>
      <trkpt lat="45.056003" lon="7.685816">
        <ele>310.1</ele>
        <time>2026-06-05T07:32:00Z</time>
        <extensions><gpxtpx:TrackPointExtension><gpxtpx:hr>166</gpxtpx:hr><gpxtpx:cad>85</gpxtpx:cad></gpxtpx:TrackPointExtension></extensions>
      </trkpt>
      <trkpt lat="45.056251" lon="7.684787">
        <ele>332.0</ele>
        <time>2026-06-05T07:33:00Z</time>
        <extensions><gpxtpx:TrackPointExtension><gpxtpx:hr>178</gpxtpx:hr><gpxtpx:cad>86</gpxtpx:cad></gpxtpx:TrackPointExtension></extensions>
      </trkpt>
      <trkpt lat="45.056497" lon="7.683856">
        <ele>351.8</ele>
        <time>2026-06-05T07:34:00Z</time>
        <extensions><gpxtpx:TrackPointExtension><gpxtpx:hr>175</gpxtpx:hr><gpxtpx:cad>90</gpxtpx:cad></gpxtpx:TrackPointExtension></extensions>
      </trkpt>
      <trkpt lat="45.05679" lon="7.682948">
        <ele>371.6</ele>
        <time>2026-06-05T07:35:00Z</time>
        <extensions><gpxtpx:TrackPointExtension><gpxtpx:hr>172</gpxtpx:hr><gpxtpx:cad>85</gpxtpx:cad></gpxtpx:TrackPointExtension></extensions>
      </trkpt>
      <trkpt lat="45.057237" lon="7.681951">
        <ele>394.7</ele>
        <time>2026-06-05T07:36:00Z</time>
        <extensions><gpxtpx:TrackPointExtension><gpxtpx:hr>174</gpxtpx:hr><gpxtpx:cad>87</gpxtpx:cad></gpxtpx:TrackPointExtension></extensions>
      </trkpt>
      <trkpt lat="45.057613" lon="7.681083">
        <ele>414.3</ele>
        <time>2026-06-05T07:37:00Z</time>
        <extensions><gpxtpx:TrackPointExtension><gpxtpx:hr>175</gpxtpx:hr><gpxtpx:cad>82</gpxtpx:cad></gpxtpx:TrackPointExtension></extensions>
      </trkpt>
      <trkpt lat="45.057999" lon="7.680322">
        <ele>432.0</ele>
        <time>2026-06-05T07:38:00Z</time>
        <extensions><gpxtpx:TrackPointExtension><gpxtpx:hr>168</gpxtpx:hr><gpxtpx:cad>88</gpxtpx:cad></gpxtpx:TrackPointExtension></extensions>
      </trkpt>
      <trkpt lat="45.058395" lon="7.679458">
        <ele>451.1</ele>
        <time>2026-06-05T07:39:00Z</time>
        <extensions><gpxtpx:TrackPointExtension><gpxtpx:hr>176</gpxtpx:hr><gpxtpx:cad>87</gpxtpx:cad></gpxtpx:TrackPointExtension></extensions>
      </trkpt>
      <trkpt lat="45.058649" lon="7.678581">
        <ele>468.4</ele>
        <time>2026-06-05T07:40:00Z</time>
        <extensions><gpxtpx:TrackPointExtension><gpxtpx:hr>167</gpxtpx:hr><gpxtpx:cad>88</gpxtpx:cad></gpxtpx:TrackPointExtension></extensions>
      </trkpt>
      <trkpt lat="45.058851" lon="7.677555">
        <ele>487.4</ele>
        <time>2026-06-05T07:41:00Z</time>
        <extensions><gpxtpx:TrackPointExtension><gpxtpx:hr>176</gpxtpx:hr><gpxtpx:cad>84</gpxtpx:cad></gpxtpx:TrackPointExtension></extensions>
      </trkpt>
      <trkpt lat="45.059006" lon="7.67663">
        <ele>503.9</ele>
        <time>2026-06-05T07:42:00Z</time>
        <extensions><gpxtpx:TrackPointExtension><gpxtpx:hr>168</gpxtpx:hr><gpxtpx:cad>88</gpxtpx:cad></gpxtpx:TrackPointExtension></extensions>
      </trkpt>
      <trkpt lat="45.059236" lon="7.675666">
        <ele>521.1</ele>
        <time>2026-06-05T07:43:00Z</time>
        <extensions><gpxtpx:TrackPointExtension><gpxtpx:hr>177</gpxtpx:hr><gpxtpx:cad>88</gpxtpx:cad></gpxtpx:TrackPointExtension></extensions>
      </trkpt>
      <trkpt lat="45.059582" lon="7.674732">
        <ele>538.3</ele>
        <time>2026-06-05T07:44:00Z</time>
        <extensions><gpxtpx:TrackPointExtension><gpxtpx:hr>176</gpxtpx:hr><gpxtpx:cad>83</gpxtpx:cad></gpxtpx:TrackPointExtension></extensions>
      </trkpt>
      <trkpt lat="45.059849" lon="7.673813">
        <ele>554.0</ele>
        <time>2026-06-05T07:45:00Z</time>
        <extensions><gpxtpx:TrackPointExtension><gpxtpx:hr>174</gpxtpx:hr><gpxtpx:cad>87</gpxtpx:cad></gpxtpx:TrackPointExtension></extensions>
      </trkpt>
      <trkpt lat="45.060162" lon="7.672883">
        <ele>569.7</ele>
        <time>2026-06-05T07:46:00Z</time>
        <extensions><gpxtpx:TrackPointExtension><gpxtpx:hr>174</gpxtpx:hr><gpxtpx:cad>86</gpxtpx:cad></gpxtpx:TrackPointExtension></extensions>
      </trkpt>
      <trkpt lat="45.060563" lon="7.67191">
        <ele>586.2</ele>
        <time>2026-06-05T07:47:00Z</time>
        <extensions><gpxtpx:TrackPointExtension><gpxtpx:hr>172</gpxtpx:hr><gpxtpx:cad>83</gpxtpx:cad></gpxtpx:TrackPointExtension></extensions>
      </trkpt>
      <trkpt lat="45.061001" lon="7.670981">
        <ele>601.7</ele>
        <time>2026-06-05T07:48:00Z</time>
        <extensions><gpxtpx:TrackPointExtension><gpxtpx:hr>169</gpxtpx:hr><gpxtpx:cad>83</gpxtpx:cad></gpxtpx:TrackPointExtension></extensions>
      </trkpt>
      <trkpt lat="45.061467" lon="7.670116">
        <ele>616.1</ele>
        <time>2026-06-05T07:49:00Z</time>
        <extensions><gpxtpx:TrackPointExtension><gpxtpx:hr>173</gpxtpx:hr><gpxtpx:cad>88</gpxtpx:cad></gpxtpx:TrackPointExtension></extensions>
      </trkpt>
      <trkpt lat="45.061977" lon="7.66924">
        <ele>630.2</ele>
        <time>2026-06-05T07:50:00Z</time>
        <extensions><gpxtpx:TrackPointExtension><gpxtpx:hr>167</gpxtpx:hr><gpxtpx:cad>85</gpxtpx:cad></gpxtpx:TrackPointExtension></extensions>
      </trkpt>
      <trkpt lat="45.062441" lon="7.668334">
        <ele>643.3</ele>
        <time>2026-06-05T07:51:00Z</time>
        <extensions><gpxtpx:TrackPointExtension><gpxtpx:hr>166</gpxtpx:hr><gpxtpx:cad>82</gpxtpx:cad></gpxtpx:TrackPointExtension></extensions>
      </trkpt>
      <trkpt lat="45.062876" lon="7.667397">
        <ele>655.4</ele>
        <time>2026-06-05T07:52:00Z</time>
        <extensions><gpxtpx:TrackPointExtension><gpxtpx:hr>167</gpxtpx:hr><gpxtpx:cad>88</gpxtpx:cad></gpxtpx:TrackPointExtension></extensions>
      </trkpt>
      <trkpt lat="45.063259" lon="7.666231">
        <ele>668.2</ele>
        <time>2026-06-05T07:53:00Z</time>
        <extensions><gpxtpx:TrackPointExtension><gpxtpx:hr>168</gpxtpx:hr><gpxtpx:cad>90</gpxtpx:cad></gpxtpx:TrackPointExtension></extensions>
      </trkpt>
      <trkpt lat="45.06361" lon="7.665143">
        <ele>678.9</ele>
        <time>2026-06-05T07:54:00Z</time>
        <extensions><gpxtpx:TrackPointExtension><gpxtpx:hr>158</gpxtpx:hr><gpxtpx:cad>86</gpxtpx:cad></gpxtpx:TrackPointExtension></extensions>
      </trkpt>
      <trkpt lat="45.064082" lon="7.663934">
        <ele>690.0</ele>
        <time>2026-06-05T07:55:00Z</time>
        <extensions><gpxtpx:TrackPointExtension><gpxtpx:hr>170</gpxtpx:hr><gpxtpx:cad>82</gpxtpx:cad></gpxtpx:TrackPointExtension></extensions>
      </trkpt>
      <trkpt lat="45.064657" lon="7.66285">
        <ele>699.3</ele>
        <time>2026-06-05T07:56:00Z</time>
        <extensions><gpxtpx:TrackPointExtension><gpxtpx:hr>163</gpxtpx:hr><gpxtpx:cad>84</gpxtpx:cad></gpxtpx:TrackPointExtension></extensions>
      </trkpt>
      <trkpt lat="45.06527" lon="7.661626">
        <ele>707.8</ele>
        <time>2026-06-05T07:57:00Z</time>
        <extensions><gpxtpx:TrackPointExtension><gpxtpx:hr>160</gpxtpx:hr><gpxtpx:cad>92</gpxtpx:cad></gpxtpx:TrackPointExtension></extensions>
      </trkpt>
      <trkpt lat="45.066091" lon="7.66042">
        <ele>715.1</ele>
        <time>2026-06-05T07:58:00Z</time>
        <extensions><gpxtpx:TrackPointExtension><gpxtpx:hr>161</gpxtpx:hr><gpxtpx:cad>84</gpxtpx:cad></gpxtpx:TrackPointExtension></extensions>
      </trkpt>
      <trkpt lat="45.066745" lon="7.659133">
        <ele>719.8</ele>
        <time>2026-06-05T07:59:00Z</time>
        <extensions><gpxtpx:TrackPointExtension><gpxtpx:hr>161</gpxtpx:hr><gpxtpx:cad>95</gpxtpx:cad></gpxtpx:TrackPointExtension></extensions>
      </trkpt>
      <trkpt lat="45.067531" lon="7.657527">
        <ele>722.6</ele>
        <time>2026-06-05T08:00:00Z</time>
        <extensions><gpxtpx:TrackPointExtension><gpxtpx:hr>156</gpxtpx:hr><gpxtpx:cad>83</gpxtpx:cad></gpxtpx:TrackPointExtension></extensions>
      </trkpt>
      <trkpt lat="45.068663" lon="7.655911">
        <ele>721.8</ele>
        <time>2026-06-05T08:01:00Z</time>
        <extensions><gpxtpx:TrackPointExtension><gpxtpx:hr>155</gpxtpx:hr><gpxtpx:cad>82</gpxtpx:cad></gpxtpx:TrackPointExtension></extensions>
      </trkpt>
      <trkpt lat="45.069919" lon="7.654386">
        <ele>716.2</ele>
        <time>2026-06-05T08:02:00Z</time>
        <extensions><gpxtpx:TrackPointExtension><gpxtpx:hr>150</gpxtpx:hr><gpxtpx:cad>79</gpxtpx:cad></gpxtpx:TrackPointExtension></extensions>
      </trkpt>
    </trkseg>
  </trk>
</gpx>
