<?xml version="1.0" encoding="UTF-8"?>
<gpx creator="StravaGPX iPhone" version="1.1" xmlns="http://www.topografix.com/GPX/1/1" xmlns:gpxtpx="http://www.garmin.com/xmlschemas/TrackPointExtension/v1">
  <metadata>
    <time>2026-06-13T12:00:00+02:00</time>
    <name>Long ride</name>
  </metadata>
  <trk>
    <name>Long ride</name>
    <type>cycling</type>
    <trkseg>
      <trkpt lat="45.090016" lon="7.67066">
        <ele>240.0</ele>
        <time>2026-06-13T12:00:00+02:00</time>
        <extensions><gpxtpx:TrackPointExtension><gpxtpx:hr>80</gpxtpx:hr><gpxtpx:cad>84</gpxtpx:cad></gpxtpx:TrackPointExtension></extensions>
      </trkpt>
      <trkpt lat="45.089822" lon="7.666095">
        <ele>244.9</ele>
        <time>2026-06-13T12:01:00+02:00</time>
        <extensions><gpxtpx:TrackPointExtension><gpxtpx:hr>104</gpxtpx:hr><gpxtpx:cad>84</gpxtpx:cad></gpxtpx:TrackPointExtension></extensions>
      </trkpt>
      <trkpt lat="45.089961" lon="7.661668">
        <ele>249.7</ele>
        <time>2026-06-13T12:02:00+02:00</time>
        <extensions><gpxtpx:TrackPointExtension><gpxtpx:hr>126</gpxtpx:hr><gpxtpx:cad>88</gpxtpx:cad></gpxtpx:TrackPointExtension></extensions>
      </trkpt>
      <trkpt lat="45.090181" lon="7.657732">
        <ele>253.9</ele>
        <time>2026-06-13T12:03:00+02:00</time>
        <extensions><gpxtpx:TrackPointExtension><gpxtpx:hr>133</gpxtpx:hr><gpxtpx:cad>87</gpxtpx:cad></gpxtpx:TrackPointExtension></extensions>
      </trkpt>
      <trkpt lat="45.089928" lon="7.654185">
        <ele>257.7</ele>
        <time>2026-06-13T12:04:00+02:00</time>
        <extensions><gpxtpx:TrackPointExtension><gpxtpx:hr>136</gpxtpx:hr><gpxtpx:cad>90</gpxtpx:cad></gpxtpx:TrackPointExtension></extensions>
      </trkpt>
      <trkpt lat="45.089947" lon="7.649968">
        <ele>262.2</ele>
        <time>2026-06-13T12:05:00+02:00</time>
        <extensions><gpxtpx:TrackPointExtension><gpxtpx:hr>136</gpxtpx:hr><gpxtpx:cad>84</gpxtpx:cad></gpxtpx:TrackPointExtension></extensions>
      </trkpt>
      <trkpt lat="45.089983" lon="7.645392">
        <ele>267.1</ele>
        <time>2026-06-13T12:06:00+02:00</time>
        <extensions><gpxtpx:TrackPointExtension><gpxtpx:hr>137</gpxtpx:hr><gpxtpx:cad>82</gpxtpx:cad></gpxtpx:TrackPointExtension></extensions>
      </trkpt>
      <trkpt lat="45.090232" lon="7.641357">
        <ele>271.3</ele>
        <time>2026-06-13T12:07:00+02:00</time>
        <extensions><gpxtpx:TrackPointExtension><gpxtpx:hr>132</gpxtpx:hr><gpxtpx:cad>91</gpxtpx:cad></gpxtpx:TrackPointExtension></extensions>
      </trkpt>
      <trkpt lat="45.091088" lon="7.63675">
        <ele>276.2</ele>
        <time>2026-06-13T12:08:00+02:00</time>
        <extensions><gpxtpx:TrackPointExtension><gpxtpx:hr>136</gpxtpx:hr><gpxtpx:cad>72</gpxtpx:cad></gpxtpx:TrackPointExtension></extensions>
      </trkpt>
      <trkpt lat="45.092107" lon="7.63256">
        <ele>280.8</ele>
        <time>2026-06-13T12:09:00+02:00</time>
        <extensions><gpxtpx:TrackPointExtension><gpxtpx:hr>133</gpxtpx:hr><gpxtpx:cad>97</gpxtpx:cad></gpxtpx:TrackPointExtension></extensions>
      </trkpt>
      <trkpt lat="45.093171" lon="7.628073">
        <ele>285.5</ele>
        <time>2026-06-13T12:10:00+02:00</time>
        <extensions><gpxtpx:TrackPointExtension><gpxtpx:hr>130</gpxtpx:hr><gpxtpx:cad>88</gpxtpx:cad></gpxtpx:TrackPointExtension></extensions>
      </trkpt>
      <trkpt lat="45.094594" lon="7.624338">
        <ele>289.7</ele>
        <time>2026-06-13T12:11:00+02:00</time>
        <extensions><gpxtpx:TrackPointExtension><gpxtpx:hr>135</gpxtpx:hr><gpxtpx:cad>83</gpxtpx:cad></gpxtpx:TrackPointExtension></extensions>
      </trkpt>
      <trkpt lat="45.095674" lon="7.620021">
        <ele>294.2</ele>
        <time>2026-06-13T12:12:00+02:00</time>
        <extensions><gpxtpx:TrackPointExtension><gpxtpx:hr>132</gpxtpx:hr><gpxtpx:cad>88</gpxtpx:cad></gpxtpx:TrackPointExtension></extensions>
      </trkpt>
      <trkpt lat="45.096741" lon="7.615701">
        <ele>298.6</ele>
        <time>2026-06-13T12:13:00+02:00</time>
        <extensions><gpxtpx:TrackPointExtension><gpxtpx:hr>136</gpxtpx:hr><gpxtpx:cad>87</gpxtpx:cad></gpxtpx:TrackPointExtension></extensions>
      </trkpt>
      <trkpt lat="45.097425" lon="7.611479">
        <ele>302.6</ele>
        <time>2026-06-13T12:14:00+02:00</time>
        <extensions><gpxtpx:TrackPointExtension><gpxtpx:hr>139</gpxtpx:hr><gpxtpx:cad>90</gpxtpx:cad></gpxtpx:TrackPointExtension></extensions>
      </trkpt>
      <trkpt lat="45.097752" lon="7.607045">
        <ele>306.7</ele>
        <time>2026-06-13T12:15:00+02:00</time>
        <extensions><gpxtpx:TrackPointExtension><gpxtpx:hr>136</gpxtpx:hr><gpxtpx:cad>83</gpxtpx:cad></gpxtpx:TrackPointExtension></extensions>
      </trkpt>
      <trkpt lat="45.097446" lon="7.60237">
        <ele>310.8</ele>
        <time>2026-06-13T12:16:00+02:00</time>
        <extensions><gpxtpx:TrackPointExtension><gpxtpx:hr>138</gpxtpx:hr><gpxtpx:cad>92</gpxtpx:cad></gpxtpx:TrackPointExtension></extensions>
      </trkpt>
      <trkpt lat="45.096968" lon="7.598527">
        <ele>314.2</ele>
        <time>2026-06-13T12:17:00+02:00</time>
        <extensions><gpxtpx:TrackPointExtension><gpxtpx:hr>136</gpxtpx:hr><gpxtpx:cad>90</gpxtpx:cad></gpxtpx:TrackPointExtension></extensions>
      </trkpt>
      <trkpt lat="45.097118" lon="7.594395">
        <ele>317.6</ele>
        <time>2026-06-13T12:18:00+02:00</time>
        <extensions><gpxtpx:TrackPointExtension><gpxtpx:hr>136</gpxtpx:hr><gpxtpx:cad>88</gpxtpx:cad></gpxtpx:TrackPointExtension></extensions>
      </trkpt>
      <trkpt lat="45.09729" lon="7.590389">
        <ele>320.9</ele>
        <time>2026-06-13T12:19:00+02:00</time>
        <extensions><gpxtpx:TrackPointExtension><gpxtpx:hr>133</gpxtpx:hr><gpxtpx:cad>77</gpxtpx:cad></gpxtpx:TrackPointExtension></extensions>
      </trkpt>
      <trkpt lat="45.097703" lon="7.586226">
        <ele>324.2</ele>
        <time>2026-06-13T12:20:00+02:00</time>
        <extensions><gpxtpx:TrackPointExtension><gpxtpx:hr>135</gpxtpx:hr><gpxtpx:cad>65</gpxtpx:cad></gpxtpx:TrackPointExtension></extensions>
      </trkpt>
      <trkpt lat="45.097762" lon="7.581545">
        <ele>327.8</ele>
        <time>2026-06-13T12:21:00+02:00</time>
        <extensions><gpxtpx:TrackPointExtension><gpxtpx:hr>136</gpxtpx:hr><gpxtpx:cad>78</gpxtpx:cad></gpxtpx:TrackPointExtension></extensions>
      </trkpt>
      <trkpt lat="45.097255" lon="7.576926">
        <ele>331.1</ele>
        <time>2026-06-13T12:22:00+02:00</time>
        <extensions><gpxtpx:TrackPointExtension><gpxtpx:hr>136</gpxtpx:hr><gpxtpx:cad>95</gpxtpx:cad></gpxtpx:TrackPointExtension></extensions>
      </trkpt>
      <trkpt lat="45.096429" lon="7.572329">
        <ele>334.4</ele>
        <time>2026-06-13T12:23:00+02:00</time>
        <extensions><gpxtpx:TrackPointExtension><gpxtpx:hr>134</gpxtpx:hr><gpxtpx:cad>79</gpxtpx:cad></gpxtpx:TrackPointExtension></extensions>
      </trkpt>
      <trkpt lat="45.095509" lon="7.567726">
        <ele>337.5</ele>
        <time>2026-06-13T12:24:00+02:00</time>
        <extensions><gpxtpx:TrackPointExtension><gpxtpx:hr>129</gpxtpx:hr><gpxtpx:cad>86</gpxtpx:cad></gpxtpx:TrackPointExtension></extensions>
      </trkpt>
      <trkpt lat="45.095194" lon="7.563367">
        <ele>340.2</ele>
        <time>2026-06-13T12:25:00+02:00</time>
        <extensions><gpxtpx:TrackPointExtension><gpxtpx:hr>136</gpxtpx:hr><gpxtpx:cad>93</gpxtpx:cad></gpxtpx:TrackPointExtension></extensions>
      </trkpt>
      <trkpt lat="45.095189" lon="7.558681">
        <ele>343.0</ele>
        <time>2026-06-13T12:26:00+02:00</time>
        <extensions><gpxtpx:TrackPointExtension><gpxtpx:hr>135</gpxtpx:hr><gpxtpx:cad>86</gpxtpx:cad></gpxtpx:TrackPointExtension></extensions>
      </trkpt>
      <trkpt lat="45.094915" lon="7.554416">
        <ele>345.3</ele>
        <time>2026-06-13T12:27:00+02:00</time>
        <extensions><gpxtpx:TrackPointExtension><gpxtpx:hr>138</gpxtpx:hr><gpxtpx:cad>88</gpxtpx:cad></gpxtpx:TrackPointExtension></extensions>
      </trkpt>
      <trkpt lat="45.094374" lon="7.550252">
        <ele>347.5</ele>
        <time>2026-06-13T12:28:00+02:00</time>
        <extensions><gpxtpx:TrackPointExtension><gpxtpx:hr>137</gpxtpx:hr><gpxtpx:cad>91</gpxtpx:cad></gpxtpx:TrackPointExtension></extensions>
      </trkpt>
      <trkpt lat="45.093885" lon="7.545935">
        <ele>349.5</ele>
        <time>2026-06-13T12:29:00+02:00</time>
        <extensions><gpxtpx:TrackPointExtension><gpxtpx:hr>135</gpxtpx:hr><gpxtpx:cad>73</gpxtpx:cad></gpxtpx:TrackPointExtension></extensions>
      </trkpt>
      <trkpt lat="45.0941" lon="7.541956">
        <ele>351.3</ele>
        <time>2026-06-13T12:30:00+02:00</time>
        <extensions><gpxtpx:TrackPointExtension><gpxtpx:hr>132</gpxtpx:hr><gpxtpx:cad>88</gpxtpx:cad></gpxtpx:TrackPointExtension></extensions>
      </trkpt>
      <trkpt lat="45.094442" lon="7.537477">
        <ele>353.0</ele>
        <time>2026-06-13T12:31:00+02:00</time>
        <extensions><gpxtpx:TrackPointExtension><gpxtpx:hr>138</gpxtpx:hr><gpxtpx:cad>76</gpxtpx:cad></gpxtpx:TrackPointExtension></extensions>
      </trkpt>
      <trkpt lat="45.095424" lon="7.532592">
        <ele>354.8</ele>
        <time>2026-06-13T12:32:00+02:00</time>
        <extensions><gpxtpx:TrackPointExtension><gpxtpx:hr>130</gpxtpx:hr><gpxtpx:cad>82</gpxtpx:cad></gpxtpx:TrackPointExtension></extensions>
      </trkpt>
      <trkpt lat="45.096604" lon="7.528549">
        <ele>356.2</ele>
        <time>2026-06-13T12:33:00+02:00</time>
        <extensions><gpxtpx:TrackPointExtension><gpxtpx:hr>136</gpxtpx:hr><gpxtpx:cad>88</gpxtpx:cad></gpxtpx:TrackPointExtension></extensions>
      </trkpt>
      <trkpt lat="45.097336" lon="7.524351">
        <ele>357.4</ele>
        <time>2026-06-13T12:34:00+02:00</time>
        <extensions><gpxtpx:TrackPointExtension><gpxtpx:hr>134</gpxtpx:hr><gpxtpx:cad>85</gpxtpx:cad></gpxtpx:TrackPointExtension></extensions>
      </trkpt>
      <trkpt lat="45.098418" lon="7.519026">
        <ele>358.6</ele>
        <time>2026-06-13T12:35:00+02:00</time>
        <extensions><gpxtpx:TrackPointExtension><gpxtpx:hr>136</gpxtpx:hr><gpxtpx:cad>86</gpxtpx:cad></gpxtpx:TrackPointExtension></extensions>
      </trkpt>
      <trkpt lat="45.098984" lon="7.514166">
        <ele>359.5</ele>
        <time>2026-06-13T12:36:00+02:00</time>
        <extensions><gpxtpx:TrackPointExtension><gpxtpx:hr>131</gpxtpx:hr><gpxtpx:cad>76</gpxtpx:cad></gpxtpx:TrackPointExtension></extensions>
      </trkpt>
      <trkpt lat="45.099429" lon="7.509594">
        <ele>360.1</ele>
        <time>2026-06-13T12:37:00+02:00</time>
        <extensions><gpxtpx:TrackPointExtension><gpxtpx:hr>138</gpxtpx:hr><gpxtpx:cad>92</gpxtpx:cad></gpxtpx:TrackPointExtension></extensions>
      </trkpt>
      <trkpt lat="45.099726" lon="7.504438">
        <ele>360.5</ele>
        <time>2026-06-13T12:38:00+02:00</time>
        <extensions><gpxtpx:TrackPointExtension><gpxtpx:hr>136</gpxtpx:hr><gpxtpx:cad>78</gpxtpx:cad></gpxtpx:TrackPointExtension></extensions>
      </trkpt>
      <trkpt lat="45.099497" lon="7.499644">
        <ele>360.7</ele>
        <time>2026-06-13T12:39:00+02:00</time>
        <extensions><gpxtpx:TrackPointExtension><gpxtpx:hr>138</gpxtpx:hr><gpxtpx:cad>86</gpxtpx:cad></gpxtpx:TrackPointExtension></extensions>
      </trkpt>
      <trkpt lat="45.10009" lon="7.495147">
        <ele>360.6</ele>
        <time>2026-06-13T12:40:00+02:00</time>
        <extensions><gpxtpx:TrackPointExtension><gpxtpx:hr>135</gpxtpx:hr><gpxtpx:cad>89</gpxtpx:cad></gpxtpx:TrackPointExtension></extensions>
      </trkpt>
      <trkpt lat="45.101228" lon="7.490541">
        <ele>360.3</ele>
        <time>2026-06-13T12:41:00+02:00</time>
        <extensions><gpxtpx:TrackPointExtension><gpxtpx:hr>136</gpxtpx:hr><gpxtpx:cad>82</gpxtpx:cad></gpxtpx:TrackPointExtension></extensions>
      </trkpt>
      <trkpt lat="45.102092" lon="7.486114">
        <ele>359.9</ele>
        <time>2026-06-13T12:42:00+02:00</time>
        <extensions><gpxtpx:TrackPointExtension><gpxtpx:hr>134</gpxtpx:hr><gpxtpx:cad>82</gpxtpx:cad></gpxtpx:TrackPointExtension></extensions>
      </trkpt>
      <trkpt lat="45.102924" lon="7.481417">
        <ele>359.2</ele>
        <time>2026-06-13T12:43:00+02:00</time>
        <extensions><gpxtpx:TrackPointExtension><gpxtpx:hr>134</gpxtpx:hr><gpxtpx:cad>83</gpxtpx:cad></gpxtpx:TrackPointExtension></extensions>
      </trkpt>
      <trkpt lat="45.103309" lon="7.476814">
        <ele>358.3</ele>
        <time>2026-06-13T12:44:00+02:00</time>
        <extensions><gpxtpx:TrackPointExtension><gpxtpx:hr>138</gpxtpx:hr><gpxtpx:cad>75</gpxtpx:cad></gpxtpx:TrackPointExtension></extensions>
      </trkpt>
      <trkpt lat="45.103819" lon="7.471979">
        <ele>357.1</ele>
        <time>2026-06-13T12:45:00+02:00</time>
        <extensions><gpxtpx:TrackPointExtension><gpxtpx:hr>131</gpxtpx:hr><gpxtpx:cad>87</gpxtpx:cad></gpxtpx:TrackPointExtension></extensions>
      </trkpt>
      <trkpt lat="45.104752" lon="7.467429">
        <ele>355.8</ele>
        <time>2026-06-13T12:46:00+02:00</time>
        <extensions><gpxtpx:TrackPointExtension><gpxtpx:hr>135</gpxtpx:hr><gpxtpx:cad>83</gpxtpx:cad></gpxtpx:TrackPointExtension></extensions>
      </trkpt>
      <trkpt lat="45.105154" lon="7.462633">
        <ele>354.2</ele>
        <time>2026-06-13T12:47:00+02:00</time>
        <extensions><gpxtpx:TrackPointExtension><gpxtpx:hr>138</gpxtpx:hr><gpxtpx:cad>87</gpxtpx:cad></gpxtpx:TrackPointExtension></extensions>
      </trkpt>
      <trkpt lat="45.105391" lon="7.457929">
        <ele>352.4</ele>
        <time>2026-06-13T12:48:00+02:00</time>
        <extensions><gpxtpx:TrackPointExtension><gpxtpx:hr>134</gpxtpx:hr><gpxtpx:cad>79</gpxtpx:cad></gpxtpx:TrackPointExtension></extensions>
      </trkpt>
      <trkpt lat="45.105406" lon="7.452958">
        <ele>350.4</ele>
        <time>2026-06-13T12:49:00+02:00</time>
        <extensions><gpxtpx:TrackPointExtension><gpxtpx:hr>134</gpxtpx:hr><gpxtpx:cad>81</gpxtpx:cad></gpxtpx:TrackPointExtension></extensions>
      </trkpt>
      <trkpt lat="45.105878" lon="7.44823">
        <ele>348.2</ele>
        <time>2026-06-13T12:50:00+02:00</time>
        <extensions><gpxtpx:TrackPointExtension><gpxtpx:hr>136</gpxtpx:hr><gpxtpx:cad>80</gpxtpx:cad></gpxtpx:TrackPointExtension></extensions>
      </trkpt>
      <trkpt lat="45.106781" lon="7.443555">
        <ele>345.8</ele>
        <time>2026-06-13T12:51:00+02:00</time>
        <extensions><gpxtpx:TrackPointExtension><gpxtpx:hr>133</gpxtpx:hr><gpxtpx:cad>79</gpxtpx:cad></gpxtpx:TrackPointExtension></extensions>
      </trkpt>
      <trkpt lat="45.107655" lon="7.438706">
        <ele>343.1</ele>
        <time>2026-06-13T12:52:00+02:00</time>
        <extensions><gpxtpx:TrackPointExtension><gpxtpx:hr>135</gpxtpx:hr><gpxtpx:cad>80</gpxtpx:cad></gpxtpx:TrackPointExtension></extensions>
      </trkpt>
      <trkpt lat="45.108668" lon="7.433964">
        <ele>340.2</ele>
        <time>2026-06-13T12:53:00+02:00</time>
        <extensions><gpxtpx:TrackPointExtension><gpxtpx:hr>136</gpxtpx:hr><gpxtpx:cad>78</gpxtpx:cad></gpxtpx:TrackPointExtension></extensions>
      </trkpt>
      <trkpt lat="45.109762" lon="7.429545">
        <ele>337.3</ele>
        <time>2026-06-13T12:54:00+02:00</time>
        <extensions><gpxtpx:TrackPointExtension><gpxtpx:hr>137</gpxtpx:hr><gpxtpx:cad>90</gpxtpx:cad></gpxtpx:TrackPointExtension></extensions>
      </trkpt>
      <trkpt lat="45.110865" lon="7.425036">
        <ele>334.2</ele>
        <time>2026-06-13T12:55:00+02:00</time>
        <extensions><gpxtpx:TrackPointExtension><gpxtpx:hr>136</gpxtpx:hr><gpxtpx:cad>89</gpxtpx:cad></gpxtpx:TrackPointExtension></extensions>
      </trkpt>
      <trkpt lat="45.111313" lon="7.420096">
        <ele>330.7</ele>
        <time>2026-06-13T12:56:00+02:00</time>
        <extensions><gpxtpx:TrackPointExtension><gpxtpx:hr>137</gpxtpx:hr><gpxtpx:cad>84</gpxtpx:cad></gpxtpx:TrackPointExtension></extensions>
      </trkpt>
      <trkpt lat="45.111376" lon="7.414538">
        <ele>326.7</ele>
        <time>2026-06-13T12:57:00+02:00</time>
        <extensions><gpxtpx:TrackPointExtension><gpxtpx:hr>134</gpxtpx:hr><gpxtpx:cad>80</gpxtpx:cad></gpxtpx:TrackPointExtension></extensions>
      </trkpt>
      <trkpt lat="45.111572" lon="7.409636">
        <ele>322.9</ele>
        <time>2026-06-13T12:58:00+02:00</time>
        <extensions><gpxtpx:TrackPointExtension><gpxtpx:hr>135</gpxtpx:hr><gpxtpx:cad>92</gpxtpx:cad></gpxtpx:TrackPointExtension></extensions>
      </trkpt>
      <trkpt lat="45.112741" lon="7.403756">
        <ele>318.0</ele>
        <time>2026-06-13T12:59:00+02:00</time>
        <extensions><gpxtpx:TrackPointExtension><gpxtpx:hr>134</gpxtpx:hr><gpxtpx:cad>85</gpxtpx:cad></gpxtpx:TrackPointExtension></extensions>
      </trkpt>
      <trkpt lat="45.113781" lon="7.398751">
        <ele>313.6</ele>
        <time>2026-06-13T13:00:00+02:00</time>
        <extensions><gpxtpx:TrackPointExtension><gpxtpx:hr>130</gpxtpx:hr><gpxtpx:cad>78</gpxtpx:cad></gpxtpx:TrackPointExtension></extensions>
      </trkpt>
      <trkpt lat="45.114445" lon="7.393754">
        <ele>309.2</ele>
        <time>2026-06-13T13:01:00+02:00</time>
        <extensions><gpxtpx:TrackPointExtension><gpxtpx:hr>132</gpxtpx:hr><gpxtpx:cad>82</gpxtpx:cad></gpxtpx:TrackPointExtension></extensions>
      </trkpt>
      <trkpt lat="45.114447" lon="7.388319">
        <ele>304.3</ele>
        <time>2026-06-13T13:02:00+02:00</time>
        <extensions><gpxtpx:TrackPointExtension><gpxtpx:hr>134</gpxtpx:hr><gpxtpx:cad>82</gpxtpx:cad></gpxtpx:TrackPointExtension></extensions>
      </trkpt>
      <trkpt lat="45.11503" lon="7.383153">
        <ele>299.5</ele>
        <time>2026-06-13T13:03:00+02:00</time>
        <extensions><gpxtpx:TrackPointExtension><gpxtpx:hr>135</gpxtpx:hr><gpxtpx:cad>84</gpxtpx:cad></gpxtpx:TrackPointExtension></extensions>
      </trkpt>
      <trkpt lat="45.115761" lon="7.378322">
        <ele>294.8</ele>
        <time>2026-06-13T13:04:00+02:00</time>
        <extensions><gpxtpx:TrackPointExtension><gpxtpx:hr>133</gpxtpx:hr><gpxtpx:cad>83</gpxtpx:cad></gpxtpx:TrackPointExtension></extensions>
      </trkpt>
      <trkpt lat="45.116859" lon="7.373603">
        <ele>290.0</ele>
        <time>2026-06-13T13:05:00+02:00</time>
        <extensions><gpxtpx:TrackPointExtension><gpxtpx:hr>132</gpxtpx:hr><gpxtpx:cad>93</gpxtpx:cad></gpxtpx:TrackPointExtension></extensions>
      </trkpt>
      <trkpt lat="45.118174" lon="7.368447">
        <ele>284.5</ele>
        <time>2026-06-13T13:06:00+02:00</time>
        <extensions><gpxtpx:TrackPointExtension><gpxtpx:hr>135</gpxtpx:hr><gpxtpx:cad>91</gpxtpx:cad></gpxtpx:TrackPointExtension></extensions>
      </trkpt>
      <trkpt lat="45.119919" lon="7.363208">
        <ele>278.7</ele>
        <time>2026-06-13T13:07:00+02:00</time>
        <extensions><gpxtpx:TrackPointExtension><gpxtpx:hr>134</gpxtpx:hr><gpxtpx:cad>81</gpxtpx:cad></gpxtpx:TrackPointExtension></extensions>
      </trkpt>
      <trkpt lat="45.121257" lon="7.35878">
        <ele>273.7</ele>
        <time>2026-06-13T13:08:00+02:00</time>
        <extensions><gpxtpx:TrackPointExtension><gpxtpx:hr>135</gpxtpx:hr><gpxtpx:cad>88</gpxtpx:cad></gpxtpx:TrackPointExtension></extensions>
      </trkpt>
      <trkpt lat="45.12287" lon="7.354164">
        <ele>268.4</ele>
        <time>2026-06-13T13:09:00+02:00</time>
        <extensions><gpxtpx:TrackPointExtension><gpxtpx:hr>133</gpxtpx:hr><gpxtpx:cad>83</gpxtpx:cad></gpxtpx:TrackPointExtension></extensions>
      </trkpt>
      <trkpt lat="45.124603" lon="7.349202">
        <ele>262.5</ele>
        <time>2026-06-13T13:10:00+02:00</time>
        <extensions><gpxtpx:TrackPointExtension><gpxtpx:hr>135</gpxtpx:hr><gpxtpx:cad>88</gpxtpx:cad></gpxtpx:TrackPointExtension></extensions>
      </trkpt>
      <trkpt lat="45.125977" lon="7.344212">
        <ele>256.8</ele>
        <time>2026-06-13T13:11:00+02:00</time>
        <extensions><gpxtpx:TrackPointExtension><gpxtpx:hr>141</gpxtpx:hr><gpxtpx:cad>84</gpxtpx:cad></gpxtpx:TrackPointExtension></extensions>
      </trkpt>
      <trkpt lat="45.12731" lon="7.339642">
        <ele>251.5</ele>
        <time>2026-06-13T13:12:00+02:00</time>
        <extensions><gpxtpx:TrackPointExtension><gpxtpx:hr>136</gpxtpx:hr><gpxtpx:cad>91</gpxtpx:cad></gpxtpx:TrackPointExtension></extensions>
      </trkpt>
      <trkpt lat="45.128291" lon="7.334515">
        <ele>245.8</ele>
        <time>2026-06-13T13:13:00+02:00</time>
        <extensions><gpxtpx:TrackPointExtension><gpxtpx:hr>134</gpxtpx:hr><gpxtpx:cad>89</gpxtpx:cad></gpxtpx:TrackPointExtension></extensions>
      </trkpt>
      <trkpt lat="45.128488" lon="7.329414">
        <ele>240.3</ele>
        <time>2026-06-13T13:14:00+02:00</time>
        <extensions><gpxtpx:TrackPointExtension><gpxtpx:hr>134</gpxtpx:hr><gpxtpx:cad>75</gpxtpx:cad></gpxtpx:TrackPointExtension></extensions>
      </trkpt>
    </trkseg>
  </trk>
</gpx>
