<?xml version="1.0" encoding="UTF-8"?>
<TrainingCenterDatabase xmlns="http://www.garmin.com/xmlschemas/TrainingCenterDatabase/v2" xmlns:ns3="http://www.garmin.com/xmlschemas/ActivityExtension/v2" xmlns:xsi="http://www.w3.org/2001/XMLSchema-instance">
  <Activities>
    <Activity Sport="Running">
      <Id>2026-06-12T06:45:00Z</Id>
      <Lap StartTime="2026-06-12T06:45:00Z">
        <TotalTimeSeconds>2340.0</TotalTimeSeconds>
        <DistanceMeters>6894.8</DistanceMeters>
        <Calories>519</Calories>
        <AverageHeartRateBpm><Value>148</Value></AverageHeartRateBpm>
        <MaximumHeartRateBpm><Value>158</Value></MaximumHeartRateBpm>
        <Intensity>Active</Intensity>
        <Notes>Tempo run</Notes>
        <Track>
          <Trackpoint>
            <Time>2026-06-12T06:45:00Z</Time>
            <Position>
              <LatitudeDegrees>45.084437</LatitudeDegrees>
              <LongitudeDegrees>7.678576</LongitudeDegrees>
            </Position>
            <AltitudeMeters>240.0</AltitudeMeters>
            <DistanceMeters>0.0</DistanceMeters>
            <HeartRateBpm><Value>80</Value></HeartRateBpm>
            <Extensions><ns3:TPX><ns3:RunCadence>87</ns3:RunCadence></ns3:TPX></Extensions>
          </Trackpoint>
          <Trackpoint>
            <Time>2026-06-12T06:46:00Z</Time>
            <Position>
              <LatitudeDegrees>45.084225</LatitudeDegrees>
              <LongitudeDegrees>7.680808</LongitudeDegrees>
            </Position>
            <AltitudeMeters>244.9</AltitudeMeters>
            <DistanceMeters>176.8</DistanceMeters>
            <HeartRateBpm><Value>118</Value></HeartRateBpm>
            <Extensions><ns3:TPX><ns3:RunCadence>88</ns3:RunCadence></ns3:TPX></Extensions>
          </Trackpoint>
          <Trackpoint>
            <Time>2026-06-12T06:47:00Z</Time>
            <Position>
              <LatitudeDegrees>45.084225</LatitudeDegrees>
              <LongitudeDegrees>7.68306</LongitudeDegrees>
            </Position>
            <AltitudeMeters>249.9</AltitudeMeters>
            <DistanceMeters>353.6</DistanceMeters>
            <HeartRateBpm><Value>147</Value></HeartRateBpm>
            <Extensions><ns3:TPX><ns3:RunCadence>88</ns3:RunCadence></ns3:TPX></Extensions>
          </Trackpoint>
          <Trackpoint>
            <Time>2026-06-12T06:48:00Z</Time>
            <Position>
              <LatitudeDegrees>45.084454</LatitudeDegrees>
              <LongitudeDegrees>7.685288</LongitudeDegrees>
            </Position>
            <AltitudeMeters>254.7</AltitudeMeters>
            <DistanceMeters>530.4</DistanceMeters>
            <HeartRateBpm><Value>150</Value></HeartRateBpm>
            <Extensions><ns3:TPX><ns3:RunCadence>86</ns3:RunCadence></ns3:TPX></Extensions>
          </Trackpoint>
          <Trackpoint>
            <Time>2026-06-12T06:49:00Z</Time>
            <Position>
              <LatitudeDegrees>45.084433</LatitudeDegrees>
              <LongitudeDegrees>7.68754</LongitudeDegrees>
            </Position>
            <AltitudeMeters>259.5</AltitudeMeters>
            <DistanceMeters>707.2</DistanceMeters>
            <HeartRateBpm><Value>154</Value></HeartRateBpm>
            <Extensions><ns3:TPX><ns3:RunCadence>89</ns3:RunCadence></ns3:TPX></Extensions>
          </Trackpoint>
          <Trackpoint>
            <Time>2026-06-12T06:50:00Z</Time>
            <Position>
              <LatitudeDegrees>45.084317</LatitudeDegrees>
              <LongitudeDegrees>7.689786</LongitudeDegrees>
            </Position>
            <AltitudeMeters>264.1</AltitudeMeters>
            <DistanceMeters>884.0</DistanceMeters>
            <HeartRateBpm><Value>157</Value></HeartRateBpm>
            <Extensions><ns3:TPX><ns3:RunCadence>84</ns3:RunCadence></ns3:TPX></Extensions>
          </Trackpoint>
          <Trackpoint>
            <Time>2026-06-12T06:51:00Z</Time>
            <Position>
              <LatitudeDegrees>45.084072</LatitudeDegrees>
              <LongitudeDegrees>7.69201</LongitudeDegrees>
            </Position>
            <AltitudeMeters>268.6</AltitudeMeters>
            <DistanceMeters>1060.7</DistanceMeters>
            <HeartRateBpm><Value>152</Value></HeartRateBpm>
            <Extensions><ns3:TPX><ns3:RunCadence>87</ns3:RunCadence></ns3:TPX></Extensions>
          </Trackpoint>
          <Trackpoint>
            <Time>2026-06-12T06:52:00Z</Time>
            <Position>
              <LatitudeDegrees>45.084031</LatitudeDegrees>
              <LongitudeDegrees>7.694261</LongitudeDegrees>
            </Position>
            <AltitudeMeters>272.8</AltitudeMeters>
            <DistanceMeters>1237.5</DistanceMeters>
            <HeartRateBpm><Value>152</Value></HeartRateBpm>
            <Extensions><ns3:TPX><ns3:RunCadence>88</ns3:RunCadence></ns3:TPX></Extensions>
          </Trackpoint>
          <Trackpoint>
            <Time>2026-06-12T06:53:00Z</Time>
            <Position>
              <LatitudeDegrees>45.083869</LatitudeDegrees>
              <LongitudeDegrees>7.696501</LongitudeDegrees>
            </Position>
            <AltitudeMeters>276.9</AltitudeMeters>
            <DistanceMeters>1414.3</DistanceMeters>
            <HeartRateBpm><Value>156</Value></HeartRateBpm>
            <Extensions><ns3:TPX><ns3:RunCadence>87</ns3:RunCadence></ns3:TPX></Extensions>
          </Trackpoint>
          <Trackpoint>
            <Time>2026-06-12T06:54:00Z</Time>
            <Position>
              <LatitudeDegrees>45.083491</LatitudeDegrees>
              <LongitudeDegrees>7.698688</LongitudeDegrees>
            </Position>
            <AltitudeMeters>280.8</AltitudeMeters>
            <DistanceMeters>1591.1</DistanceMeters>
            <HeartRateBpm><Value>153</Value></HeartRateBpm>
            <Extensions><ns3:TPX><ns3:RunCadence>89</ns3:RunCadence></ns3:TPX></Extensions>
          </Trackpoint>
          <Trackpoint>
            <Time>2026-06-12T06:55:00Z</Time>
            <Position>
              <LatitudeDegrees>45.083321</LatitudeDegrees>
              <LongitudeDegrees>7.700927</LongitudeDegrees>
            </Position>
            <AltitudeMeters>284.3</AltitudeMeters>
            <DistanceMeters>1767.9</DistanceMeters>
            <HeartRateBpm><Value>155</Value></HeartRateBpm>
            <Extensions><ns3:TPX><ns3:RunCadence>78</ns3:RunCadence></ns3:TPX></Extensions>
          </Trackpoint>
          <Trackpoint>
            <Time>2026-06-12T06:56:00Z</Time>
            <Position>
              <LatitudeDegrees>45.08323</LatitudeDegrees>
              <LongitudeDegrees>7.703175</LongitudeDegrees>
            </Position>
            <AltitudeMeters>287.6</AltitudeMeters>
            <DistanceMeters>1944.7</DistanceMeters>
            <HeartRateBpm><Value>158</Value></HeartRateBpm>
            <Extensions><ns3:TPX><ns3:RunCadence>83</ns3:RunCadence></ns3:TPX></Extensions>
          </Trackpoint>
          <Trackpoint>
            <Time>2026-06-12T06:57:00Z</Time>
            <Position>
              <LatitudeDegrees>45.083352</LatitudeDegrees>
              <LongitudeDegrees>7.70542</LongitudeDegrees>
            </Position>
            <AltitudeMeters>290.6</AltitudeMeters>
            <DistanceMeters>2121.5</DistanceMeters>
            <HeartRateBpm><Value>152</Value></HeartRateBpm>
            <Extensions><ns3:TPX><ns3:RunCadence>86</ns3:RunCadence></ns3:TPX></Extensions>
          </Trackpoint>
          <Trackpoint>
            <Time>2026-06-12T06:58:00Z</Time>
            <Position>
              <LatitudeDegrees>45.083088</LatitudeDegrees>
              <LongitudeDegrees>7.707641</LongitudeDegrees>
            </Position>
            <AltitudeMeters>293.2</AltitudeMeters>
            <DistanceMeters>2298.3</DistanceMeters>
            <HeartRateBpm><Value>155</Value></HeartRateBpm>
            <Extensions><ns3:TPX><ns3:RunCadence>91</ns3:RunCadence></ns3:TPX></Extensions>
          </Trackpoint>
          <Trackpoint>
            <Time>2026-06-12T06:59:00Z</Time>
            <Position>
              <LatitudeDegrees>45.08274</LatitudeDegrees>
              <LongitudeDegrees>7.709838</LongitudeDegrees>
            </Position>
            <AltitudeMeters>295.5</AltitudeMeters>
            <DistanceMeters>2475.1</DistanceMeters>
            <HeartRateBpm><Value>150</Value></HeartRateBpm>
            <Extensions><ns3:TPX><ns3:RunCadence>87</ns3:RunCadence></ns3:TPX></Extensions>
          </Trackpoint>
          <Trackpoint>
            <Time>2026-06-12T07:00:00Z</Time>
            <Position>
              <LatitudeDegrees>45.082026</LatitudeDegrees>
              <LongitudeDegrees>7.71185</LongitudeDegrees>
            </Position>
            <AltitudeMeters>297.5</AltitudeMeters>
            <DistanceMeters>2651.9</DistanceMeters>
            <HeartRateBpm><Value>158</Value></HeartRateBpm>
            <Extensions><ns3:TPX><ns3:RunCadence>85</ns3:RunCadence></ns3:TPX></Extensions>
          </Trackpoint>
          <Trackpoint>
            <Time>2026-06-12T07:01:00Z</Time>
            <Position>
              <LatitudeDegrees>45.081305</LatitudeDegrees>
              <LongitudeDegrees>7.713857</LongitudeDegrees>
            </Position>
            <AltitudeMeters>299.0</AltitudeMeters>
            <DistanceMeters>2828.6</DistanceMeters>
            <HeartRateBpm><Value>152</Value></HeartRateBpm>
            <Extensions><ns3:TPX><ns3:RunCadence>84</ns3:RunCadence></ns3:TPX></Extensions>
          </Trackpoint>
          <Trackpoint>
            <Time>2026-06-12T07:02:00Z</Time>
            <Position>
              <LatitudeDegrees>45.080564</LatitudeDegrees>
              <LongitudeDegrees>7.715849</LongitudeDegrees>
            </Position>
            <AltitudeMeters>300.2</AltitudeMeters>
            <DistanceMeters>3005.4</DistanceMeters>
            <HeartRateBpm><Value>155</Value></HeartRateBpm>
            <Extensions><ns3:TPX><ns3:RunCadence>85</ns3:RunCadence></ns3:TPX></Extensions>
          </Trackpoint>
          <Trackpoint>
            <Time>2026-06-12T07:03:00Z</Time>
            <Position>
              <LatitudeDegrees>45.080047</LatitudeDegrees>
              <LongitudeDegrees>7.717978</LongitudeDegrees>
            </Position>
            <AltitudeMeters>301.0</AltitudeMeters>
            <DistanceMeters>3182.2</DistanceMeters>
            <HeartRateBpm><Value>153</Value></HeartRateBpm>
            <Extensions><ns3:TPX><ns3:RunCadence>87</ns3:RunCadence></ns3:TPX></Extensions>
          </Trackpoint>
          <Trackpoint>
            <Time>2026-06-12T07:04:00Z</Time>
            <Position>
              <LatitudeDegrees>45.079271</LatitudeDegrees>
              <LongitudeDegrees>7.719943</LongitudeDegrees>
            </Position>
            <AltitudeMeters>301.4</AltitudeMeters>
            <DistanceMeters>3359.0</DistanceMeters>
            <HeartRateBpm><Value>152</Value></HeartRateBpm>
            <Extensions><ns3:TPX><ns3:RunCadence>86</ns3:RunCadence></ns3:TPX></Extensions>
          </Trackpoint>
          <Trackpoint>
            <Time>2026-06-12T07:05:00Z</Time>
            <Position>
              <LatitudeDegrees>45.078386</LatitudeDegrees>
              <LongitudeDegrees>7.721814</LongitudeDegrees>
            </Position>
            <AltitudeMeters>301.4</AltitudeMeters>
            <DistanceMeters>3535.8</DistanceMeters>
            <HeartRateBpm><Value>154</Value></HeartRateBpm>
            <Extensions><ns3:TPX><ns3:RunCadence>91</ns3:RunCadence></ns3:TPX></Extensions>
          </Trackpoint>
          <Trackpoint>
            <Time>2026-06-12T07:06:00Z</Time>
            <Position>
              <LatitudeDegrees>45.077347</LatitudeDegrees>
              <LongitudeDegrees>7.723518</LongitudeDegrees>
            </Position>
            <AltitudeMeters>301.0</AltitudeMeters>
            <DistanceMeters>3712.6</DistanceMeters>
            <HeartRateBpm><Value>148</Value></HeartRateBpm>
            <Extensions><ns3:TPX><ns3:RunCadence>80</ns3:RunCadence></ns3:TPX></Extensions>
          </Trackpoint>
          <Trackpoint>
            <Time>2026-06-12T07:07:00Z</Time>
            <Position>
              <LatitudeDegrees>45.076237</LatitudeDegrees>
              <LongitudeDegrees>7.72513</LongitudeDegrees>
            </Position>
            <AltitudeMeters>300.2</AltitudeMeters>
            <DistanceMeters>3889.4</DistanceMeters>
            <HeartRateBpm><Value>153</Value></HeartRateBpm>
            <Extensions><ns3:TPX><ns3:RunCadence>91</ns3:RunCadence></ns3:TPX></Extensions>
          </Trackpoint>
          <Trackpoint>
            <Time>2026-06-12T07:08:00Z</Time>
            <Position>
              <LatitudeDegrees>45.07503</LatitudeDegrees>
              <LongitudeDegrees>7.726595</LongitudeDegrees>
            </Position>
            <AltitudeMeters>299.0</AltitudeMeters>
            <DistanceMeters>4066.2</DistanceMeters>
            <HeartRateBpm><Value>151</Value></HeartRateBpm>
            <Extensions><ns3:TPX><ns3:RunCadence>89</ns3:RunCadence></ns3:TPX></Extensions>
          </Trackpoint>
          <Trackpoint>
            <Time>2026-06-12T07:09:00Z</Time>
            <Position>
              <LatitudeDegrees>45.073793</LatitudeDegrees>
              <LongitudeDegrees>7.728009</LongitudeDegrees>
            </Position>
            <AltitudeMeters>297.5</AltitudeMeters>
            <DistanceMeters>4243.0</DistanceMeters>
            <HeartRateBpm><Value>146</Value></HeartRateBpm>
            <Extensions><ns3:TPX><ns3:RunCadence>86</ns3:RunCadence></ns3:TPX></Extensions>
          </Trackpoint>
          <Trackpoint>
            <Time>2026-06-12T07:10:00Z</Time>
            <Position>
              <LatitudeDegrees>45.072543</LatitudeDegrees>
              <LongitudeDegrees>7.729401</LongitudeDegrees>
            </Position>
            <AltitudeMeters>295.5</AltitudeMeters>
            <DistanceMeters>4419.8</DistanceMeters>
            <HeartRateBpm><Value>146</Value></HeartRateBpm>
            <Extensions><ns3:TPX><ns3:RunCadence>90</ns3:RunCadence></ns3:TPX></Extensions>
          </Trackpoint>
          <Trackpoint>
            <Time>2026-06-12T07:11:00Z</Time>
            <Position>
              <LatitudeDegrees>45.071102</LatitudeDegrees>
              <LongitudeDegrees>7.730353</LongitudeDegrees>
            </Position>
            <AltitudeMeters>293.2</AltitudeMeters>
            <DistanceMeters>4596.6</DistanceMeters>
            <HeartRateBpm><Value>153</Value></HeartRateBpm>
            <Extensions><ns3:TPX><ns3:RunCadence>82</ns3:RunCadence></ns3:TPX></Extensions>
          </Trackpoint>
          <Trackpoint>
            <Time>2026-06-12T07:12:00Z</Time>
            <Position>
              <LatitudeDegrees>45.069775</LatitudeDegrees>
              <LongitudeDegrees>7.731593</LongitudeDegrees>
            </Position>
            <AltitudeMeters>290.6</AltitudeMeters>
            <DistanceMeters>4773.3</DistanceMeters>
            <HeartRateBpm><Value>150</Value></HeartRateBpm>
            <Extensions><ns3:TPX><ns3:RunCadence>86</ns3:RunCadence></ns3:TPX></Extensions>
          </Trackpoint>
          <Trackpoint>
            <Time>2026-06-12T07:13:00Z</Time>
            <Position>
              <LatitudeDegrees>45.068377</LatitudeDegrees>
              <LongitudeDegrees>7.732666</LongitudeDegrees>
            </Position>
            <AltitudeMeters>287.6</AltitudeMeters>
            <DistanceMeters>4950.1</DistanceMeters>
            <HeartRateBpm><Value>148</Value></HeartRateBpm>
            <Extensions><ns3:TPX><ns3:RunCadence>88</ns3:RunCadence></ns3:TPX></Extensions>
          </Trackpoint>
          <Trackpoint>
            <Time>2026-06-12T07:14:00Z</Time>
            <Position>
              <LatitudeDegrees>45.066954</LatitudeDegrees>
              <LongitudeDegrees>7.733667</LongitudeDegrees>
            </Position>
            <AltitudeMeters>284.3</AltitudeMeters>
            <DistanceMeters>5126.9</DistanceMeters>
            <HeartRateBpm><Value>146</Value></HeartRateBpm>
            <Extensions><ns3:TPX><ns3:RunCadence>85</ns3:RunCadence></ns3:TPX></Extensions>
          </Trackpoint>
          <Trackpoint>
            <Time>2026-06-12T07:15:00Z</Time>
            <Position>
              <LatitudeDegrees>45.065492</LatitudeDegrees>
              <LongitudeDegrees>7.734552</LongitudeDegrees>
            </Position>
            <AltitudeMeters>280.8</AltitudeMeters>
            <DistanceMeters>5303.7</DistanceMeters>
            <HeartRateBpm><Value>152</Value></HeartRateBpm>
            <Extensions><ns3:TPX><ns3:RunCadence>84</ns3:RunCadence></ns3:TPX></Extensions>
          </Trackpoint>
          <Trackpoint>
            <Time>2026-06-12T07:16:00Z</Time>
            <Position>
              <LatitudeDegrees>45.064072</LatitudeDegrees>
              <LongitudeDegrees>7.735567</LongitudeDegrees>
            </Position>
            <AltitudeMeters>276.9</AltitudeMeters>
            <DistanceMeters>5480.5</DistanceMeters>
            <HeartRateBpm><Value>146</Value></HeartRateBpm>
            <Extensions><ns3:TPX><ns3:RunCadence>94</ns3:RunCadence></ns3:TPX></Extensions>
          </Trackpoint>
          <Trackpoint>
            <Time>2026-06-12T07:17:00Z</Time>
            <Position>
              <LatitudeDegrees>45.062573</LatitudeDegrees>
              <LongitudeDegrees>7.736316</LongitudeDegrees>
            </Position>
            <AltitudeMeters>272.8</AltitudeMeters>
            <DistanceMeters>5657.3</DistanceMeters>
            <HeartRateBpm><Value>147</Value></HeartRateBpm>
            <Extensions><ns3:TPX><ns3:RunCadence>95</ns3:RunCadence></ns3:TPX></Extensions>
          </Trackpoint>
          <Trackpoint>
            <Time>2026-06-12T07:18:00Z</Time>
            <Position>
              <LatitudeDegrees>45.061111</LatitudeDegrees>
              <LongitudeDegrees>7.737202</LongitudeDegrees>
            </Position>
            <AltitudeMeters>268.6</AltitudeMeters>
            <DistanceMeters>5834.1</DistanceMeters>
            <HeartRateBpm><Value>147</Value></HeartRateBpm>
            <Extensions><ns3:TPX><ns3:RunCadence>89</ns3:RunCadence></ns3:TPX></Extensions>
          </Trackpoint>
          <Trackpoint>
            <Time>2026-06-12T07:19:00Z</Time>
            <Position>
              <LatitudeDegrees>45.059619</LatitudeDegrees>
              <LongitudeDegrees>7.737979</LongitudeDegrees>
            </Position>
            <AltitudeMeters>264.1</AltitudeMeters>
            <DistanceMeters>6010.9</DistanceMeters>
            <HeartRateBpm><Value>148</Value></HeartRateBpm>
            <Extensions><ns3:TPX><ns3:RunCadence>87</ns3:RunCadence></ns3:TPX></Extensions>
          </Trackpoint>
          <Trackpoint>
            <Time>2026-06-12T07:20:00Z</Time>
            <Position>
              <LatitudeDegrees>45.058171</LatitudeDegrees>
              <LongitudeDegrees>7.738909</LongitudeDegrees>
            </Position>
            <AltitudeMeters>259.5</AltitudeMeters>
            <DistanceMeters>6187.7</DistanceMeters>
            <HeartRateBpm><Value>149</Value></HeartRateBpm>
            <Extensions><ns3:TPX><ns3:RunCadence>81</ns3:RunCadence></ns3:TPX></Extensions>
          </Trackpoint>
          <Trackpoint>
            <Time>2026-06-12T07:21:00Z</Time>
            <Position>
              <LatitudeDegrees>45.0569</LatitudeDegrees>
              <LongitudeDegrees>7.740261</LongitudeDegrees>
            </Position>
            <AltitudeMeters>254.7</AltitudeMeters>
            <DistanceMeters>6364.5</DistanceMeters>
            <HeartRateBpm><Value>146</Value></HeartRateBpm>
            <Extensions><ns3:TPX><ns3:RunCadence>86</ns3:RunCadence></ns3:TPX></Extensions>
          </Trackpoint>
          <Trackpoint>
            <Time>2026-06-12T07:22:00Z</Time>
            <Position>
              <LatitudeDegrees>45.055716</LatitudeDegrees>
              <LongitudeDegrees>7.741762</LongitudeDegrees>
            </Position>
            <AltitudeMeters>249.9</AltitudeMeters>
            <DistanceMeters>6541.3</DistanceMeters>
            <HeartRateBpm><Value>149</Value></HeartRateBpm>
            <Extensions><ns3:TPX><ns3:RunCadence>84</ns3:RunCadence></ns3:TPX></Extensions>
          </Trackpoint>
          <Trackpoint>
            <Time>2026-06-12T07:23:00Z</Time>
            <Position>
              <LatitudeDegrees>45.054526</LatitudeDegrees>
              <LongitudeDegrees>7.743255</LongitudeDegrees>
            </Position>
            <AltitudeMeters>244.9</AltitudeMeters>
            <DistanceMeters>6718.0</DistanceMeters>
            <HeartRateBpm><Value>149</Value></HeartRateBpm>
            <Extensions><ns3:TPX><ns3:RunCadence>91</ns3:RunCadence></ns3:TPX></Extensions>
          </Trackpoint>
          <Trackpoint>
            <Time>2026-06-12T07:24:00Z</Time>
            <Position>
              <LatitudeDegrees>45.053415</LatitudeDegrees>
              <LongitudeDegrees>7.744865</LongitudeDegrees>
            </Position>
            <AltitudeMeters>240.0</AltitudeMeters>
            <DistanceMeters>6894.8</DistanceMeters>
            <HeartRateBpm><Value>145</Value></HeartRateBpm>
            <Extensions><ns3:TPX><ns3:RunCadence>84</ns3:RunCadence></ns3:TPX></Extensions>
          </Trackpoint>
        </Track>
      </Lap>
      <Creator xsi:type="Device_t">
        <Name>Garmin Edge 530</Name>
      </Creator>
    </Activity>
  </Activities>
  <Author xsi:type="Application_t"><Name>Garmin Connect</Name></Author>
</TrainingCenterDatabase>
