<?xml version="1.0" encoding="UTF-8"?>
<gpx creator="StravaGPX Android" version="1.1" xmlns="http://www.topografix.com/GPX/1/1" xmlns:gpxtpx="http://www.garmin.com/xmlschemas/TrackPointExtension/v1">
  <metadata>
    <time>2026-06-07T09:00:00Z</time>
    <name>Summit hike</name>
  </metadata>
  <trk>
    <name>Summit hike</name>
    <type>hiking</type>
    <trkseg>
      <trkpt lat="45.079125" lon="7.697262">
        <ele>240.0</ele>
        <time>2026-06-07T09:00:00Z</time>
        <extensions><gpxtpx:TrackPointExtension><gpxtpx:hr>80</gpxtpx:hr></gpxtpx:TrackPointExtension></extensions>
      </trkpt>
      <trkpt lat="45.079207" lon="7.696076">
        <ele>270.2</ele>
        <time>2026-06-07T09:01:00Z</time>
        <extensions><gpxtpx:TrackPointExtension><gpxtpx:hr>156</gpxtpx:hr></gpxtpx:TrackPointExtension></extensions>
      </trkpt>
      <trkpt lat="45.079442" lon="7.694932">
        <ele>300.3</ele>
        <time>2026-06-07T09:02:00Z</time>
        <extensions><gpxtpx:TrackPointExtension><gpxtpx:hr>174</gpxtpx:hr></gpxtpx:TrackPointExtension></extensions>
      </trkpt>
      <trkpt lat="45.079725" lon="7.69381">
        <ele>330.2</ele>
        <time>2026-06-07T09:03:00Z</time>
        <extensions><gpxtpx:TrackPointExtension><gpxtpx:hr>183</gpxtpx:hr></gpxtpx:TrackPointExtension></extensions>
      </trkpt>
      <trkpt lat="45.080001" lon="7.692684">
        <ele>359.9</ele>
        <time>2026-06-07T09:04:00Z</time>
        <extensions><gpxtpx:TrackPointExtension><gpxtpx:hr>183</gpxtpx:hr></gpxtpx:TrackPointExtension></extensions>
      </trkpt>
      <trkpt lat="45.080305" lon="7.691573">
        <ele>389.3</ele>
        <time>2026-06-07T09:05:00Z</time>
        <extensions><gpxtpx:TrackPointExtension><gpxtpx:hr>184</gpxtpx:hr></gpxtpx:TrackPointExtension></extensions>
      </trkpt>
      <trkpt lat="45.080619" lon="7.690468">
        <ele>418.3</ele>
        <time>2026-06-07T09:06:00Z</time>
        <extensions><gpxtpx:TrackPointExtension><gpxtpx:hr>179</gpxtpx:hr></gpxtpx:TrackPointExtension></extensions>
      </trkpt>
      <trkpt lat="45.080841" lon="7.689318">
        <ele>446.8</ele>
        <time>2026-06-07T09:07:00Z</time>
        <extensions><gpxtpx:TrackPointExtension><gpxtpx:hr>180</gpxtpx:hr></gpxtpx:TrackPointExtension></extensions>
      </trkpt>
      <trkpt lat="45.080827" lon="7.688127">
        <ele>474.8</ele>
        <time>2026-06-07T09:08:00Z</time>
        <extensions><gpxtpx:TrackPointExtension><gpxtpx:hr>181</gpxtpx:hr></gpxtpx:TrackPointExtension></extensions>
      </trkpt>
      <trkpt lat="45.080942" lon="7.686946">
        <ele>502.1</ele>
        <time>2026-06-07T09:09:00Z</time>
        <extensions><gpxtpx:TrackPointExtension><gpxtpx:hr>177</gpxtpx:hr></gpxtpx:TrackPointExtension></extensions>
      </trkpt>
      <trkpt lat="45.080866" lon="7.685759">
        <ele>528.7</ele>
        <time>2026-06-07T09:10:00Z</time>
        <extensions><gpxtpx:TrackPointExtension><gpxtpx:hr>179</gpxtpx:hr></gpxtpx:TrackPointExtension></extensions>
      </trkpt>
      <trkpt lat="45.08077" lon="7.684575">
        <ele>554.6</ele>
        <time>2026-06-07T09:11:00Z</time>
        <extensions><gpxtpx:TrackPointExtension><gpxtpx:hr>173</gpxtpx:hr></gpxtpx:TrackPointExtension></extensions>
      </trkpt>
      <trkpt lat="45.080627" lon="7.683401">
        <ele>579.7</ele>
        <time>2026-06-07T09:12:00Z</time>
        <extensions><gpxtpx:TrackPointExtension><gpxtpx:hr>173</gpxtpx:hr></gpxtpx:TrackPointExtension></extensions>
      </trkpt>
      <trkpt lat="45.080445" lon="7.682237">
        <ele>603.8</ele>
        <time>2026-06-07T09:13:00Z</time>
        <extensions><gpxtpx:TrackPointExtension><gpxtpx:hr>170</gpxtpx:hr></gpxtpx:TrackPointExtension></extensions>
      </trkpt>
      <trkpt lat="45.080231" lon="7.681085">
        <ele>627.0</ele>
        <time>2026-06-07T09:14:00Z</time>
        <extensions><gpxtpx:TrackPointExtension><gpxtpx:hr>167</gpxtpx:hr></gpxtpx:TrackPointExtension></extensions>
      </trkpt>
      <trkpt lat="45.080244" lon="7.679893">
        <ele>649.2</ele>
        <time>2026-06-07T09:15:00Z</time>
        <extensions><gpxtpx:TrackPointExtension><gpxtpx:hr>169</gpxtpx:hr></gpxtpx:TrackPointExtension></extensions>
      </trkpt>
      <trkpt lat="45.080325" lon="7.678707">
        <ele>670.2</ele>
        <time>2026-06-07T09:16:00Z</time>
        <extensions><gpxtpx:TrackPointExtension><gpxtpx:hr>162</gpxtpx:hr></gpxtpx:TrackPointExtension></extensions>
      </trkpt>
      <trkpt lat="45.080368" lon="7.677517">
        <ele>690.2</ele>
        <time>2026-06-07T09:17:00Z</time>
        <extensions><gpxtpx:TrackPointExtension><gpxtpx:hr>157</gpxtpx:hr></gpxtpx:TrackPointExtension></extensions>
      </trkpt>
      <trkpt lat="45.080557" lon="7.676355">
        <ele>708.9</ele>
        <time>2026-06-07T09:18:00Z</time>
        <extensions><gpxtpx:TrackPointExtension><gpxtpx:hr>158</gpxtpx:hr></gpxtpx:TrackPointExtension></extensions>
      </trkpt>
      <trkpt lat="45.080727" lon="7.675188">
        <ele>726.4</ele>
        <time>2026-06-07T09:19:00Z</time>
        <extensions><gpxtpx:TrackPointExtension><gpxtpx:hr>153</gpxtpx:hr></gpxtpx:TrackPointExtension></extensions>
      </trkpt>
      <trkpt lat="45.080971" lon="7.674048">
        <ele>742.6</ele>
        <time>2026-06-07T09:20:00Z</time>
        <extensions><gpxtpx:TrackPointExtension><gpxtpx:hr>153</gpxtpx:hr></gpxtpx:TrackPointExtension></extensions>
      </trkpt>
      <trkpt lat="45.081247" lon="7.672922">
        <ele>757.5</ele>
        <time>2026-06-07T09:21:00Z</time>
        <extensions><gpxtpx:TrackPointExtension><gpxtpx:hr>150</gpxtpx:hr></gpxtpx:TrackPointExtension></extensions>
      </trkpt>
      <trkpt lat="45.081446" lon="7.671764">
        <ele>770.9</ele>
        <time>2026-06-07T09:22:00Z</time>
        <extensions><gpxtpx:TrackPointExtension><gpxtpx:hr>147</gpxtpx:hr></gpxtpx:TrackPointExtension></extensions>
      </trkpt>
      <trkpt lat="45.081772" lon="7.670665">
        <ele>783.0</ele>
        <time>2026-06-07T09:23:00Z</time>
        <extensions><gpxtpx:TrackPointExtension><gpxtpx:hr>141</gpxtpx:hr></gpxtpx:TrackPointExtension></extensions>
      </trkpt>
      <trkpt lat="45.08207" lon="7.669551">
        <ele>793.7</ele>
        <time>2026-06-07T09:24:00Z</time>
        <extensions><gpxtpx:TrackPointExtension><gpxtpx:hr>140</gpxtpx:hr></gpxtpx:TrackPointExtension></extensions>
      </trkpt>
      <trkpt lat="45.082366" lon="7.668436">
        <ele>802.9</ele>
        <time>2026-06-07T09:25:00Z</time>
        <extensions><gpxtpx:TrackPointExtension><gpxtpx:hr>136</gpxtpx:hr></gpxtpx:TrackPointExtension></extensions>
      </trkpt>
      <trkpt lat="45.082721" lon="7.667355">
        <ele>810.6</ele>
        <time>2026-06-07T09:26:00Z</time>
        <extensions><gpxtpx:TrackPointExtension><gpxtpx:hr>129</gpxtpx:hr></gpxtpx:TrackPointExtension></extensions>
      </trkpt>
      <trkpt lat="45.083029" lon="7.666245">
        <ele>816.7</ele>
        <time>2026-06-07T09:27:00Z</time>
        <extensions><gpxtpx:TrackPointExtension><gpxtpx:hr>127</gpxtpx:hr></gpxtpx:TrackPointExtension></extensions>
      </trkpt>
      <trkpt lat="45.083278" lon="7.665107">
        <ele>821.4</ele>
        <time>2026-06-07T09:28:00Z</time>
        <extensions><gpxtpx:TrackPointExtension><gpxtpx:hr>128</gpxtpx:hr></gpxtpx:TrackPointExtension></extensions>
      </trkpt>
      <trkpt lat="45.083501" lon="7.663958">
        <ele>824.5</ele>
        <time>2026-06-07T09:29:00Z</time>
        <extensions><gpxtpx:TrackPointExtension><gpxtpx:hr>126</gpxtpx:hr></gpxtpx:TrackPointExtension></extensions>
      </trkpt>
      <trkpt lat="45.083642" lon="7.662783">
        <ele>826.0</ele>
        <time>2026-06-07T09:30:00Z</time>
        <extensions><gpxtpx:TrackPointExtension><gpxtpx:hr>115</gpxtpx:hr></gpxtpx:TrackPointExtension></extensions>
      </trkpt>
      <trkpt lat="45.083777" lon="7.661607">
        <ele>826.0</ele>
        <time>2026-06-07T09:31:00Z</time>
        <extensions><gpxtpx:TrackPointExtension><gpxtpx:hr>121</gpxtpx:hr></gpxtpx:TrackPointExtension></extensions>
      </trkpt>
      <trkpt lat="45.08368" lon="7.660423">
        <ele>824.5</ele>
        <time>2026-06-07T09:32:00Z</time>
        <extensions><gpxtpx:TrackPointExtension><gpxtpx:hr>113</gpxtpx:hr></gpxtpx:TrackPointExtension></extensions>
      </trkpt>
      <trkpt lat="45.083595" lon="7.659237">
        <ele>821.4</ele>
        <time>2026-06-07T09:33:00Z</time>
        <extensions><gpxtpx:TrackPointExtension><gpxtpx:hr>107</gpxtpx:hr></gpxtpx:TrackPointExtension></extensions>
      </trkpt>
      <trkpt lat="45.083358" lon="7.658094">
        <ele>816.7</ele>
        <time>2026-06-07T09:34:00Z</time>
        <extensions><gpxtpx:TrackPointExtension><gpxtpx:hr>102</gpxtpx:hr></gpxtpx:TrackPointExtension></extensions>
      </trkpt>
      <trkpt lat="45.083185" lon="7.656927">
        <ele>810.6</ele>
        <time>2026-06-07T09:35:00Z</time>
        <extensions><gpxtpx:TrackPointExtension><gpxtpx:hr>101</gpxtpx:hr></gpxtpx:TrackPointExtension></extensions>
      </trkpt>
      <trkpt lat="45.083149" lon="7.655737">
        <ele>802.9</ele>
        <time>2026-06-07T09:36:00Z</time>
        <extensions><gpxtpx:TrackPointExtension><gpxtpx:hr>96</gpxtpx:hr></gpxtpx:TrackPointExtension></extensions>
      </trkpt>
      <trkpt lat="45.083005" lon="7.654562">
        <ele>793.7</ele>
        <time>2026-06-07T09:37:00Z</time>
        <extensions><gpxtpx:TrackPointExtension><gpxtpx:hr>96</gpxtpx:hr></gpxtpx:TrackPointExtension></extensions>
      </trkpt>
      <trkpt lat="45.082771" lon="7.653417">
        <ele>783.0</ele>
        <time>2026-06-07T09:38:00Z</time>
        <extensions><gpxtpx:TrackPointExtension><gpxtpx:hr>89</gpxtpx:hr></gpxtpx:TrackPointExtension></extensions>
      </trkpt>
      <trkpt lat="45.082708" lon="7.652229">
        <ele>770.9</ele>
        <time>2026-06-07T09:39:00Z</time>
        <extensions><gpxtpx:TrackPointExtension><gpxtpx:hr>85</gpxtpx:hr></gpxtpx:TrackPointExtension></extensions>
      </trkpt>
      <trkpt lat="45.082754" lon="7.651039">
        <ele>757.5</ele>
        <time>2026-06-07T09:40:00Z</time>
        <extensions><gpxtpx:TrackPointExtension><gpxtpx:hr>82</gpxtpx:hr></gpxtpx:TrackPointExtension></extensions>
      </trkpt>
      <trkpt lat="45.082777" lon="7.649848">
        <ele>742.6</ele>
        <time>2026-06-07T09:41:00Z</time>
        <extensions><gpxtpx:TrackPointExtension><gpxtpx:hr>81</gpxtpx:hr></gpxtpx:TrackPointExtension></extensions>
      </trkpt>
      <trkpt lat="45.082668" lon="7.648666">
        <ele>726.4</ele>
        <time>2026-06-07T09:42:00Z</time>
        <extensions><gpxtpx:TrackPointExtension><gpxtpx:hr>80</gpxtpx:hr></gpxtpx:TrackPointExtension></extensions>
      </trkpt>
      <trkpt lat="45.082538" lon="7.647489">
        <ele>708.9</ele>
        <time>2026-06-07T09:43:00Z</time>
        <extensions><gpxtpx:TrackPointExtension><gpxtpx:hr>80</gpxtpx:hr></gpxtpx:TrackPointExtension></extensions>
      </trkpt>
      <trkpt lat="45.082399" lon="7.646313">
        <ele>690.2</ele>
        <time>2026-06-07T09:44:00Z</time>
        <extensions><gpxtpx:TrackPointExtension><gpxtpx:hr>80</gpxtpx:hr></gpxtpx:TrackPointExtension></extensions>
      </trkpt>
      <trkpt lat="45.0823" lon="7.64513">
        <ele>670.2</ele>
        <time>2026-06-07T09:45:00Z</time>
        <extensions><gpxtpx:TrackPointExtension><gpxtpx:hr>80</gpxtpx:hr></gpxtpx:TrackPointExtension></extensions>
      </trkpt>
      <trkpt lat="45.082083" lon="7.643978">
        <ele>649.2</ele>
        <time>2026-06-07T09:46:00Z</time>
        <extensions><gpxtpx:TrackPointExtension><gpxtpx:hr>80</gpxtpx:hr></gpxtpx:TrackPointExtension></extensions>
      </trkpt>
      <trkpt lat="45.081906" lon="7.642813">
        <ele>627.0</ele>
        <time>2026-06-07T09:47:00Z</time>
        <extensions><gpxtpx:TrackPointExtension><gpxtpx:hr>80</gpxtpx:hr></gpxtpx:TrackPointExtension></extensions>
      </trkpt>
      <trkpt lat="45.081645" lon="7.64168">
        <ele>603.8</ele>
        <time>2026-06-07T09:48:00Z</time>
        <extensions><gpxtpx:TrackPointExtension><gpxtpx:hr>80</gpxtpx:hr></gpxtpx:TrackPointExtension></extensions>
      </trkpt>
      <trkpt lat="45.081209" lon="7.640661">
        <ele>579.7</ele>
        <time>2026-06-07T09:49:00Z</time>
        <extensions><gpxtpx:TrackPointExtension><gpxtpx:hr>80</gpxtpx:hr></gpxtpx:TrackPointExtension></extensions>
      </trkpt>
      <trkpt lat="45.080744" lon="7.639667">
        <ele>554.6</ele>
        <time>2026-06-07T09:50:00Z</time>
        <extensions><gpxtpx:TrackPointExtension><gpxtpx:hr>80</gpxtpx:hr></gpxtpx:TrackPointExtension></extensions>
      </trkpt>
      <trkpt lat="45.080319" lon="7.638639">
        <ele>528.7</ele>
        <time>2026-06-07T09:51:00Z</time>
        <extensions><gpxtpx:TrackPointExtension><gpxtpx:hr>80</gpxtpx:hr></gpxtpx:TrackPointExtension></extensions>
      </trkpt>
      <trkpt lat="45.079955" lon="7.637565">
        <ele>502.1</ele>
        <time>2026-06-07T09:52:00Z</time>
        <extensions><gpxtpx:TrackPointExtension><gpxtpx:hr>80</gpxtpx:hr></gpxtpx:TrackPointExtension></extensions>
      </trkpt>
      <trkpt lat="45.079705" lon="7.636427">
        <ele>474.8</ele>
        <time>2026-06-07T09:53:00Z</time>
        <extensions><gpxtpx:TrackPointExtension><gpxtpx:hr>80</gpxtpx:hr></gpxtpx:TrackPointExtension></extensions>
      </trkpt>
      <trkpt lat="45.079456" lon="7.635289">
        <ele>446.8</ele>
        <time>2026-06-07T09:54:00Z</time>
        <extensions><gpxtpx:TrackPointExtension><gpxtpx:hr>80</gpxtpx:hr></gpxtpx:TrackPointExtension></extensions>
      </trkpt>
      <trkpt lat="45.07949" lon="7.634098">
        <ele>418.3</ele>
        <time>2026-06-07T09:55:00Z</time>
        <extensions><gpxtpx:TrackPointExtension><gpxtpx:hr>80</gpxtpx:hr></gpxtpx:TrackPointExtension></extensions>
      </trkpt>
      <trkpt lat="45.0796" lon="7.632916">
        <ele>389.3</ele>
        <time>2026-06-07T09:56:00Z</time>
        <extensions><gpxtpx:TrackPointExtension><gpxtpx:hr>80</gpxtpx:hr></gpxtpx:TrackPointExtension></extensions>
      </trkpt>
      <trkpt lat="45.07957" lon="7.631725">
        <ele>359.9</ele>
        <time>2026-06-07T09:57:00Z</time>
        <extensions><gpxtpx:TrackPointExtension><gpxtpx:hr>80</gpxtpx:hr></gpxtpx:TrackPointExtension></extensions>
      </trkpt>
      <trkpt lat="45.079541" lon="7.630534">
        <ele>330.2</ele>
        <time>2026-06-07T09:58:00Z</time>
        <extensions><gpxtpx:TrackPointExtension><gpxtpx:hr>80</gpxtpx:hr></gpxtpx:TrackPointExtension></extensions>
      </trkpt>
      <trkpt lat="45.079508" lon="7.629344">
        <ele>300.3</ele>
        <time>2026-06-07T09:59:00Z</time>
        <extensions><gpxtpx:TrackPointExtension><gpxtpx:hr>80</gpxtpx:hr></gpxtpx:TrackPointExtension></extensions>
      </trkpt>
      <trkpt lat="45.0796" lon="7.628159">
        <ele>270.2</ele>
        <time>2026-06-07T10:00:00Z</time>
        <extensions><gpxtpx:TrackPointExtension><gpxtpx:hr>80</gpxtpx:hr></gpxtpx:TrackPointExtension></extensions>
      </trkpt>
      <trkpt lat="45.079589" lon="7.626968">
        <ele>240.0</ele>
        <time>2026-06-07T10:01:00Z</time>
        <extensions><gpxtpx:TrackPointExtension><gpxtpx:hr>80</gpxtpx:hr></gpxtpx:TrackPointExtension></extensions>
      </trkpt>
    </trkseg>
  </trk>
</gpx>
