<?xml version="1.0" encoding="UTF-8"?>
<TrainingCenterDatabase xmlns="http://www.garmin.com/xmlschemas/TrainingCenterDatabase/v2" xmlns:ns3="http://www.garmin.com/xmlschemas/ActivityExtension/v2" xmlns:xsi="http://www.w3.org/2001/XMLSchema-instance">
  <Activities>
    <Activity Sport="Running">
      <Id>2026-06-04T20:15:00+02:00</Id>
      <Lap StartTime="2026-06-04T20:15:00+02:00">
        <TotalTimeSeconds>1740.0</TotalTimeSeconds>
        <DistanceMeters>4412.3</DistanceMeters>
        <Calories>382</Calories>
        <AverageHeartRateBpm><Value>146</Value></AverageHeartRateBpm>
        <MaximumHeartRateBpm><Value>190</Value></MaximumHeartRateBpm>
        <Intensity>Active</Intensity>
        <Notes>Easy run</Notes>
        <Track>
          <Trackpoint>
            <Time>2026-06-04T20:15:00+02:00</Time>
            <Position>
              <LatitudeDegrees>45.070337</LatitudeDegrees>
              <LongitudeDegrees>7.670452</LongitudeDegrees>
            </Position>
            <AltitudeMeters>240.0</AltitudeMeters>
            <DistanceMeters>0.0</DistanceMeters>
            <HeartRateBpm><Value>80</Value></HeartRateBpm>
            <Extensions><ns3:TPX><ns3:RunCadence>86</ns3:RunCadence></ns3:TPX></Extensions>
          </Trackpoint>
          <Trackpoint>
            <Time>2026-06-04T20:16:00+02:00</Time>
            <Position>
              <LatitudeDegrees>45.071615</LatitudeDegrees>
              <LongitudeDegrees>7.669761</LongitudeDegrees>
            </Position>
            <AltitudeMeters>273.6</AltitudeMeters>
            <DistanceMeters>152.1</DistanceMeters>
            <HeartRateBpm><Value>164</Value></HeartRateBpm>
            <Extensions><ns3:TPX><ns3:RunCadence>83</ns3:RunCadence></ns3:TPX></Extensions>
          </Trackpoint>
          <Trackpoint>
            <Time>2026-06-04T20:17:00+02:00</Time>
            <Position>
              <LatitudeDegrees>45.072827</LatitudeDegrees>
              <LongitudeDegrees>7.668862</LongitudeDegrees>
            </Position>
            <AltitudeMeters>306.8</AltitudeMeters>
            <DistanceMeters>304.3</DistanceMeters>
            <HeartRateBpm><Value>190</Value></HeartRateBpm>
            <Extensions><ns3:TPX><ns3:RunCadence>91</ns3:RunCadence></ns3:TPX></Extensions>
          </Trackpoint>
          <Trackpoint>
            <Time>2026-06-04T20:18:00+02:00</Time>
            <Position>
              <LatitudeDegrees>45.074111</LatitudeDegrees>
              <LongitudeDegrees>7.668192</LongitudeDegrees>
            </Position>
            <AltitudeMeters>339.2</AltitudeMeters>
            <DistanceMeters>456.4</DistanceMeters>
            <HeartRateBpm><Value>190</Value></HeartRateBpm>
            <Extensions><ns3:TPX><ns3:RunCadence>83</ns3:RunCadence></ns3:TPX></Extensions>
          </Trackpoint>
          <Trackpoint>
            <Time>2026-06-04T20:19:00+02:00</Time>
            <Position>
              <LatitudeDegrees>45.075414</LatitudeDegrees>
              <LongitudeDegrees>7.667599</LongitudeDegrees>
            </Position>
            <AltitudeMeters>370.4</AltitudeMeters>
            <DistanceMeters>608.6</DistanceMeters>
            <HeartRateBpm><Value>190</Value></HeartRateBpm>
            <Extensions><ns3:TPX><ns3:RunCadence>80</ns3:RunCadence></ns3:TPX></Extensions>
          </Trackpoint>
          <Trackpoint>
            <Time>2026-06-04T20:20:00+02:00</Time>
            <Position>
              <LatitudeDegrees>45.076705</LatitudeDegrees>
              <LongitudeDegrees>7.666957</LongitudeDegrees>
            </Position>
            <AltitudeMeters>400.1</AltitudeMeters>
            <DistanceMeters>760.7</DistanceMeters>
            <HeartRateBpm><Value>190</Value></HeartRateBpm>
            <Extensions><ns3:TPX><ns3:RunCadence>86</ns3:RunCadence></ns3:TPX></Extensions>
          </Trackpoint>
          <Trackpoint>
            <Time>2026-06-04T20:21:00+02:00</Time>
            <Position>
              <LatitudeDegrees>45.077953</LatitudeDegrees>
              <LongitudeDegrees>7.666164</LongitudeDegrees>
            </Position>
            <AltitudeMeters>428.0</AltitudeMeters>
            <DistanceMeters>912.9</DistanceMeters>
            <HeartRateBpm><Value>188</Value></HeartRateBpm>
            <Extensions><ns3:TPX><ns3:RunCadence>86</ns3:RunCadence></ns3:TPX></Extensions>
          </Trackpoint>
          <Trackpoint>
            <Time>2026-06-04T20:22:00+02:00</Time>
            <Position>
              <LatitudeDegrees>45.079263</LatitudeDegrees>
              <LongitudeDegrees>7.665603</LongitudeDegrees>
            </Position>
            <AltitudeMeters>453.6</AltitudeMeters>
            <DistanceMeters>1065.0</DistanceMeters>
            <HeartRateBpm><Value>186</Value></HeartRateBpm>
            <Extensions><ns3:TPX><ns3:RunCadence>87</ns3:RunCadence></ns3:TPX></Extensions>
          </Trackpoint>
          <Trackpoint>
            <Time>2026-06-04T20:23:00+02:00</Time>
            <Position>
              <LatitudeDegrees>45.080485</LatitudeDegrees>
              <LongitudeDegrees>7.66473</LongitudeDegrees>
            </Position>
            <AltitudeMeters>476.8</AltitudeMeters>
            <DistanceMeters>1217.2</DistanceMeters>
            <HeartRateBpm><Value>184</Value></HeartRateBpm>
            <Extensions><ns3:TPX><ns3:RunCadence>82</ns3:RunCadence></ns3:TPX></Extensions>
          </Trackpoint>
          <Trackpoint>
            <Time>2026-06-04T20:24:00+02:00</Time>
            <Position>
              <LatitudeDegrees>45.081647</LatitudeDegrees>
              <LongitudeDegrees>7.663709</LongitudeDegrees>
            </Position>
            <AltitudeMeters>497.1</AltitudeMeters>
            <DistanceMeters>1369.3</DistanceMeters>
            <HeartRateBpm><Value>180</Value></HeartRateBpm>
            <Extensions><ns3:TPX><ns3:RunCadence>87</ns3:RunCadence></ns3:TPX></Extensions>
          </Trackpoint>
          <Trackpoint>
            <Time>2026-06-04T20:25:00+02:00</Time>
            <Position>
              <LatitudeDegrees>45.082947</LatitudeDegrees>
              <LongitudeDegrees>7.663102</LongitudeDegrees>
            </Position>
            <AltitudeMeters>514.5</AltitudeMeters>
            <DistanceMeters>1521.5</DistanceMeters>
            <HeartRateBpm><Value>170</Value></HeartRateBpm>
            <Extensions><ns3:TPX><ns3:RunCadence>85</ns3:RunCadence></ns3:TPX></Extensions>
          </Trackpoint>
          <Trackpoint>
            <Time>2026-06-04T20:26:00+02:00</Time>
            <Position>
              <LatitudeDegrees>45.084194</LatitudeDegrees>
              <LongitudeDegrees>7.662306</LongitudeDegrees>
            </Position>
            <AltitudeMeters>528.6</AltitudeMeters>
            <DistanceMeters>1673.6</DistanceMeters>
            <HeartRateBpm><Value>168</Value></HeartRateBpm>
            <Extensions><ns3:TPX><ns3:RunCadence>84</ns3:RunCadence></ns3:TPX></Extensions>
          </Trackpoint>
          <Trackpoint>
            <Time>2026-06-04T20:27:00+02:00</Time>
            <Position>
              <LatitudeDegrees>45.085425</LatitudeDegrees>
              <LongitudeDegrees>7.661457</LongitudeDegrees>
            </Position>
            <AltitudeMeters>539.3</AltitudeMeters>
            <DistanceMeters>1825.8</DistanceMeters>
            <HeartRateBpm><Value>168</Value></HeartRateBpm>
            <Extensions><ns3:TPX><ns3:RunCadence>86</ns3:RunCadence></ns3:TPX></Extensions>
          </Trackpoint>
          <Trackpoint>
            <Time>2026-06-04T20:28:00+02:00</Time>
            <Position>
              <LatitudeDegrees>45.086731</LatitudeDegrees>
              <LongitudeDegrees>7.660883</LongitudeDegrees>
            </Position>
            <AltitudeMeters>546.5</AltitudeMeters>
            <DistanceMeters>1977.9</DistanceMeters>
            <HeartRateBpm><Value>159</Value></HeartRateBpm>
            <Extensions><ns3:TPX><ns3:RunCadence>87</ns3:RunCadence></ns3:TPX></Extensions>
          </Trackpoint>
          <Trackpoint>
            <Time>2026-06-04T20:29:00+02:00</Time>
            <Position>
              <LatitudeDegrees>45.088091</LatitudeDegrees>
              <LongitudeDegrees>7.660664</LongitudeDegrees>
            </Position>
            <AltitudeMeters>550.2</AltitudeMeters>
            <DistanceMeters>2130.1</DistanceMeters>
            <HeartRateBpm><Value>151</Value></HeartRateBpm>
            <Extensions><ns3:TPX><ns3:RunCadence>87</ns3:RunCadence></ns3:TPX></Extensions>
          </Trackpoint>
          <Trackpoint>
            <Time>2026-06-04T20:30:00+02:00</Time>
            <Position>
              <LatitudeDegrees>45.089459</LatitudeDegrees>
              <LongitudeDegrees>7.660624</LongitudeDegrees>
            </Position>
            <AltitudeMeters>550.2</AltitudeMeters>
            <DistanceMeters>2282.2</DistanceMeters>
            <HeartRateBpm><Value>151</Value></HeartRateBpm>
            <Extensions><ns3:TPX><ns3:RunCadence>86</ns3:RunCadence></ns3:TPX></Extensions>
          </Trackpoint>
          <Trackpoint>
            <Time>2026-06-04T20:31:00+02:00</Time>
            <Position>
              <LatitudeDegrees>45.090826</LatitudeDegrees>
              <LongitudeDegrees>7.660558</LongitudeDegrees>
            </Position>
            <AltitudeMeters>546.5</AltitudeMeters>
            <DistanceMeters>2434.4</DistanceMeters>
            <HeartRateBpm><Value>144</Value></HeartRateBpm>
            <Extensions><ns3:TPX><ns3:RunCadence>91</ns3:RunCadence></ns3:TPX></Extensions>
          </Trackpoint>
          <Trackpoint>
            <Time>2026-06-04T20:32:00+02:00</Time>
            <Position>
              <LatitudeDegrees>45.092186</LatitudeDegrees>
              <LongitudeDegrees>7.660783</LongitudeDegrees>
            </Position>
            <AltitudeMeters>539.3</AltitudeMeters>
            <DistanceMeters>2586.5</DistanceMeters>
            <HeartRateBpm><Value>141</Value></HeartRateBpm>
            <Extensions><ns3:TPX><ns3:RunCadence>84</ns3:RunCadence></ns3:TPX></Extensions>
          </Trackpoint>
          <Trackpoint>
            <Time>2026-06-04T20:33:00+02:00</Time>
            <Position>
              <LatitudeDegrees>45.093474</LatitudeDegrees>
              <LongitudeDegrees>7.661436</LongitudeDegrees>
            </Position>
            <AltitudeMeters>528.6</AltitudeMeters>
            <DistanceMeters>2738.7</DistanceMeters>
            <HeartRateBpm><Value>138</Value></HeartRateBpm>
            <Extensions><ns3:TPX><ns3:RunCadence>89</ns3:RunCadence></ns3:TPX></Extensions>
          </Trackpoint>
          <Trackpoint>
            <Time>2026-06-04T20:34:00+02:00</Time>
            <Position>
              <LatitudeDegrees>45.094756</LatitudeDegrees>
              <LongitudeDegrees>7.662112</LongitudeDegrees>
            </Position>
            <AltitudeMeters>514.5</AltitudeMeters>
            <DistanceMeters>2890.8</DistanceMeters>
            <HeartRateBpm><Value>131</Value></HeartRateBpm>
            <Extensions><ns3:TPX><ns3:RunCadence>85</ns3:RunCadence></ns3:TPX></Extensions>
          </Trackpoint>
          <Trackpoint>
            <Time>2026-06-04T20:35:00+02:00</Time>
            <Position>
              <LatitudeDegrees>45.096097</LatitudeDegrees>
              <LongitudeDegrees>7.6625</LongitudeDegrees>
            </Position>
            <AltitudeMeters>497.1</AltitudeMeters>
            <DistanceMeters>3043.0</DistanceMeters>
            <HeartRateBpm><Value>126</Value></HeartRateBpm>
            <Extensions><ns3:TPX><ns3:RunCadence>85</ns3:RunCadence></ns3:TPX></Extensions>
          </Trackpoint>
          <Trackpoint>
            <Time>2026-06-04T20:36:00+02:00</Time>
            <Position>
              <LatitudeDegrees>45.097464</LatitudeDegrees>
              <LongitudeDegrees>7.662438</LongitudeDegrees>
            </Position>
            <AltitudeMeters>476.8</AltitudeMeters>
            <DistanceMeters>3195.1</DistanceMeters>
            <HeartRateBpm><Value>122</Value></HeartRateBpm>
            <Extensions><ns3:TPX><ns3:RunCadence>85</ns3:RunCadence></ns3:TPX></Extensions>
          </Trackpoint>
          <Trackpoint>
            <Time>2026-06-04T20:37:00+02:00</Time>
            <Position>
              <LatitudeDegrees>45.098826</LatitudeDegrees>
              <LongitudeDegrees>7.662241</LongitudeDegrees>
            </Position>
            <AltitudeMeters>453.6</AltitudeMeters>
            <DistanceMeters>3347.3</DistanceMeters>
            <HeartRateBpm><Value>116</Value></HeartRateBpm>
            <Extensions><ns3:TPX><ns3:RunCadence>90</ns3:RunCadence></ns3:TPX></Extensions>
          </Trackpoint>
          <Trackpoint>
            <Time>2026-06-04T20:38:00+02:00</Time>
            <Position>
              <LatitudeDegrees>45.100122</LatitudeDegrees>
              <LongitudeDegrees>7.661621</LongitudeDegrees>
            </Position>
            <AltitudeMeters>428.0</AltitudeMeters>
            <DistanceMeters>3499.4</DistanceMeters>
            <HeartRateBpm><Value>114</Value></HeartRateBpm>
            <Extensions><ns3:TPX><ns3:RunCadence>87</ns3:RunCadence></ns3:TPX></Extensions>
          </Trackpoint>
          <Trackpoint>
            <Time>2026-06-04T20:39:00+02:00</Time>
            <Position>
              <LatitudeDegrees>45.101448</LatitudeDegrees>
              <LongitudeDegrees>7.661143</LongitudeDegrees>
            </Position>
            <AltitudeMeters>400.1</AltitudeMeters>
            <DistanceMeters>3651.6</DistanceMeters>
            <HeartRateBpm><Value>111</Value></HeartRateBpm>
            <Extensions><ns3:TPX><ns3:RunCadence>86</ns3:RunCadence></ns3:TPX></Extensions>
          </Trackpoint>
          <Trackpoint>
            <Time>2026-06-04T20:40:00+02:00</Time>
            <Position>
              <LatitudeDegrees>45.10275</LatitudeDegrees>
              <LongitudeDegrees>7.660546</LongitudeDegrees>
            </Position>
            <AltitudeMeters>370.4</AltitudeMeters>
            <DistanceMeters>3803.7</DistanceMeters>
            <HeartRateBpm><Value>109</Value></HeartRateBpm>
            <Extensions><ns3:TPX><ns3:RunCadence>88</ns3:RunCadence></ns3:TPX></Extensions>
          </Trackpoint>
          <Trackpoint>
            <Time>2026-06-04T20:41:00+02:00</Time>
            <Position>
              <LatitudeDegrees>45.104099</LatitudeDegrees>
              <LongitudeDegrees>7.660221</LongitudeDegrees>
            </Position>
            <AltitudeMeters>339.2</AltitudeMeters>
            <DistanceMeters>3955.9</DistanceMeters>
            <HeartRateBpm><Value>112</Value></HeartRateBpm>
            <Extensions><ns3:TPX><ns3:RunCadence>88</ns3:RunCadence></ns3:TPX></Extensions>
          </Trackpoint>
          <Trackpoint>
            <Time>2026-06-04T20:42:00+02:00</Time>
            <Position>
              <LatitudeDegrees>45.105453</LatitudeDegrees>
              <LongitudeDegrees>7.659942</LongitudeDegrees>
            </Position>
            <AltitudeMeters>306.8</AltitudeMeters>
            <DistanceMeters>4108.0</DistanceMeters>
            <HeartRateBpm><Value>107</Value></HeartRateBpm>
            <Extensions><ns3:TPX><ns3:RunCadence>93</ns3:RunCadence></ns3:TPX></Extensions>
          </Trackpoint>
          <Trackpoint>
            <Time>2026-06-04T20:43:00+02:00</Time>
            <Position>
              <LatitudeDegrees>45.106748</LatitudeDegrees>
              <LongitudeDegrees>7.659314</LongitudeDegrees>
            </Position>
            <AltitudeMeters>273.6</AltitudeMeters>
            <DistanceMeters>4260.2</DistanceMeters>
            <HeartRateBpm><Value>106</Value></HeartRateBpm>
            <Extensions><ns3:TPX><ns3:RunCadence>86</ns3:RunCadence></ns3:TPX></Extensions>
          </Trackpoint>
          <Trackpoint>
            <Time>2026-06-04T20:44:00+02:00</Time>
            <Position>
              <LatitudeDegrees>45.108076</LatitudeDegrees>
              <LongitudeDegrees>7.658847</LongitudeDegrees>
            </Position>
            <AltitudeMeters>240.0</AltitudeMeters>
            <DistanceMeters>4412.3</DistanceMeters>
            <HeartRateBpm><Value>101</Value></HeartRateBpm>
            <Extensions><ns3:TPX><ns3:RunCadence>87</ns3:RunCadence></ns3:TPX></Extensions>
          </Trackpoint>
        </Track>
      </Lap>
      <Creator xsi:type="Device_t">
        <Name>Garmin Edge 530</Name>
      </Creator>
    </Activity>
  </Activities>
  <Author xsi:type="Application_t"><Name>Garmin Connect</Name></Author>
</TrainingCenterDatabase>
