<?xml version="1.0" encoding="UTF-8"?>
<TrainingCenterDatabase xmlns="http://www.garmin.com/xmlschemas/TrainingCenterDatabase/v2" xmlns:ns3="http://www.garmin.com/xmlschemas/ActivityExtension/v2" xmlns:xsi="http://www.w3.org/2001/XMLSchema-instance">
  <Activities>
    <Activity Sport="Biking">
      <Id>2026-06-20T09:15:00Z</Id>
      <Lap StartTime="2026-06-20T09:15:00Z">
        <TotalTimeSeconds>2700.0</TotalTimeSeconds>
        <DistanceMeters>16296.4</DistanceMeters>
        <Calories>487</Calories>
        <AverageHeartRateBpm><Value>134</Value></AverageHeartRateBpm>
        <MaximumHeartRateBpm><Value>149</Value></MaximumHeartRateBpm>
        <Intensity>Active</Intensity>
        <Notes>Commute</Notes>
        <Track>
          <Trackpoint>
            <Time>2026-06-20T09:15:00Z</Time>
            <Position>
              <LatitudeDegrees>45.059302</LatitudeDegrees>
              <LongitudeDegrees>7.677089</LongitudeDegrees>
            </Position>
            <AltitudeMeters>240.0</AltitudeMeters>
            <DistanceMeters>0.0</DistanceMeters>
            <HeartRateBpm><Value>80</Value></HeartRateBpm>
            <Cadence>88</Cadence>
          </Trackpoint>
          <Trackpoint>
            <Time>2026-06-20T09:16:00Z</Time>
            <Position>
              <LatitudeDegrees>45.056074</LatitudeDegrees>
              <LongitudeDegrees>7.675337</LongitudeDegrees>
            </Position>
            <AltitudeMeters>272.4</AltitudeMeters>
            <DistanceMeters>384.5</DistanceMeters>
            <HeartRateBpm><Value>118</Value></HeartRateBpm>
            <Cadence>90</Cadence>
          </Trackpoint>
          <Trackpoint>
            <Time>2026-06-20T09:17:00Z</Time>
            <Position>
              <LatitudeDegrees>45.054566</LatitudeDegrees>
              <LongitudeDegrees>7.674654</LongitudeDegrees>
            </Position>
            <AltitudeMeters>287.2</AltitudeMeters>
            <DistanceMeters>560.5</DistanceMeters>
            <HeartRateBpm><Value>134</Value></HeartRateBpm>
            <Cadence>85</Cadence>
          </Trackpoint>
          <Trackpoint>
            <Time>2026-06-20T09:18:00Z</Time>
            <Position>
              <LatitudeDegrees>45.051854</LatitudeDegrees>
              <LongitudeDegrees>7.673646</LongitudeDegrees>
            </Position>
            <AltitudeMeters>313.3</AltitudeMeters>
            <DistanceMeters>872.3</DistanceMeters>
            <HeartRateBpm><Value>144</Value></HeartRateBpm>
            <Cadence>83</Cadence>
          </Trackpoint>
          <Trackpoint>
            <Time>2026-06-20T09:19:00Z</Time>
            <Position>
              <LatitudeDegrees>45.050111</LatitudeDegrees>
              <LongitudeDegrees>7.672911</LongitudeDegrees>
            </Position>
            <AltitudeMeters>330.1</AltitudeMeters>
            <DistanceMeters>1074.5</DistanceMeters>
            <HeartRateBpm><Value>144</Value></HeartRateBpm>
            <Cadence>86</Cadence>
          </Trackpoint>
          <Trackpoint>
            <Time>2026-06-20T09:20:00Z</Time>
            <Position>
              <LatitudeDegrees>45.047535</LatitudeDegrees>
              <LongitudeDegrees>7.672441</LongitudeDegrees>
            </Position>
            <AltitudeMeters>353.9</AltitudeMeters>
            <DistanceMeters>1363.3</DistanceMeters>
            <HeartRateBpm><Value>146</Value></HeartRateBpm>
            <Cadence>80</Cadence>
          </Trackpoint>
          <Trackpoint>
            <Time>2026-06-20T09:21:00Z</Time>
            <Position>
              <LatitudeDegrees>45.045554</LatitudeDegrees>
              <LongitudeDegrees>7.671942</LongitudeDegrees>
            </Position>
            <AltitudeMeters>372.1</AltitudeMeters>
            <DistanceMeters>1587.0</DistanceMeters>
            <HeartRateBpm><Value>145</Value></HeartRateBpm>
            <Cadence>81</Cadence>
          </Trackpoint>
          <Trackpoint>
            <Time>2026-06-20T09:22:00Z</Time>
            <Position>
              <LatitudeDegrees>45.043222</LatitudeDegrees>
              <LongitudeDegrees>7.670836</LongitudeDegrees>
            </Position>
            <AltitudeMeters>394.1</AltitudeMeters>
            <DistanceMeters>1860.6</DistanceMeters>
            <HeartRateBpm><Value>145</Value></HeartRateBpm>
            <Cadence>92</Cadence>
          </Trackpoint>
          <Trackpoint>
            <Time>2026-06-20T09:23:00Z</Time>
            <Position>
              <LatitudeDegrees>45.041231</LatitudeDegrees>
              <LongitudeDegrees>7.67084</LongitudeDegrees>
            </Position>
            <AltitudeMeters>411.7</AltitudeMeters>
            <DistanceMeters>2082.0</DistanceMeters>
            <HeartRateBpm><Value>146</Value></HeartRateBpm>
            <Cadence>87</Cadence>
          </Trackpoint>
          <Trackpoint>
            <Time>2026-06-20T09:24:00Z</Time>
            <Position>
              <LatitudeDegrees>45.038891</LatitudeDegrees>
              <LongitudeDegrees>7.670952</LongitudeDegrees>
            </Position>
            <AltitudeMeters>432.0</AltitudeMeters>
            <DistanceMeters>2342.3</DistanceMeters>
            <HeartRateBpm><Value>145</Value></HeartRateBpm>
            <Cadence>81</Cadence>
          </Trackpoint>
          <Trackpoint>
            <Time>2026-06-20T09:25:00Z</Time>
            <Position>
              <LatitudeDegrees>45.036978</LatitudeDegrees>
              <LongitudeDegrees>7.670908</LongitudeDegrees>
            </Position>
            <AltitudeMeters>448.2</AltitudeMeters>
            <DistanceMeters>2555.0</DistanceMeters>
            <HeartRateBpm><Value>141</Value></HeartRateBpm>
            <Cadence>81</Cadence>
          </Trackpoint>
          <Trackpoint>
            <Time>2026-06-20T09:26:00Z</Time>
            <Position>
              <LatitudeDegrees>45.034556</LatitudeDegrees>
              <LongitudeDegrees>7.669906</LongitudeDegrees>
            </Position>
            <AltitudeMeters>469.3</AltitudeMeters>
            <DistanceMeters>2835.6</DistanceMeters>
            <HeartRateBpm><Value>146</Value></HeartRateBpm>
            <Cadence>84</Cadence>
          </Trackpoint>
          <Trackpoint>
            <Time>2026-06-20T09:27:00Z</Time>
            <Position>
              <LatitudeDegrees>45.032477</LatitudeDegrees>
              <LongitudeDegrees>7.668713</LongitudeDegrees>
            </Position>
            <AltitudeMeters>487.5</AltitudeMeters>
            <DistanceMeters>3085.1</DistanceMeters>
            <HeartRateBpm><Value>145</Value></HeartRateBpm>
            <Cadence>99</Cadence>
          </Trackpoint>
          <Trackpoint>
            <Time>2026-06-20T09:28:00Z</Time>
            <Position>
              <LatitudeDegrees>45.030407</LatitudeDegrees>
              <LongitudeDegrees>7.666693</LongitudeDegrees>
            </Position>
            <AltitudeMeters>507.3</AltitudeMeters>
            <DistanceMeters>3364.7</DistanceMeters>
            <HeartRateBpm><Value>141</Value></HeartRateBpm>
            <Cadence>87</Cadence>
          </Trackpoint>
          <Trackpoint>
            <Time>2026-06-20T09:29:00Z</Time>
            <Position>
              <LatitudeDegrees>45.028591</LatitudeDegrees>
              <LongitudeDegrees>7.664813</LongitudeDegrees>
            </Position>
            <AltitudeMeters>524.4</AltitudeMeters>
            <DistanceMeters>3614.9</DistanceMeters>
            <HeartRateBpm><Value>144</Value></HeartRateBpm>
            <Cadence>86</Cadence>
          </Trackpoint>
          <Trackpoint>
            <Time>2026-06-20T09:30:00Z</Time>
            <Position>
              <LatitudeDegrees>45.027084</LatitudeDegrees>
              <LongitudeDegrees>7.661641</LongitudeDegrees>
            </Position>
            <AltitudeMeters>544.3</AltitudeMeters>
            <DistanceMeters>3915.3</DistanceMeters>
            <HeartRateBpm><Value>149</Value></HeartRateBpm>
            <Cadence>77</Cadence>
          </Trackpoint>
          <Trackpoint>
            <Time>2026-06-20T09:31:00Z</Time>
            <Position>
              <LatitudeDegrees>45.026123</LatitudeDegrees>
              <LongitudeDegrees>7.658611</LongitudeDegrees>
            </Position>
            <AltitudeMeters>560.9</AltitudeMeters>
            <DistanceMeters>4176.3</DistanceMeters>
            <HeartRateBpm><Value>147</Value></HeartRateBpm>
            <Cadence>87</Cadence>
          </Trackpoint>
          <Trackpoint>
            <Time>2026-06-20T09:32:00Z</Time>
            <Position>
              <LatitudeDegrees>45.024956</LatitudeDegrees>
              <LongitudeDegrees>7.655734</LongitudeDegrees>
            </Position>
            <AltitudeMeters>576.7</AltitudeMeters>
            <DistanceMeters>4437.0</DistanceMeters>
            <HeartRateBpm><Value>146</Value></HeartRateBpm>
            <Cadence>92</Cadence>
          </Trackpoint>
          <Trackpoint>
            <Time>2026-06-20T09:33:00Z</Time>
            <Position>
              <LatitudeDegrees>45.023063</LatitudeDegrees>
              <LongitudeDegrees>7.653036</LongitudeDegrees>
            </Position>
            <AltitudeMeters>594.0</AltitudeMeters>
            <DistanceMeters>4735.7</DistanceMeters>
            <HeartRateBpm><Value>145</Value></HeartRateBpm>
            <Cadence>83</Cadence>
          </Trackpoint>
          <Trackpoint>
            <Time>2026-06-20T09:34:00Z</Time>
            <Position>
              <LatitudeDegrees>45.021</LatitudeDegrees>
              <LongitudeDegrees>7.650781</LongitudeDegrees>
            </Position>
            <AltitudeMeters>609.8</AltitudeMeters>
            <DistanceMeters>5025.6</DistanceMeters>
            <HeartRateBpm><Value>143</Value></HeartRateBpm>
            <Cadence>85</Cadence>
          </Trackpoint>
          <Trackpoint>
            <Time>2026-06-20T09:35:00Z</Time>
            <Position>
              <LatitudeDegrees>45.019016</LatitudeDegrees>
              <LongitudeDegrees>7.648342</LongitudeDegrees>
            </Position>
            <AltitudeMeters>624.8</AltitudeMeters>
            <DistanceMeters>5317.9</DistanceMeters>
            <HeartRateBpm><Value>142</Value></HeartRateBpm>
            <Cadence>77</Cadence>
          </Trackpoint>
          <Trackpoint>
            <Time>2026-06-20T09:36:00Z</Time>
            <Position>
              <LatitudeDegrees>45.016812</LatitudeDegrees>
              <LongitudeDegrees>7.646335</LongitudeDegrees>
            </Position>
            <AltitudeMeters>638.7</AltitudeMeters>
            <DistanceMeters>5609.3</DistanceMeters>
            <HeartRateBpm><Value>141</Value></HeartRateBpm>
            <Cadence>95</Cadence>
          </Trackpoint>
          <Trackpoint>
            <Time>2026-06-20T09:37:00Z</Time>
            <Position>
              <LatitudeDegrees>45.014359</LatitudeDegrees>
              <LongitudeDegrees>7.644775</LongitudeDegrees>
            </Position>
            <AltitudeMeters>651.8</AltitudeMeters>
            <DistanceMeters>5908.4</DistanceMeters>
            <HeartRateBpm><Value>140</Value></HeartRateBpm>
            <Cadence>81</Cadence>
          </Trackpoint>
          <Trackpoint>
            <Time>2026-06-20T09:38:00Z</Time>
            <Position>
              <LatitudeDegrees>45.011711</LatitudeDegrees>
              <LongitudeDegrees>7.643384</LongitudeDegrees>
            </Position>
            <AltitudeMeters>664.3</AltitudeMeters>
            <DistanceMeters>6222.5</DistanceMeters>
            <HeartRateBpm><Value>145</Value></HeartRateBpm>
            <Cadence>73</Cadence>
          </Trackpoint>
          <Trackpoint>
            <Time>2026-06-20T09:39:00Z</Time>
            <Position>
              <LatitudeDegrees>45.009331</LatitudeDegrees>
              <LongitudeDegrees>7.641872</LongitudeDegrees>
            </Position>
            <AltitudeMeters>674.7</AltitudeMeters>
            <DistanceMeters>6512.6</DistanceMeters>
            <HeartRateBpm><Value>141</Value></HeartRateBpm>
            <Cadence>72</Cadence>
          </Trackpoint>
          <Trackpoint>
            <Time>2026-06-20T09:40:00Z</Time>
            <Position>
              <LatitudeDegrees>45.006686</LatitudeDegrees>
              <LongitudeDegrees>7.63994</LongitudeDegrees>
            </Position>
            <AltitudeMeters>685.2</AltitudeMeters>
            <DistanceMeters>6843.6</DistanceMeters>
            <HeartRateBpm><Value>137</Value></HeartRateBpm>
            <Cadence>79</Cadence>
          </Trackpoint>
          <Trackpoint>
            <Time>2026-06-20T09:41:00Z</Time>
            <Position>
              <LatitudeDegrees>45.004436</LatitudeDegrees>
              <LongitudeDegrees>7.63861</LongitudeDegrees>
            </Position>
            <AltitudeMeters>692.6</AltitudeMeters>
            <DistanceMeters>7114.8</DistanceMeters>
            <HeartRateBpm><Value>138</Value></HeartRateBpm>
            <Cadence>74</Cadence>
          </Trackpoint>
          <Trackpoint>
            <Time>2026-06-20T09:42:00Z</Time>
            <Position>
              <LatitudeDegrees>45.001481</LatitudeDegrees>
              <LongitudeDegrees>7.637466</LongitudeDegrees>
            </Position>
            <AltitudeMeters>700.4</AltitudeMeters>
            <DistanceMeters>7455.4</DistanceMeters>
            <HeartRateBpm><Value>141</Value></HeartRateBpm>
            <Cadence>89</Cadence>
          </Trackpoint>
          <Trackpoint>
            <Time>2026-06-20T09:43:00Z</Time>
            <Position>
              <LatitudeDegrees>44.998083</LatitudeDegrees>
              <LongitudeDegrees>7.636249</LongitudeDegrees>
            </Position>
            <AltitudeMeters>707.3</AltitudeMeters>
            <DistanceMeters>7845.2</DistanceMeters>
            <HeartRateBpm><Value>139</Value></HeartRateBpm>
            <Cadence>74</Cadence>
          </Trackpoint>
          <Trackpoint>
            <Time>2026-06-20T09:44:00Z</Time>
            <Position>
              <LatitudeDegrees>44.995185</LatitudeDegrees>
              <LongitudeDegrees>7.634668</LongitudeDegrees>
            </Position>
            <AltitudeMeters>711.6</AltitudeMeters>
            <DistanceMeters>8190.6</DistanceMeters>
            <HeartRateBpm><Value>143</Value></HeartRateBpm>
            <Cadence>85</Cadence>
          </Trackpoint>
          <Trackpoint>
            <Time>2026-06-20T09:45:00Z</Time>
            <Position>
              <LatitudeDegrees>44.991862</LatitudeDegrees>
              <LongitudeDegrees>7.633504</LongitudeDegrees>
            </Position>
            <AltitudeMeters>714.2</AltitudeMeters>
            <DistanceMeters>8571.3</DistanceMeters>
            <HeartRateBpm><Value>136</Value></HeartRateBpm>
            <Cadence>93</Cadence>
          </Trackpoint>
          <Trackpoint>
            <Time>2026-06-20T09:46:00Z</Time>
            <Position>
              <LatitudeDegrees>44.988877</LatitudeDegrees>
              <LongitudeDegrees>7.632092</LongitudeDegrees>
            </Position>
            <AltitudeMeters>714.6</AltitudeMeters>
            <DistanceMeters>8921.2</DistanceMeters>
            <HeartRateBpm><Value>133</Value></HeartRateBpm>
            <Cadence>72</Cadence>
          </Trackpoint>
          <Trackpoint>
            <Time>2026-06-20T09:47:00Z</Time>
            <Position>
              <LatitudeDegrees>44.985847</LatitudeDegrees>
              <LongitudeDegrees>7.630323</LongitudeDegrees>
            </Position>
            <AltitudeMeters>713.2</AltitudeMeters>
            <DistanceMeters>9285.8</DistanceMeters>
            <HeartRateBpm><Value>134</Value></HeartRateBpm>
            <Cadence>85</Cadence>
          </Trackpoint>
          <Trackpoint>
            <Time>2026-06-20T09:48:00Z</Time>
            <Position>
              <LatitudeDegrees>44.982229</LatitudeDegrees>
              <LongitudeDegrees>7.629056</LongitudeDegrees>
            </Position>
            <AltitudeMeters>709.1</AltitudeMeters>
            <DistanceMeters>9700.2</DistanceMeters>
            <HeartRateBpm><Value>134</Value></HeartRateBpm>
            <Cadence>79</Cadence>
          </Trackpoint>
          <Trackpoint>
            <Time>2026-06-20T09:49:00Z</Time>
            <Position>
              <LatitudeDegrees>44.978616</LatitudeDegrees>
              <LongitudeDegrees>7.627915</LongitudeDegrees>
            </Position>
            <AltitudeMeters>702.6</AltitudeMeters>
            <DistanceMeters>10111.9</DistanceMeters>
            <HeartRateBpm><Value>135</Value></HeartRateBpm>
            <Cadence>83</Cadence>
          </Trackpoint>
          <Trackpoint>
            <Time>2026-06-20T09:50:00Z</Time>
            <Position>
              <LatitudeDegrees>44.97525</LatitudeDegrees>
              <LongitudeDegrees>7.626272</LongitudeDegrees>
            </Position>
            <AltitudeMeters>693.9</AltitudeMeters>
            <DistanceMeters>10507.9</DistanceMeters>
            <HeartRateBpm><Value>129</Value></HeartRateBpm>
            <Cadence>87</Cadence>
          </Trackpoint>
          <Trackpoint>
            <Time>2026-06-20T09:51:00Z</Time>
            <Position>
              <LatitudeDegrees>44.971329</LatitudeDegrees>
              <LongitudeDegrees>7.624683</LongitudeDegrees>
            </Position>
            <AltitudeMeters>681.3</AltitudeMeters>
            <DistanceMeters>10961.4</DistanceMeters>
            <HeartRateBpm><Value>126</Value></HeartRateBpm>
            <Cadence>73</Cadence>
          </Trackpoint>
          <Trackpoint>
            <Time>2026-06-20T09:52:00Z</Time>
            <Position>
              <LatitudeDegrees>44.967048</LatitudeDegrees>
              <LongitudeDegrees>7.623345</LongitudeDegrees>
            </Position>
            <AltitudeMeters>664.5</AltitudeMeters>
            <DistanceMeters>11448.9</DistanceMeters>
            <HeartRateBpm><Value>127</Value></HeartRateBpm>
            <Cadence>91</Cadence>
          </Trackpoint>
          <Trackpoint>
            <Time>2026-06-20T09:53:00Z</Time>
            <Position>
              <LatitudeDegrees>44.962246</LatitudeDegrees>
              <LongitudeDegrees>7.622853</LongitudeDegrees>
            </Position>
            <AltitudeMeters>642.3</AltitudeMeters>
            <DistanceMeters>11984.3</DistanceMeters>
            <HeartRateBpm><Value>123</Value></HeartRateBpm>
            <Cadence>87</Cadence>
          </Trackpoint>
          <Trackpoint>
            <Time>2026-06-20T09:54:00Z</Time>
            <Position>
              <LatitudeDegrees>44.9575</LatitudeDegrees>
              <LongitudeDegrees>7.62205</LongitudeDegrees>
            </Position>
            <AltitudeMeters>616.8</AltitudeMeters>
            <DistanceMeters>12515.8</DistanceMeters>
            <HeartRateBpm><Value>124</Value></HeartRateBpm>
            <Cadence>75</Cadence>
          </Trackpoint>
          <Trackpoint>
            <Time>2026-06-20T09:55:00Z</Time>
            <Position>
              <LatitudeDegrees>44.952628</LatitudeDegrees>
              <LongitudeDegrees>7.621131</LongitudeDegrees>
            </Position>
            <AltitudeMeters>587.0</AltitudeMeters>
            <DistanceMeters>13062.3</DistanceMeters>
            <HeartRateBpm><Value>121</Value></HeartRateBpm>
            <Cadence>78</Cadence>
          </Trackpoint>
          <Trackpoint>
            <Time>2026-06-20T09:56:00Z</Time>
            <Position>
              <LatitudeDegrees>44.947168</LatitudeDegrees>
              <LongitudeDegrees>7.62167</LongitudeDegrees>
            </Position>
            <AltitudeMeters>550.0</AltitudeMeters>
            <DistanceMeters>13670.9</DistanceMeters>
            <HeartRateBpm><Value>114</Value></HeartRateBpm>
            <Cadence>85</Cadence>
          </Trackpoint>
          <Trackpoint>
            <Time>2026-06-20T09:57:00Z</Time>
            <Position>
              <LatitudeDegrees>44.941442</LatitudeDegrees>
              <LongitudeDegrees>7.622843</LongitudeDegrees>
            </Position>
            <AltitudeMeters>507.0</AltitudeMeters>
            <DistanceMeters>14314.4</DistanceMeters>
            <HeartRateBpm><Value>113</Value></HeartRateBpm>
            <Cadence>88</Cadence>
          </Trackpoint>
          <Trackpoint>
            <Time>2026-06-20T09:58:00Z</Time>
            <Position>
              <LatitudeDegrees>44.93571</LatitudeDegrees>
              <LongitudeDegrees>7.621224</LongitudeDegrees>
            </Position>
            <AltitudeMeters>459.9</AltitudeMeters>
            <DistanceMeters>14964.3</DistanceMeters>
            <HeartRateBpm><Value>113</Value></HeartRateBpm>
            <Cadence>84</Cadence>
          </Trackpoint>
          <Trackpoint>
            <Time>2026-06-20T09:59:00Z</Time>
            <Position>
              <LatitudeDegrees>44.929707</LatitudeDegrees>
              <LongitudeDegrees>7.620308</LongitudeDegrees>
            </Position>
            <AltitudeMeters>408.3</AltitudeMeters>
            <DistanceMeters>15635.6</DistanceMeters>
            <HeartRateBpm><Value>108</Value></HeartRateBpm>
            <Cadence>84</Cadence>
          </Trackpoint>
          <Trackpoint>
            <Time>2026-06-20T10:00:00Z</Time>
            <Position>
              <LatitudeDegrees>44.923794</LatitudeDegrees>
              <LongitudeDegrees>7.61949</LongitudeDegrees>
            </Position>
            <AltitudeMeters>355.1</AltitudeMeters>
            <DistanceMeters>16296.4</DistanceMeters>
            <HeartRateBpm><Value>107</Value></HeartRateBpm>
            <Cadence>87</Cadence>
          </Trackpoint>
        </Track>
      </Lap>
      <Creator xsi:type="Device_t">
        <Name>Garmin Edge 530</Name>
      </Creator>
    </Activity>
  </Activities>
  <Author xsi:type="Application_t"><Name>Garmin Connect</Name></Author>
</TrainingCenterDatabase>
