<?xml version="1.0" encoding="UTF-8"?>
<TrainingCenterDatabase xmlns="http://www.garmin.com/xmlschemas/TrainingCenterDatabase/v2" xmlns:ns3="http://www.garmin.com/xmlschemas/ActivityExtension/v2" xmlns:xsi="http://www.w3.org/2001/XMLSchema-instance">
  <Activities>
    <Activity Sport="Biking">
      <Id>2026-05-31T09:45:00Z</Id>
      <Lap StartTime="2026-05-31T09:45:00Z">
        <TotalTimeSeconds>5580.0</TotalTimeSeconds>
        <DistanceMeters>33827.0</DistanceMeters>
        <Calories>1266</Calories>
        <AverageHeartRateBpm><Value>134</Value></AverageHeartRateBpm>
        <MaximumHeartRateBpm><Value>141</Value></MaximumHeartRateBpm>
        <Intensity>Active</Intensity>
        <Notes>Commute</Notes>
        <Track>
          <Trackpoint>
            <Time>2026-05-31T09:45:00Z</Time>
            <Position>
              <LatitudeDegrees>45.069394</LatitudeDegrees>
              <LongitudeDegrees>7.667303</LongitudeDegrees>
            </Position>
            <AltitudeMeters>240.0</AltitudeMeters>
            <DistanceMeters>0.0</DistanceMeters>
            <HeartRateBpm><Value>80</Value></HeartRateBpm>
            <Cadence>85</Cadence>
          </Trackpoint>
          <Trackpoint>
            <Time>2026-05-31T09:46:00Z</Time>
            <Position>
              <LatitudeDegrees>45.072495</LatitudeDegrees>
              <LongitudeDegrees>7.665831</LongitudeDegrees>
            </Position>
            <AltitudeMeters>241.8</AltitudeMeters>
            <DistanceMeters>363.7</DistanceMeters>
            <HeartRateBpm><Value>95</Value></HeartRateBpm>
            <Cadence>87</Cadence>
          </Trackpoint>
          <Trackpoint>
            <Time>2026-05-31T09:47:00Z</Time>
            <Position>
              <LatitudeDegrees>45.075605</LatitudeDegrees>
              <LongitudeDegrees>7.664393</LongitudeDegrees>
            </Position>
            <AltitudeMeters>243.7</AltitudeMeters>
            <DistanceMeters>727.5</DistanceMeters>
            <HeartRateBpm><Value>123</Value></HeartRateBpm>
            <Cadence>92</Cadence>
          </Trackpoint>
          <Trackpoint>
            <Time>2026-05-31T09:48:00Z</Time>
            <Position>
              <LatitudeDegrees>45.078417</LatitudeDegrees>
              <LongitudeDegrees>7.662027</LongitudeDegrees>
            </Position>
            <AltitudeMeters>245.5</AltitudeMeters>
            <DistanceMeters>1091.2</DistanceMeters>
            <HeartRateBpm><Value>131</Value></HeartRateBpm>
            <Cadence>79</Cadence>
          </Trackpoint>
          <Trackpoint>
            <Time>2026-05-31T09:49:00Z</Time>
            <Position>
              <LatitudeDegrees>45.081092</LatitudeDegrees>
              <LongitudeDegrees>7.659361</LongitudeDegrees>
            </Position>
            <AltitudeMeters>247.3</AltitudeMeters>
            <DistanceMeters>1454.9</DistanceMeters>
            <HeartRateBpm><Value>136</Value></HeartRateBpm>
            <Cadence>82</Cadence>
          </Trackpoint>
          <Trackpoint>
            <Time>2026-05-31T09:50:00Z</Time>
            <Position>
              <LatitudeDegrees>45.083679</LatitudeDegrees>
              <LongitudeDegrees>7.656525</LongitudeDegrees>
            </Position>
            <AltitudeMeters>249.1</AltitudeMeters>
            <DistanceMeters>1818.7</DistanceMeters>
            <HeartRateBpm><Value>133</Value></HeartRateBpm>
            <Cadence>70</Cadence>
          </Trackpoint>
          <Trackpoint>
            <Time>2026-05-31T09:51:00Z</Time>
            <Position>
              <LatitudeDegrees>45.086599</LatitudeDegrees>
              <LongitudeDegrees>7.654439</LongitudeDegrees>
            </Position>
            <AltitudeMeters>250.9</AltitudeMeters>
            <DistanceMeters>2182.4</DistanceMeters>
            <HeartRateBpm><Value>134</Value></HeartRateBpm>
            <Cadence>80</Cadence>
          </Trackpoint>
          <Trackpoint>
            <Time>2026-05-31T09:52:00Z</Time>
            <Position>
              <LatitudeDegrees>45.089573</LatitudeDegrees>
              <LongitudeDegrees>7.652509</LongitudeDegrees>
            </Position>
            <AltitudeMeters>252.7</AltitudeMeters>
            <DistanceMeters>2546.1</DistanceMeters>
            <HeartRateBpm><Value>134</Value></HeartRateBpm>
            <Cadence>78</Cadence>
          </Trackpoint>
          <Trackpoint>
            <Time>2026-05-31T09:53:00Z</Time>
            <Position>
              <LatitudeDegrees>45.092405</LatitudeDegrees>
              <LongitudeDegrees>7.65019</LongitudeDegrees>
            </Position>
            <AltitudeMeters>254.5</AltitudeMeters>
            <DistanceMeters>2909.8</DistanceMeters>
            <HeartRateBpm><Value>133</Value></HeartRateBpm>
            <Cadence>75</Cadence>
          </Trackpoint>
          <Trackpoint>
            <Time>2026-05-31T09:54:00Z</Time>
            <Position>
              <LatitudeDegrees>45.095233</LatitudeDegrees>
              <LongitudeDegrees>7.647862</LongitudeDegrees>
            </Position>
            <AltitudeMeters>256.3</AltitudeMeters>
            <DistanceMeters>3273.6</DistanceMeters>
            <HeartRateBpm><Value>133</Value></HeartRateBpm>
            <Cadence>82</Cadence>
          </Trackpoint>
          <Trackpoint>
            <Time>2026-05-31T09:55:00Z</Time>
            <Position>
              <LatitudeDegrees>45.097894</LatitudeDegrees>
              <LongitudeDegrees>7.645167</LongitudeDegrees>
            </Position>
            <AltitudeMeters>258.0</AltitudeMeters>
            <DistanceMeters>3637.3</DistanceMeters>
            <HeartRateBpm><Value>130</Value></HeartRateBpm>
            <Cadence>89</Cadence>
          </Trackpoint>
          <Trackpoint>
            <Time>2026-05-31T09:56:00Z</Time>
            <Position>
              <LatitudeDegrees>45.100086</LatitudeDegrees>
              <LongitudeDegrees>7.641727</LongitudeDegrees>
            </Position>
            <AltitudeMeters>259.7</AltitudeMeters>
            <DistanceMeters>4001.0</DistanceMeters>
            <HeartRateBpm><Value>132</Value></HeartRateBpm>
            <Cadence>79</Cadence>
          </Trackpoint>
          <Trackpoint>
            <Time>2026-05-31T09:57:00Z</Time>
            <Position>
              <LatitudeDegrees>45.102315</LatitudeDegrees>
              <LongitudeDegrees>7.638336</LongitudeDegrees>
            </Position>
            <AltitudeMeters>261.4</AltitudeMeters>
            <DistanceMeters>4364.8</DistanceMeters>
            <HeartRateBpm><Value>135</Value></HeartRateBpm>
            <Cadence>84</Cadence>
          </Trackpoint>
          <Trackpoint>
            <Time>2026-05-31T09:58:00Z</Time>
            <Position>
              <LatitudeDegrees>45.104903</LatitudeDegrees>
              <LongitudeDegrees>7.635501</LongitudeDegrees>
            </Position>
            <AltitudeMeters>263.1</AltitudeMeters>
            <DistanceMeters>4728.5</DistanceMeters>
            <HeartRateBpm><Value>135</Value></HeartRateBpm>
            <Cadence>84</Cadence>
          </Trackpoint>
          <Trackpoint>
            <Time>2026-05-31T09:59:00Z</Time>
            <Position>
              <LatitudeDegrees>45.107299</LatitudeDegrees>
              <LongitudeDegrees>7.632346</LongitudeDegrees>
            </Position>
            <AltitudeMeters>264.8</AltitudeMeters>
            <DistanceMeters>5092.2</DistanceMeters>
            <HeartRateBpm><Value>131</Value></HeartRateBpm>
            <Cadence>89</Cadence>
          </Trackpoint>
          <Trackpoint>
            <Time>2026-05-31T10:00:00Z</Time>
            <Position>
              <LatitudeDegrees>45.109581</LatitudeDegrees>
              <LongitudeDegrees>7.629026</LongitudeDegrees>
            </Position>
            <AltitudeMeters>266.4</AltitudeMeters>
            <DistanceMeters>5456.0</DistanceMeters>
            <HeartRateBpm><Value>136</Value></HeartRateBpm>
            <Cadence>80</Cadence>
          </Trackpoint>
          <Trackpoint>
            <Time>2026-05-31T10:01:00Z</Time>
            <Position>
              <LatitudeDegrees>45.111962</LatitudeDegrees>
              <LongitudeDegrees>7.625847</LongitudeDegrees>
            </Position>
            <AltitudeMeters>268.0</AltitudeMeters>
            <DistanceMeters>5819.7</DistanceMeters>
            <HeartRateBpm><Value>134</Value></HeartRateBpm>
            <Cadence>84</Cadence>
          </Trackpoint>
          <Trackpoint>
            <Time>2026-05-31T10:02:00Z</Time>
            <Position>
              <LatitudeDegrees>45.114027</LatitudeDegrees>
              <LongitudeDegrees>7.622252</LongitudeDegrees>
            </Position>
            <AltitudeMeters>269.5</AltitudeMeters>
            <DistanceMeters>6183.4</DistanceMeters>
            <HeartRateBpm><Value>134</Value></HeartRateBpm>
            <Cadence>94</Cadence>
          </Trackpoint>
          <Trackpoint>
            <Time>2026-05-31T10:03:00Z</Time>
            <Position>
              <LatitudeDegrees>45.116289</LatitudeDegrees>
              <LongitudeDegrees>7.618904</LongitudeDegrees>
            </Position>
            <AltitudeMeters>271.1</AltitudeMeters>
            <DistanceMeters>6547.2</DistanceMeters>
            <HeartRateBpm><Value>134</Value></HeartRateBpm>
            <Cadence>81</Cadence>
          </Trackpoint>
          <Trackpoint>
            <Time>2026-05-31T10:04:00Z</Time>
            <Position>
              <LatitudeDegrees>45.118422</LatitudeDegrees>
              <LongitudeDegrees>7.615389</LongitudeDegrees>
            </Position>
            <AltitudeMeters>272.6</AltitudeMeters>
            <DistanceMeters>6910.9</DistanceMeters>
            <HeartRateBpm><Value>135</Value></HeartRateBpm>
            <Cadence>80</Cadence>
          </Trackpoint>
          <Trackpoint>
            <Time>2026-05-31T10:05:00Z</Time>
            <Position>
              <LatitudeDegrees>45.121019</LatitudeDegrees>
              <LongitudeDegrees>7.612571</LongitudeDegrees>
            </Position>
            <AltitudeMeters>274.0</AltitudeMeters>
            <DistanceMeters>7274.6</DistanceMeters>
            <HeartRateBpm><Value>136</Value></HeartRateBpm>
            <Cadence>91</Cadence>
          </Trackpoint>
          <Trackpoint>
            <Time>2026-05-31T10:06:00Z</Time>
            <Position>
              <LatitudeDegrees>45.123379</LatitudeDegrees>
              <LongitudeDegrees>7.609361</LongitudeDegrees>
            </Position>
            <AltitudeMeters>275.4</AltitudeMeters>
            <DistanceMeters>7638.3</DistanceMeters>
            <HeartRateBpm><Value>133</Value></HeartRateBpm>
            <Cadence>85</Cadence>
          </Trackpoint>
          <Trackpoint>
            <Time>2026-05-31T10:07:00Z</Time>
            <Position>
              <LatitudeDegrees>45.125417</LatitudeDegrees>
              <LongitudeDegrees>7.605734</LongitudeDegrees>
            </Position>
            <AltitudeMeters>276.8</AltitudeMeters>
            <DistanceMeters>8002.1</DistanceMeters>
            <HeartRateBpm><Value>134</Value></HeartRateBpm>
            <Cadence>90</Cadence>
          </Trackpoint>
          <Trackpoint>
            <Time>2026-05-31T10:08:00Z</Time>
            <Position>
              <LatitudeDegrees>45.127327</LatitudeDegrees>
              <LongitudeDegrees>7.601971</LongitudeDegrees>
            </Position>
            <AltitudeMeters>278.1</AltitudeMeters>
            <DistanceMeters>8365.8</DistanceMeters>
            <HeartRateBpm><Value>134</Value></HeartRateBpm>
            <Cadence>88</Cadence>
          </Trackpoint>
          <Trackpoint>
            <Time>2026-05-31T10:09:00Z</Time>
            <Position>
              <LatitudeDegrees>45.129409</LatitudeDegrees>
              <LongitudeDegrees>7.598395</LongitudeDegrees>
            </Position>
            <AltitudeMeters>279.4</AltitudeMeters>
            <DistanceMeters>8729.5</DistanceMeters>
            <HeartRateBpm><Value>136</Value></HeartRateBpm>
            <Cadence>92</Cadence>
          </Trackpoint>
          <Trackpoint>
            <Time>2026-05-31T10:10:00Z</Time>
            <Position>
              <LatitudeDegrees>45.13123</LatitudeDegrees>
              <LongitudeDegrees>7.594543</LongitudeDegrees>
            </Position>
            <AltitudeMeters>280.7</AltitudeMeters>
            <DistanceMeters>9093.3</DistanceMeters>
            <HeartRateBpm><Value>135</Value></HeartRateBpm>
            <Cadence>86</Cadence>
          </Trackpoint>
          <Trackpoint>
            <Time>2026-05-31T10:11:00Z</Time>
            <Position>
              <LatitudeDegrees>45.133176</LatitudeDegrees>
              <LongitudeDegrees>7.590816</LongitudeDegrees>
            </Position>
            <AltitudeMeters>281.9</AltitudeMeters>
            <DistanceMeters>9457.0</DistanceMeters>
            <HeartRateBpm><Value>130</Value></HeartRateBpm>
            <Cadence>84</Cadence>
          </Trackpoint>
          <Trackpoint>
            <Time>2026-05-31T10:12:00Z</Time>
            <Position>
              <LatitudeDegrees>45.135395</LatitudeDegrees>
              <LongitudeDegrees>7.587409</LongitudeDegrees>
            </Position>
            <AltitudeMeters>283.0</AltitudeMeters>
            <DistanceMeters>9820.7</DistanceMeters>
            <HeartRateBpm><Value>132</Value></HeartRateBpm>
            <Cadence>71</Cadence>
          </Trackpoint>
          <Trackpoint>
            <Time>2026-05-31T10:13:00Z</Time>
            <Position>
              <LatitudeDegrees>45.137691</LatitudeDegrees>
              <LongitudeDegrees>7.584107</LongitudeDegrees>
            </Position>
            <AltitudeMeters>284.1</AltitudeMeters>
            <DistanceMeters>10184.5</DistanceMeters>
            <HeartRateBpm><Value>129</Value></HeartRateBpm>
            <Cadence>88</Cadence>
          </Trackpoint>
          <Trackpoint>
            <Time>2026-05-31T10:14:00Z</Time>
            <Position>
              <LatitudeDegrees>45.139568</LatitudeDegrees>
              <LongitudeDegrees>7.580309</LongitudeDegrees>
            </Position>
            <AltitudeMeters>285.2</AltitudeMeters>
            <DistanceMeters>10548.2</DistanceMeters>
            <HeartRateBpm><Value>137</Value></HeartRateBpm>
            <Cadence>80</Cadence>
          </Trackpoint>
          <Trackpoint>
            <Time>2026-05-31T10:15:00Z</Time>
            <Position>
              <LatitudeDegrees>45.141006</LatitudeDegrees>
              <LongitudeDegrees>7.576143</LongitudeDegrees>
            </Position>
            <AltitudeMeters>286.2</AltitudeMeters>
            <DistanceMeters>10911.9</DistanceMeters>
            <HeartRateBpm><Value>133</Value></HeartRateBpm>
            <Cadence>77</Cadence>
          </Trackpoint>
          <Trackpoint>
            <Time>2026-05-31T10:16:00Z</Time>
            <Position>
              <LatitudeDegrees>45.142304</LatitudeDegrees>
              <LongitudeDegrees>7.571887</LongitudeDegrees>
            </Position>
            <AltitudeMeters>287.1</AltitudeMeters>
            <DistanceMeters>11275.7</DistanceMeters>
            <HeartRateBpm><Value>135</Value></HeartRateBpm>
            <Cadence>85</Cadence>
          </Trackpoint>
          <Trackpoint>
            <Time>2026-05-31T10:17:00Z</Time>
            <Position>
              <LatitudeDegrees>45.144156</LatitudeDegrees>
              <LongitudeDegrees>7.568064</LongitudeDegrees>
            </Position>
            <AltitudeMeters>288.0</AltitudeMeters>
            <DistanceMeters>11639.4</DistanceMeters>
            <HeartRateBpm><Value>136</Value></HeartRateBpm>
            <Cadence>91</Cadence>
          </Trackpoint>
          <Trackpoint>
            <Time>2026-05-31T10:18:00Z</Time>
            <Position>
              <LatitudeDegrees>45.146296</LatitudeDegrees>
              <LongitudeDegrees>7.564557</LongitudeDegrees>
            </Position>
            <AltitudeMeters>288.8</AltitudeMeters>
            <DistanceMeters>12003.1</DistanceMeters>
            <HeartRateBpm><Value>134</Value></HeartRateBpm>
            <Cadence>95</Cadence>
          </Trackpoint>
          <Trackpoint>
            <Time>2026-05-31T10:19:00Z</Time>
            <Position>
              <LatitudeDegrees>45.148254</LatitudeDegrees>
              <LongitudeDegrees>7.560842</LongitudeDegrees>
            </Position>
            <AltitudeMeters>289.6</AltitudeMeters>
            <DistanceMeters>12366.9</DistanceMeters>
            <HeartRateBpm><Value>133</Value></HeartRateBpm>
            <Cadence>87</Cadence>
          </Trackpoint>
          <Trackpoint>
            <Time>2026-05-31T10:20:00Z</Time>
            <Position>
              <LatitudeDegrees>45.150365</LatitudeDegrees>
              <LongitudeDegrees>7.557298</LongitudeDegrees>
            </Position>
            <AltitudeMeters>290.3</AltitudeMeters>
            <DistanceMeters>12730.6</DistanceMeters>
            <HeartRateBpm><Value>138</Value></HeartRateBpm>
            <Cadence>84</Cadence>
          </Trackpoint>
          <Trackpoint>
            <Time>2026-05-31T10:21:00Z</Time>
            <Position>
              <LatitudeDegrees>45.152446</LatitudeDegrees>
              <LongitudeDegrees>7.553719</LongitudeDegrees>
            </Position>
            <AltitudeMeters>291.0</AltitudeMeters>
            <DistanceMeters>13094.3</DistanceMeters>
            <HeartRateBpm><Value>134</Value></HeartRateBpm>
            <Cadence>87</Cadence>
          </Trackpoint>
          <Trackpoint>
            <Time>2026-05-31T10:22:00Z</Time>
            <Position>
              <LatitudeDegrees>45.154239</LatitudeDegrees>
              <LongitudeDegrees>7.54984</LongitudeDegrees>
            </Position>
            <AltitudeMeters>291.6</AltitudeMeters>
            <DistanceMeters>13458.0</DistanceMeters>
            <HeartRateBpm><Value>133</Value></HeartRateBpm>
            <Cadence>82</Cadence>
          </Trackpoint>
          <Trackpoint>
            <Time>2026-05-31T10:23:00Z</Time>
            <Position>
              <LatitudeDegrees>45.156312</LatitudeDegrees>
              <LongitudeDegrees>7.546252</LongitudeDegrees>
            </Position>
            <AltitudeMeters>292.2</AltitudeMeters>
            <DistanceMeters>13821.8</DistanceMeters>
            <HeartRateBpm><Value>134</Value></HeartRateBpm>
            <Cadence>77</Cadence>
          </Trackpoint>
          <Trackpoint>
            <Time>2026-05-31T10:24:00Z</Time>
            <Position>
              <LatitudeDegrees>45.158449</LatitudeDegrees>
              <LongitudeDegrees>7.54274</LongitudeDegrees>
            </Position>
            <AltitudeMeters>292.6</AltitudeMeters>
            <DistanceMeters>14185.5</DistanceMeters>
            <HeartRateBpm><Value>133</Value></HeartRateBpm>
            <Cadence>81</Cadence>
          </Trackpoint>
          <Trackpoint>
            <Time>2026-05-31T10:25:00Z</Time>
            <Position>
              <LatitudeDegrees>45.160016</LatitudeDegrees>
              <LongitudeDegrees>7.538668</LongitudeDegrees>
            </Position>
            <AltitudeMeters>293.1</AltitudeMeters>
            <DistanceMeters>14549.2</DistanceMeters>
            <HeartRateBpm><Value>134</Value></HeartRateBpm>
            <Cadence>81</Cadence>
          </Trackpoint>
          <Trackpoint>
            <Time>2026-05-31T10:26:00Z</Time>
            <Position>
              <LatitudeDegrees>45.161307</LatitudeDegrees>
              <LongitudeDegrees>7.534406</LongitudeDegrees>
            </Position>
            <AltitudeMeters>293.4</AltitudeMeters>
            <DistanceMeters>14913.0</DistanceMeters>
            <HeartRateBpm><Value>132</Value></HeartRateBpm>
            <Cadence>87</Cadence>
          </Trackpoint>
          <Trackpoint>
            <Time>2026-05-31T10:27:00Z</Time>
            <Position>
              <LatitudeDegrees>45.162641</LatitudeDegrees>
              <LongitudeDegrees>7.53017</LongitudeDegrees>
            </Position>
            <AltitudeMeters>293.8</AltitudeMeters>
            <DistanceMeters>15276.7</DistanceMeters>
            <HeartRateBpm><Value>137</Value></HeartRateBpm>
            <Cadence>69</Cadence>
          </Trackpoint>
          <Trackpoint>
            <Time>2026-05-31T10:28:00Z</Time>
            <Position>
              <LatitudeDegrees>45.163599</LatitudeDegrees>
              <LongitudeDegrees>7.525734</LongitudeDegrees>
            </Position>
            <AltitudeMeters>294.0</AltitudeMeters>
            <DistanceMeters>15640.4</DistanceMeters>
            <HeartRateBpm><Value>132</Value></HeartRateBpm>
            <Cadence>92</Cadence>
          </Trackpoint>
          <Trackpoint>
            <Time>2026-05-31T10:29:00Z</Time>
            <Position>
              <LatitudeDegrees>45.164429</LatitudeDegrees>
              <LongitudeDegrees>7.521247</LongitudeDegrees>
            </Position>
            <AltitudeMeters>294.2</AltitudeMeters>
            <DistanceMeters>16004.2</DistanceMeters>
            <HeartRateBpm><Value>132</Value></HeartRateBpm>
            <Cadence>81</Cadence>
          </Trackpoint>
          <Trackpoint>
            <Time>2026-05-31T10:30:00Z</Time>
            <Position>
              <LatitudeDegrees>45.1648</LatitudeDegrees>
              <LongitudeDegrees>7.516637</LongitudeDegrees>
            </Position>
            <AltitudeMeters>294.3</AltitudeMeters>
            <DistanceMeters>16367.9</DistanceMeters>
            <HeartRateBpm><Value>134</Value></HeartRateBpm>
            <Cadence>91</Cadence>
          </Trackpoint>
          <Trackpoint>
            <Time>2026-05-31T10:31:00Z</Time>
            <Position>
              <LatitudeDegrees>45.164929</LatitudeDegrees>
              <LongitudeDegrees>7.512001</LongitudeDegrees>
            </Position>
            <AltitudeMeters>294.4</AltitudeMeters>
            <DistanceMeters>16731.6</DistanceMeters>
            <HeartRateBpm><Value>138</Value></HeartRateBpm>
            <Cadence>87</Cadence>
          </Trackpoint>
          <Trackpoint>
            <Time>2026-05-31T10:32:00Z</Time>
            <Position>
              <LatitudeDegrees>45.164825</LatitudeDegrees>
              <LongitudeDegrees>7.507364</LongitudeDegrees>
            </Position>
            <AltitudeMeters>294.4</AltitudeMeters>
            <DistanceMeters>17095.4</DistanceMeters>
            <HeartRateBpm><Value>130</Value></HeartRateBpm>
            <Cadence>76</Cadence>
          </Trackpoint>
          <Trackpoint>
            <Time>2026-05-31T10:33:00Z</Time>
            <Position>
              <LatitudeDegrees>45.16521</LatitudeDegrees>
              <LongitudeDegrees>7.502757</LongitudeDegrees>
            </Position>
            <AltitudeMeters>294.3</AltitudeMeters>
            <DistanceMeters>17459.1</DistanceMeters>
            <HeartRateBpm><Value>135</Value></HeartRateBpm>
            <Cadence>89</Cadence>
          </Trackpoint>
          <Trackpoint>
            <Time>2026-05-31T10:34:00Z</Time>
            <Position>
              <LatitudeDegrees>45.164977</LatitudeDegrees>
              <LongitudeDegrees>7.49813</LongitudeDegrees>
            </Position>
            <AltitudeMeters>294.2</AltitudeMeters>
            <DistanceMeters>17822.8</DistanceMeters>
            <HeartRateBpm><Value>139</Value></HeartRateBpm>
            <Cadence>88</Cadence>
          </Trackpoint>
          <Trackpoint>
            <Time>2026-05-31T10:35:00Z</Time>
            <Position>
              <LatitudeDegrees>45.163967</LatitudeDegrees>
              <LongitudeDegrees>7.493717</LongitudeDegrees>
            </Position>
            <AltitudeMeters>294.0</AltitudeMeters>
            <DistanceMeters>18186.5</DistanceMeters>
            <HeartRateBpm><Value>135</Value></HeartRateBpm>
            <Cadence>87</Cadence>
          </Trackpoint>
          <Trackpoint>
            <Time>2026-05-31T10:36:00Z</Time>
            <Position>
              <LatitudeDegrees>45.162952</LatitudeDegrees>
              <LongitudeDegrees>7.489306</LongitudeDegrees>
            </Position>
            <AltitudeMeters>293.8</AltitudeMeters>
            <DistanceMeters>18550.3</DistanceMeters>
            <HeartRateBpm><Value>136</Value></HeartRateBpm>
            <Cadence>77</Cadence>
          </Trackpoint>
          <Trackpoint>
            <Time>2026-05-31T10:37:00Z</Time>
            <Position>
              <LatitudeDegrees>45.161823</LatitudeDegrees>
              <LongitudeDegrees>7.484952</LongitudeDegrees>
            </Position>
            <AltitudeMeters>293.4</AltitudeMeters>
            <DistanceMeters>18914.0</DistanceMeters>
            <HeartRateBpm><Value>132</Value></HeartRateBpm>
            <Cadence>79</Cadence>
          </Trackpoint>
          <Trackpoint>
            <Time>2026-05-31T10:38:00Z</Time>
            <Position>
              <LatitudeDegrees>45.160528</LatitudeDegrees>
              <LongitudeDegrees>7.480692</LongitudeDegrees>
            </Position>
            <AltitudeMeters>293.1</AltitudeMeters>
            <DistanceMeters>19277.7</DistanceMeters>
            <HeartRateBpm><Value>135</Value></HeartRateBpm>
            <Cadence>86</Cadence>
          </Trackpoint>
          <Trackpoint>
            <Time>2026-05-31T10:39:00Z</Time>
            <Position>
              <LatitudeDegrees>45.159603</LatitudeDegrees>
              <LongitudeDegrees>7.476242</LongitudeDegrees>
            </Position>
            <AltitudeMeters>292.6</AltitudeMeters>
            <DistanceMeters>19641.5</DistanceMeters>
            <HeartRateBpm><Value>138</Value></HeartRateBpm>
            <Cadence>69</Cadence>
          </Trackpoint>
          <Trackpoint>
            <Time>2026-05-31T10:40:00Z</Time>
            <Position>
              <LatitudeDegrees>45.159376</LatitudeDegrees>
              <LongitudeDegrees>7.471615</LongitudeDegrees>
            </Position>
            <AltitudeMeters>292.2</AltitudeMeters>
            <DistanceMeters>20005.2</DistanceMeters>
            <HeartRateBpm><Value>132</Value></HeartRateBpm>
            <Cadence>82</Cadence>
          </Trackpoint>
          <Trackpoint>
            <Time>2026-05-31T10:41:00Z</Time>
            <Position>
              <LatitudeDegrees>45.158869</LatitudeDegrees>
              <LongitudeDegrees>7.467032</LongitudeDegrees>
            </Position>
            <AltitudeMeters>291.6</AltitudeMeters>
            <DistanceMeters>20368.9</DistanceMeters>
            <HeartRateBpm><Value>133</Value></HeartRateBpm>
            <Cadence>89</Cadence>
          </Trackpoint>
          <Trackpoint>
            <Time>2026-05-31T10:42:00Z</Time>
            <Position>
              <LatitudeDegrees>45.158259</LatitudeDegrees>
              <LongitudeDegrees>7.462474</LongitudeDegrees>
            </Position>
            <AltitudeMeters>291.0</AltitudeMeters>
            <DistanceMeters>20732.7</DistanceMeters>
            <HeartRateBpm><Value>136</Value></HeartRateBpm>
            <Cadence>93</Cadence>
          </Trackpoint>
          <Trackpoint>
            <Time>2026-05-31T10:43:00Z</Time>
            <Position>
              <LatitudeDegrees>45.157672</LatitudeDegrees>
              <LongitudeDegrees>7.457911</LongitudeDegrees>
            </Position>
            <AltitudeMeters>290.3</AltitudeMeters>
            <DistanceMeters>21096.4</DistanceMeters>
            <HeartRateBpm><Value>135</Value></HeartRateBpm>
            <Cadence>82</Cadence>
          </Trackpoint>
          <Trackpoint>
            <Time>2026-05-31T10:44:00Z</Time>
            <Position>
              <LatitudeDegrees>45.157343</LatitudeDegrees>
              <LongitudeDegrees>7.453295</LongitudeDegrees>
            </Position>
            <AltitudeMeters>289.6</AltitudeMeters>
            <DistanceMeters>21460.1</DistanceMeters>
            <HeartRateBpm><Value>134</Value></HeartRateBpm>
            <Cadence>93</Cadence>
          </Trackpoint>
          <Trackpoint>
            <Time>2026-05-31T10:45:00Z</Time>
            <Position>
              <LatitudeDegrees>45.157019</LatitudeDegrees>
              <LongitudeDegrees>7.448679</LongitudeDegrees>
            </Position>
            <AltitudeMeters>288.8</AltitudeMeters>
            <DistanceMeters>21823.9</DistanceMeters>
            <HeartRateBpm><Value>136</Value></HeartRateBpm>
            <Cadence>99</Cadence>
          </Trackpoint>
          <Trackpoint>
            <Time>2026-05-31T10:46:00Z</Time>
            <Position>
              <LatitudeDegrees>45.15659</LatitudeDegrees>
              <LongitudeDegrees>7.444081</LongitudeDegrees>
            </Position>
            <AltitudeMeters>288.0</AltitudeMeters>
            <DistanceMeters>22187.6</DistanceMeters>
            <HeartRateBpm><Value>134</Value></HeartRateBpm>
            <Cadence>72</Cadence>
          </Trackpoint>
          <Trackpoint>
            <Time>2026-05-31T10:47:00Z</Time>
            <Position>
              <LatitudeDegrees>45.15643</LatitudeDegrees>
              <LongitudeDegrees>7.439447</LongitudeDegrees>
            </Position>
            <AltitudeMeters>287.1</AltitudeMeters>
            <DistanceMeters>22551.3</DistanceMeters>
            <HeartRateBpm><Value>137</Value></HeartRateBpm>
            <Cadence>90</Cadence>
          </Trackpoint>
          <Trackpoint>
            <Time>2026-05-31T10:48:00Z</Time>
            <Position>
              <LatitudeDegrees>45.156187</LatitudeDegrees>
              <LongitudeDegrees>7.434821</LongitudeDegrees>
            </Position>
            <AltitudeMeters>286.2</AltitudeMeters>
            <DistanceMeters>22915.0</DistanceMeters>
            <HeartRateBpm><Value>132</Value></HeartRateBpm>
            <Cadence>78</Cadence>
          </Trackpoint>
          <Trackpoint>
            <Time>2026-05-31T10:49:00Z</Time>
            <Position>
              <LatitudeDegrees>45.155754</LatitudeDegrees>
              <LongitudeDegrees>7.430224</LongitudeDegrees>
            </Position>
            <AltitudeMeters>285.2</AltitudeMeters>
            <DistanceMeters>23278.8</DistanceMeters>
            <HeartRateBpm><Value>134</Value></HeartRateBpm>
            <Cadence>84</Cadence>
          </Trackpoint>
          <Trackpoint>
            <Time>2026-05-31T10:50:00Z</Time>
            <Position>
              <LatitudeDegrees>45.155493</LatitudeDegrees>
              <LongitudeDegrees>7.4256</LongitudeDegrees>
            </Position>
            <AltitudeMeters>284.1</AltitudeMeters>
            <DistanceMeters>23642.5</DistanceMeters>
            <HeartRateBpm><Value>136</Value></HeartRateBpm>
            <Cadence>78</Cadence>
          </Trackpoint>
          <Trackpoint>
            <Time>2026-05-31T10:51:00Z</Time>
            <Position>
              <LatitudeDegrees>45.155714</LatitudeDegrees>
              <LongitudeDegrees>7.420972</LongitudeDegrees>
            </Position>
            <AltitudeMeters>283.0</AltitudeMeters>
            <DistanceMeters>24006.2</DistanceMeters>
            <HeartRateBpm><Value>133</Value></HeartRateBpm>
            <Cadence>82</Cadence>
          </Trackpoint>
          <Trackpoint>
            <Time>2026-05-31T10:52:00Z</Time>
            <Position>
              <LatitudeDegrees>45.156268</LatitudeDegrees>
              <LongitudeDegrees>7.4164</LongitudeDegrees>
            </Position>
            <AltitudeMeters>281.9</AltitudeMeters>
            <DistanceMeters>24370.0</DistanceMeters>
            <HeartRateBpm><Value>134</Value></HeartRateBpm>
            <Cadence>85</Cadence>
          </Trackpoint>
          <Trackpoint>
            <Time>2026-05-31T10:53:00Z</Time>
            <Position>
              <LatitudeDegrees>45.157239</LatitudeDegrees>
              <LongitudeDegrees>7.41197</LongitudeDegrees>
            </Position>
            <AltitudeMeters>280.7</AltitudeMeters>
            <DistanceMeters>24733.7</DistanceMeters>
            <HeartRateBpm><Value>137</Value></HeartRateBpm>
            <Cadence>88</Cadence>
          </Trackpoint>
          <Trackpoint>
            <Time>2026-05-31T10:54:00Z</Time>
            <Position>
              <LatitudeDegrees>45.158549</LatitudeDegrees>
              <LongitudeDegrees>7.40772</LongitudeDegrees>
            </Position>
            <AltitudeMeters>279.4</AltitudeMeters>
            <DistanceMeters>25097.4</DistanceMeters>
            <HeartRateBpm><Value>135</Value></HeartRateBpm>
            <Cadence>90</Cadence>
          </Trackpoint>
          <Trackpoint>
            <Time>2026-05-31T10:55:00Z</Time>
            <Position>
              <LatitudeDegrees>45.15984</LatitudeDegrees>
              <LongitudeDegrees>7.403458</LongitudeDegrees>
            </Position>
            <AltitudeMeters>278.1</AltitudeMeters>
            <DistanceMeters>25461.2</DistanceMeters>
            <HeartRateBpm><Value>135</Value></HeartRateBpm>
            <Cadence>79</Cadence>
          </Trackpoint>
          <Trackpoint>
            <Time>2026-05-31T10:56:00Z</Time>
            <Position>
              <LatitudeDegrees>45.160498</LatitudeDegrees>
              <LongitudeDegrees>7.398913</LongitudeDegrees>
            </Position>
            <AltitudeMeters>276.8</AltitudeMeters>
            <DistanceMeters>25824.9</DistanceMeters>
            <HeartRateBpm><Value>135</Value></HeartRateBpm>
            <Cadence>86</Cadence>
          </Trackpoint>
          <Trackpoint>
            <Time>2026-05-31T10:57:00Z</Time>
            <Position>
              <LatitudeDegrees>45.161376</LatitudeDegrees>
              <LongitudeDegrees>7.394445</LongitudeDegrees>
            </Position>
            <AltitudeMeters>275.4</AltitudeMeters>
            <DistanceMeters>26188.6</DistanceMeters>
            <HeartRateBpm><Value>139</Value></HeartRateBpm>
            <Cadence>82</Cadence>
          </Trackpoint>
          <Trackpoint>
            <Time>2026-05-31T10:58:00Z</Time>
            <Position>
              <LatitudeDegrees>45.16243</LatitudeDegrees>
              <LongitudeDegrees>7.390053</LongitudeDegrees>
            </Position>
            <AltitudeMeters>274.0</AltitudeMeters>
            <DistanceMeters>26552.4</DistanceMeters>
            <HeartRateBpm><Value>136</Value></HeartRateBpm>
            <Cadence>88</Cadence>
          </Trackpoint>
          <Trackpoint>
            <Time>2026-05-31T10:59:00Z</Time>
            <Position>
              <LatitudeDegrees>45.163902</LatitudeDegrees>
              <LongitudeDegrees>7.38591</LongitudeDegrees>
            </Position>
            <AltitudeMeters>272.6</AltitudeMeters>
            <DistanceMeters>26916.1</DistanceMeters>
            <HeartRateBpm><Value>134</Value></HeartRateBpm>
            <Cadence>85</Cadence>
          </Trackpoint>
          <Trackpoint>
            <Time>2026-05-31T11:00:00Z</Time>
            <Position>
              <LatitudeDegrees>45.165323</LatitudeDegrees>
              <LongitudeDegrees>7.381731</LongitudeDegrees>
            </Position>
            <AltitudeMeters>271.1</AltitudeMeters>
            <DistanceMeters>27279.8</DistanceMeters>
            <HeartRateBpm><Value>139</Value></HeartRateBpm>
            <Cadence>90</Cadence>
          </Trackpoint>
          <Trackpoint>
            <Time>2026-05-31T11:01:00Z</Time>
            <Position>
              <LatitudeDegrees>45.166917</LatitudeDegrees>
              <LongitudeDegrees>7.37768</LongitudeDegrees>
            </Position>
            <AltitudeMeters>269.5</AltitudeMeters>
            <DistanceMeters>27643.6</DistanceMeters>
            <HeartRateBpm><Value>136</Value></HeartRateBpm>
            <Cadence>88</Cadence>
          </Trackpoint>
          <Trackpoint>
            <Time>2026-05-31T11:02:00Z</Time>
            <Position>
              <LatitudeDegrees>45.168292</LatitudeDegrees>
              <LongitudeDegrees>7.37347</LongitudeDegrees>
            </Position>
            <AltitudeMeters>268.0</AltitudeMeters>
            <DistanceMeters>28007.3</DistanceMeters>
            <HeartRateBpm><Value>136</Value></HeartRateBpm>
            <Cadence>83</Cadence>
          </Trackpoint>
          <Trackpoint>
            <Time>2026-05-31T11:03:00Z</Time>
            <Position>
              <LatitudeDegrees>45.169958</LatitudeDegrees>
              <LongitudeDegrees>7.369477</LongitudeDegrees>
            </Position>
            <AltitudeMeters>266.4</AltitudeMeters>
            <DistanceMeters>28371.0</DistanceMeters>
            <HeartRateBpm><Value>131</Value></HeartRateBpm>
            <Cadence>81</Cadence>
          </Trackpoint>
          <Trackpoint>
            <Time>2026-05-31T11:04:00Z</Time>
            <Position>
              <LatitudeDegrees>45.171362</LatitudeDegrees>
              <LongitudeDegrees>7.365286</LongitudeDegrees>
            </Position>
            <AltitudeMeters>264.8</AltitudeMeters>
            <DistanceMeters>28734.7</DistanceMeters>
            <HeartRateBpm><Value>135</Value></HeartRateBpm>
            <Cadence>80</Cadence>
          </Trackpoint>
          <Trackpoint>
            <Time>2026-05-31T11:05:00Z</Time>
            <Position>
              <LatitudeDegrees>45.172182</LatitudeDegrees>
              <LongitudeDegrees>7.360795</LongitudeDegrees>
            </Position>
            <AltitudeMeters>263.1</AltitudeMeters>
            <DistanceMeters>29098.5</DistanceMeters>
            <HeartRateBpm><Value>136</Value></HeartRateBpm>
            <Cadence>79</Cadence>
          </Trackpoint>
          <Trackpoint>
            <Time>2026-05-31T11:06:00Z</Time>
            <Position>
              <LatitudeDegrees>45.17326</LatitudeDegrees>
              <LongitudeDegrees>7.356414</LongitudeDegrees>
            </Position>
            <AltitudeMeters>261.4</AltitudeMeters>
            <DistanceMeters>29462.2</DistanceMeters>
            <HeartRateBpm><Value>139</Value></HeartRateBpm>
            <Cadence>84</Cadence>
          </Trackpoint>
          <Trackpoint>
            <Time>2026-05-31T11:07:00Z</Time>
            <Position>
              <LatitudeDegrees>45.17395</LatitudeDegrees>
              <LongitudeDegrees>7.351878</LongitudeDegrees>
            </Position>
            <AltitudeMeters>259.7</AltitudeMeters>
            <DistanceMeters>29825.9</DistanceMeters>
            <HeartRateBpm><Value>136</Value></HeartRateBpm>
            <Cadence>92</Cadence>
          </Trackpoint>
          <Trackpoint>
            <Time>2026-05-31T11:08:00Z</Time>
            <Position>
              <LatitudeDegrees>45.175012</LatitudeDegrees>
              <LongitudeDegrees>7.347489</LongitudeDegrees>
            </Position>
            <AltitudeMeters>258.0</AltitudeMeters>
            <DistanceMeters>30189.7</DistanceMeters>
            <HeartRateBpm><Value>136</Value></HeartRateBpm>
            <Cadence>74</Cadence>
          </Trackpoint>
          <Trackpoint>
            <Time>2026-05-31T11:09:00Z</Time>
            <Position>
              <LatitudeDegrees>45.175911</LatitudeDegrees>
              <LongitudeDegrees>7.343028</LongitudeDegrees>
            </Position>
            <AltitudeMeters>256.3</AltitudeMeters>
            <DistanceMeters>30553.4</DistanceMeters>
            <HeartRateBpm><Value>135</Value></HeartRateBpm>
            <Cadence>83</Cadence>
          </Trackpoint>
          <Trackpoint>
            <Time>2026-05-31T11:10:00Z</Time>
            <Position>
              <LatitudeDegrees>45.177383</LatitudeDegrees>
              <LongitudeDegrees>7.338884</LongitudeDegrees>
            </Position>
            <AltitudeMeters>254.5</AltitudeMeters>
            <DistanceMeters>30917.1</DistanceMeters>
            <HeartRateBpm><Value>135</Value></HeartRateBpm>
            <Cadence>92</Cadence>
          </Trackpoint>
          <Trackpoint>
            <Time>2026-05-31T11:11:00Z</Time>
            <Position>
              <LatitudeDegrees>45.178698</LatitudeDegrees>
              <LongitudeDegrees>7.334635</LongitudeDegrees>
            </Position>
            <AltitudeMeters>252.7</AltitudeMeters>
            <DistanceMeters>31280.9</DistanceMeters>
            <HeartRateBpm><Value>139</Value></HeartRateBpm>
            <Cadence>88</Cadence>
          </Trackpoint>
          <Trackpoint>
            <Time>2026-05-31T11:12:00Z</Time>
            <Position>
              <LatitudeDegrees>45.179621</LatitudeDegrees>
              <LongitudeDegrees>7.330183</LongitudeDegrees>
            </Position>
            <AltitudeMeters>250.9</AltitudeMeters>
            <DistanceMeters>31644.6</DistanceMeters>
            <HeartRateBpm><Value>138</Value></HeartRateBpm>
            <Cadence>82</Cadence>
          </Trackpoint>
          <Trackpoint>
            <Time>2026-05-31T11:13:00Z</Time>
            <Position>
              <LatitudeDegrees>45.180685</LatitudeDegrees>
              <LongitudeDegrees>7.325795</LongitudeDegrees>
            </Position>
            <AltitudeMeters>249.1</AltitudeMeters>
            <DistanceMeters>32008.3</DistanceMeters>
            <HeartRateBpm><Value>136</Value></HeartRateBpm>
            <Cadence>83</Cadence>
          </Trackpoint>
          <Trackpoint>
            <Time>2026-05-31T11:14:00Z</Time>
            <Position>
              <LatitudeDegrees>45.181834</LatitudeDegrees>
              <LongitudeDegrees>7.32145</LongitudeDegrees>
            </Position>
            <AltitudeMeters>247.3</AltitudeMeters>
            <DistanceMeters>32372.1</DistanceMeters>
            <HeartRateBpm><Value>134</Value></HeartRateBpm>
            <Cadence>81</Cadence>
          </Trackpoint>
          <Trackpoint>
            <Time>2026-05-31T11:15:00Z</Time>
            <Position>
              <LatitudeDegrees>45.182267</LatitudeDegrees>
              <LongitudeDegrees>7.31685</LongitudeDegrees>
            </Position>
            <AltitudeMeters>245.5</AltitudeMeters>
            <DistanceMeters>32735.8</DistanceMeters>
            <HeartRateBpm><Value>138</Value></HeartRateBpm>
            <Cadence>96</Cadence>
          </Trackpoint>
          <Trackpoint>
            <Time>2026-05-31T11:16:00Z</Time>
            <Position>
              <LatitudeDegrees>45.182276</LatitudeDegrees>
              <LongitudeDegrees>7.312209</LongitudeDegrees>
            </Position>
            <AltitudeMeters>243.7</AltitudeMeters>
            <DistanceMeters>33099.5</DistanceMeters>
            <HeartRateBpm><Value>135</Value></HeartRateBpm>
            <Cadence>91</Cadence>
          </Trackpoint>
          <Trackpoint>
            <Time>2026-05-31T11:17:00Z</Time>
            <Position>
              <LatitudeDegrees>45.18207</LatitudeDegrees>
              <LongitudeDegrees>7.307577</LongitudeDegrees>
            </Position>
            <AltitudeMeters>241.8</AltitudeMeters>
            <DistanceMeters>33463.2</DistanceMeters>
            <HeartRateBpm><Value>141</Value></HeartRateBpm>
            <Cadence>76</Cadence>
          </Trackpoint>
          <Trackpoint>
            <Time>2026-05-31T11:18:00Z</Time>
            <Position>
              <LatitudeDegrees>45.181969</LatitudeDegrees>
              <LongitudeDegrees>7.302939</LongitudeDegrees>
            </Position>
            <AltitudeMeters>240.0</AltitudeMeters>
            <DistanceMeters>33827.0</DistanceMeters>
            <HeartRateBpm><Value>137</Value></HeartRateBpm>
            <Cadence>100</Cadence>
          </Trackpoint>
        </Track>
      </Lap>
      <Creator xsi:type="Device_t">
        <Name>Garmin Forerunner 265</Name>
      </Creator>
    </Activity>
  </Activities>
  <Author xsi:type="Application_t"><Name>Garmin Connect</Name></Author>
</TrainingCenterDatabase>
