<?xml version="1.0" encoding="UTF-8"?>
<gpx creator="StravaGPX Android" version="1.1" xmlns="http://www.topografix.com/GPX/1/1" xmlns:gpxtpx="http://www.garmin.com/xmlschemas/TrackPointExtension/v1">
  <metadata>
    <time>2026-06-21T09:45:00Z</time>
    <name>Evening spin</name>
  </metadata>
  <trk>
    <name>Evening spin</name>
    <type>cycling</type>
    <trkseg>
      <trkpt lat="45.059925" lon="7.670118">
        <ele>240.0</ele>
        <time>2026-06-21T09:45:00Z</time>
        <extensions><gpxtpx:TrackPointExtension><gpxtpx:hr>80</gpxtpx:hr><gpxtpx:cad>94</gpxtpx:cad></gpxtpx:TrackPointExtension></extensions>
      </trkpt>
      <trkpt lat="45.062222" lon="7.667167">
        <ele>241.9</ele>
        <time>2026-06-21T09:46:00Z</time>
        <extensions><gpxtpx:TrackPointExtension><gpxtpx:hr>99</gpxtpx:hr><gpxtpx:cad>87</gpxtpx:cad></gpxtpx:TrackPointExtension></extensions>
      </trkpt>
      <trkpt lat="45.064437" lon="7.664936">
        <ele>243.5</ele>
        <time>2026-06-21T09:47:00Z</time>
        <extensions><gpxtpx:TrackPointExtension><gpxtpx:hr>124</gpxtpx:hr><gpxtpx:cad>85</gpxtpx:cad></gpxtpx:TrackPointExtension></extensions>
      </trkpt>
      <trkpt lat="45.066777" lon="7.662534">
        <ele>245.3</ele>
        <time>2026-06-21T09:48:00Z</time>
        <extensions><gpxtpx:TrackPointExtension><gpxtpx:hr>132</gpxtpx:hr><gpxtpx:cad>95</gpxtpx:cad></gpxtpx:TrackPointExtension></extensions>
      </trkpt>
      <trkpt lat="45.0697" lon="7.661022">
        <ele>247.1</ele>
        <time>2026-06-21T09:49:00Z</time>
        <extensions><gpxtpx:TrackPointExtension><gpxtpx:hr>136</gpxtpx:hr><gpxtpx:cad>88</gpxtpx:cad></gpxtpx:TrackPointExtension></extensions>
      </trkpt>
      <trkpt lat="45.07242" lon="7.659096">
        <ele>248.9</ele>
        <time>2026-06-21T09:50:00Z</time>
        <extensions><gpxtpx:TrackPointExtension><gpxtpx:hr>136</gpxtpx:hr><gpxtpx:cad>79</gpxtpx:cad></gpxtpx:TrackPointExtension></extensions>
      </trkpt>
      <trkpt lat="45.075015" lon="7.657428">
        <ele>250.6</ele>
        <time>2026-06-21T09:51:00Z</time>
        <extensions><gpxtpx:TrackPointExtension><gpxtpx:hr>133</gpxtpx:hr><gpxtpx:cad>80</gpxtpx:cad></gpxtpx:TrackPointExtension></extensions>
      </trkpt>
      <trkpt lat="45.078132" lon="7.656022">
        <ele>252.6</ele>
        <time>2026-06-21T09:52:00Z</time>
        <extensions><gpxtpx:TrackPointExtension><gpxtpx:hr>132</gpxtpx:hr><gpxtpx:cad>68</gpxtpx:cad></gpxtpx:TrackPointExtension></extensions>
      </trkpt>
      <trkpt lat="45.080713" lon="7.65388">
        <ele>254.3</ele>
        <time>2026-06-21T09:53:00Z</time>
        <extensions><gpxtpx:TrackPointExtension><gpxtpx:hr>139</gpxtpx:hr><gpxtpx:cad>82</gpxtpx:cad></gpxtpx:TrackPointExtension></extensions>
      </trkpt>
      <trkpt lat="45.08354" lon="7.652315">
        <ele>256.1</ele>
        <time>2026-06-21T09:54:00Z</time>
        <extensions><gpxtpx:TrackPointExtension><gpxtpx:hr>128</gpxtpx:hr><gpxtpx:cad>83</gpxtpx:cad></gpxtpx:TrackPointExtension></extensions>
      </trkpt>
      <trkpt lat="45.085952" lon="7.650635">
        <ele>257.6</ele>
        <time>2026-06-21T09:55:00Z</time>
        <extensions><gpxtpx:TrackPointExtension><gpxtpx:hr>136</gpxtpx:hr><gpxtpx:cad>84</gpxtpx:cad></gpxtpx:TrackPointExtension></extensions>
      </trkpt>
      <trkpt lat="45.088622" lon="7.648605">
        <ele>259.3</ele>
        <time>2026-06-21T09:56:00Z</time>
        <extensions><gpxtpx:TrackPointExtension><gpxtpx:hr>132</gpxtpx:hr><gpxtpx:cad>92</gpxtpx:cad></gpxtpx:TrackPointExtension></extensions>
      </trkpt>
      <trkpt lat="45.091313" lon="7.646076">
        <ele>261.1</ele>
        <time>2026-06-21T09:57:00Z</time>
        <extensions><gpxtpx:TrackPointExtension><gpxtpx:hr>135</gpxtpx:hr><gpxtpx:cad>84</gpxtpx:cad></gpxtpx:TrackPointExtension></extensions>
      </trkpt>
      <trkpt lat="45.093319" lon="7.643014">
        <ele>262.7</ele>
        <time>2026-06-21T09:58:00Z</time>
        <extensions><gpxtpx:TrackPointExtension><gpxtpx:hr>131</gpxtpx:hr><gpxtpx:cad>89</gpxtpx:cad></gpxtpx:TrackPointExtension></extensions>
      </trkpt>
      <trkpt lat="45.095594" lon="7.639864">
        <ele>264.4</ele>
        <time>2026-06-21T09:59:00Z</time>
        <extensions><gpxtpx:TrackPointExtension><gpxtpx:hr>134</gpxtpx:hr><gpxtpx:cad>90</gpxtpx:cad></gpxtpx:TrackPointExtension></extensions>
      </trkpt>
      <trkpt lat="45.097839" lon="7.63688">
        <ele>266.1</ele>
        <time>2026-06-21T10:00:00Z</time>
        <extensions><gpxtpx:TrackPointExtension><gpxtpx:hr>135</gpxtpx:hr><gpxtpx:cad>80</gpxtpx:cad></gpxtpx:TrackPointExtension></extensions>
      </trkpt>
      <trkpt lat="45.099654" lon="7.633593">
        <ele>267.6</ele>
        <time>2026-06-21T10:01:00Z</time>
        <extensions><gpxtpx:TrackPointExtension><gpxtpx:hr>134</gpxtpx:hr><gpxtpx:cad>99</gpxtpx:cad></gpxtpx:TrackPointExtension></extensions>
      </trkpt>
      <trkpt lat="45.101296" lon="7.629627">
        <ele>269.2</ele>
        <time>2026-06-21T10:02:00Z</time>
        <extensions><gpxtpx:TrackPointExtension><gpxtpx:hr>131</gpxtpx:hr><gpxtpx:cad>69</gpxtpx:cad></gpxtpx:TrackPointExtension></extensions>
      </trkpt>
      <trkpt lat="45.103002" lon="7.625628">
        <ele>270.8</ele>
        <time>2026-06-21T10:03:00Z</time>
        <extensions><gpxtpx:TrackPointExtension><gpxtpx:hr>133</gpxtpx:hr><gpxtpx:cad>85</gpxtpx:cad></gpxtpx:TrackPointExtension></extensions>
      </trkpt>
      <trkpt lat="45.104111" lon="7.622399">
        <ele>272.0</ele>
        <time>2026-06-21T10:04:00Z</time>
        <extensions><gpxtpx:TrackPointExtension><gpxtpx:hr>134</gpxtpx:hr><gpxtpx:cad>78</gpxtpx:cad></gpxtpx:TrackPointExtension></extensions>
      </trkpt>
      <trkpt lat="45.105087" lon="7.618102">
        <ele>273.5</ele>
        <time>2026-06-21T10:05:00Z</time>
        <extensions><gpxtpx:TrackPointExtension><gpxtpx:hr>135</gpxtpx:hr><gpxtpx:cad>92</gpxtpx:cad></gpxtpx:TrackPointExtension></extensions>
      </trkpt>
      <trkpt lat="45.106006" lon="7.614154">
        <ele>274.8</ele>
        <time>2026-06-21T10:06:00Z</time>
        <extensions><gpxtpx:TrackPointExtension><gpxtpx:hr>137</gpxtpx:hr><gpxtpx:cad>79</gpxtpx:cad></gpxtpx:TrackPointExtension></extensions>
      </trkpt>
      <trkpt lat="45.106833" lon="7.609821">
        <ele>276.2</ele>
        <time>2026-06-21T10:07:00Z</time>
        <extensions><gpxtpx:TrackPointExtension><gpxtpx:hr>129</gpxtpx:hr><gpxtpx:cad>76</gpxtpx:cad></gpxtpx:TrackPointExtension></extensions>
      </trkpt>
      <trkpt lat="45.107761" lon="7.605806">
        <ele>277.5</ele>
        <time>2026-06-21T10:08:00Z</time>
        <extensions><gpxtpx:TrackPointExtension><gpxtpx:hr>134</gpxtpx:hr><gpxtpx:cad>93</gpxtpx:cad></gpxtpx:TrackPointExtension></extensions>
      </trkpt>
      <trkpt lat="45.108924" lon="7.601963">
        <ele>278.7</ele>
        <time>2026-06-21T10:09:00Z</time>
        <extensions><gpxtpx:TrackPointExtension><gpxtpx:hr>138</gpxtpx:hr><gpxtpx:cad>82</gpxtpx:cad></gpxtpx:TrackPointExtension></extensions>
      </trkpt>
      <trkpt lat="45.110355" lon="7.598605">
        <ele>279.8</ele>
        <time>2026-06-21T10:10:00Z</time>
        <extensions><gpxtpx:TrackPointExtension><gpxtpx:hr>140</gpxtpx:hr><gpxtpx:cad>86</gpxtpx:cad></gpxtpx:TrackPointExtension></extensions>
      </trkpt>
      <trkpt lat="45.111759" lon="7.594885">
        <ele>280.9</ele>
        <time>2026-06-21T10:11:00Z</time>
        <extensions><gpxtpx:TrackPointExtension><gpxtpx:hr>133</gpxtpx:hr><gpxtpx:cad>86</gpxtpx:cad></gpxtpx:TrackPointExtension></extensions>
      </trkpt>
      <trkpt lat="45.112803" lon="7.591238">
        <ele>281.9</ele>
        <time>2026-06-21T10:12:00Z</time>
        <extensions><gpxtpx:TrackPointExtension><gpxtpx:hr>133</gpxtpx:hr><gpxtpx:cad>89</gpxtpx:cad></gpxtpx:TrackPointExtension></extensions>
      </trkpt>
      <trkpt lat="45.11313" lon="7.586857">
        <ele>282.9</ele>
        <time>2026-06-21T10:13:00Z</time>
        <extensions><gpxtpx:TrackPointExtension><gpxtpx:hr>133</gpxtpx:hr><gpxtpx:cad>80</gpxtpx:cad></gpxtpx:TrackPointExtension></extensions>
      </trkpt>
      <trkpt lat="45.11343" lon="7.582698">
        <ele>283.9</ele>
        <time>2026-06-21T10:14:00Z</time>
        <extensions><gpxtpx:TrackPointExtension><gpxtpx:hr>131</gpxtpx:hr><gpxtpx:cad>77</gpxtpx:cad></gpxtpx:TrackPointExtension></extensions>
      </trkpt>
      <trkpt lat="45.113457" lon="7.578734">
        <ele>284.7</ele>
        <time>2026-06-21T10:15:00Z</time>
        <extensions><gpxtpx:TrackPointExtension><gpxtpx:hr>133</gpxtpx:hr><gpxtpx:cad>95</gpxtpx:cad></gpxtpx:TrackPointExtension></extensions>
      </trkpt>
      <trkpt lat="45.113265" lon="7.574475">
        <ele>285.6</ele>
        <time>2026-06-21T10:16:00Z</time>
        <extensions><gpxtpx:TrackPointExtension><gpxtpx:hr>135</gpxtpx:hr><gpxtpx:cad>74</gpxtpx:cad></gpxtpx:TrackPointExtension></extensions>
      </trkpt>
      <trkpt lat="45.113146" lon="7.570594">
        <ele>286.3</ele>
        <time>2026-06-21T10:17:00Z</time>
        <extensions><gpxtpx:TrackPointExtension><gpxtpx:hr>128</gpxtpx:hr><gpxtpx:cad>95</gpxtpx:cad></gpxtpx:TrackPointExtension></extensions>
      </trkpt>
      <trkpt lat="45.113588" lon="7.566674">
        <ele>287.0</ele>
        <time>2026-06-21T10:18:00Z</time>
        <extensions><gpxtpx:TrackPointExtension><gpxtpx:hr>136</gpxtpx:hr><gpxtpx:cad>82</gpxtpx:cad></gpxtpx:TrackPointExtension></extensions>
      </trkpt>
      <trkpt lat="45.115079" lon="7.56287">
        <ele>287.7</ele>
        <time>2026-06-21T10:19:00Z</time>
        <extensions><gpxtpx:TrackPointExtension><gpxtpx:hr>138</gpxtpx:hr><gpxtpx:cad>81</gpxtpx:cad></gpxtpx:TrackPointExtension></extensions>
      </trkpt>
      <trkpt lat="45.11688" lon="7.558958">
        <ele>288.4</ele>
        <time>2026-06-21T10:20:00Z</time>
        <extensions><gpxtpx:TrackPointExtension><gpxtpx:hr>138</gpxtpx:hr><gpxtpx:cad>81</gpxtpx:cad></gpxtpx:TrackPointExtension></extensions>
      </trkpt>
      <trkpt lat="45.11832" lon="7.555786">
        <ele>288.9</ele>
        <time>2026-06-21T10:21:00Z</time>
        <extensions><gpxtpx:TrackPointExtension><gpxtpx:hr>132</gpxtpx:hr><gpxtpx:cad>84</gpxtpx:cad></gpxtpx:TrackPointExtension></extensions>
      </trkpt>
      <trkpt lat="45.119395" lon="7.551848">
        <ele>289.4</ele>
        <time>2026-06-21T10:22:00Z</time>
        <extensions><gpxtpx:TrackPointExtension><gpxtpx:hr>138</gpxtpx:hr><gpxtpx:cad>81</gpxtpx:cad></gpxtpx:TrackPointExtension></extensions>
      </trkpt>
      <trkpt lat="45.120579" lon="7.547999">
        <ele>289.9</ele>
        <time>2026-06-21T10:23:00Z</time>
        <extensions><gpxtpx:TrackPointExtension><gpxtpx:hr>133</gpxtpx:hr><gpxtpx:cad>81</gpxtpx:cad></gpxtpx:TrackPointExtension></extensions>
      </trkpt>
      <trkpt lat="45.122049" lon="7.544048">
        <ele>290.3</ele>
        <time>2026-06-21T10:24:00Z</time>
        <extensions><gpxtpx:TrackPointExtension><gpxtpx:hr>137</gpxtpx:hr><gpxtpx:cad>85</gpxtpx:cad></gpxtpx:TrackPointExtension></extensions>
      </trkpt>
      <trkpt lat="45.123353" lon="7.540661">
        <ele>290.6</ele>
        <time>2026-06-21T10:25:00Z</time>
        <extensions><gpxtpx:TrackPointExtension><gpxtpx:hr>136</gpxtpx:hr><gpxtpx:cad>86</gpxtpx:cad></gpxtpx:TrackPointExtension></extensions>
      </trkpt>
      <trkpt lat="45.124148" lon="7.536368">
        <ele>290.9</ele>
        <time>2026-06-21T10:26:00Z</time>
        <extensions><gpxtpx:TrackPointExtension><gpxtpx:hr>134</gpxtpx:hr><gpxtpx:cad>88</gpxtpx:cad></gpxtpx:TrackPointExtension></extensions>
      </trkpt>
      <trkpt lat="45.124922" lon="7.532145">
        <ele>291.1</ele>
        <time>2026-06-21T10:27:00Z</time>
        <extensions><gpxtpx:TrackPointExtension><gpxtpx:hr>131</gpxtpx:hr><gpxtpx:cad>78</gpxtpx:cad></gpxtpx:TrackPointExtension></extensions>
      </trkpt>
      <trkpt lat="45.125334" lon="7.527477">
        <ele>291.2</ele>
        <time>2026-06-21T10:28:00Z</time>
        <extensions><gpxtpx:TrackPointExtension><gpxtpx:hr>132</gpxtpx:hr><gpxtpx:cad>81</gpxtpx:cad></gpxtpx:TrackPointExtension></extensions>
      </trkpt>
      <trkpt lat="45.125515" lon="7.522823">
        <ele>291.3</ele>
        <time>2026-06-21T10:29:00Z</time>
        <extensions><gpxtpx:TrackPointExtension><gpxtpx:hr>137</gpxtpx:hr><gpxtpx:cad>95</gpxtpx:cad></gpxtpx:TrackPointExtension></extensions>
      </trkpt>
      <trkpt lat="45.125139" lon="7.518605">
        <ele>291.3</ele>
        <time>2026-06-21T10:30:00Z</time>
        <extensions><gpxtpx:TrackPointExtension><gpxtpx:hr>140</gpxtpx:hr><gpxtpx:cad>95</gpxtpx:cad></gpxtpx:TrackPointExtension></extensions>
      </trkpt>
      <trkpt lat="45.125103" lon="7.514478">
        <ele>291.2</ele>
        <time>2026-06-21T10:31:00Z</time>
        <extensions><gpxtpx:TrackPointExtension><gpxtpx:hr>134</gpxtpx:hr><gpxtpx:cad>95</gpxtpx:cad></gpxtpx:TrackPointExtension></extensions>
      </trkpt>
      <trkpt lat="45.124704" lon="7.509912">
        <ele>291.0</ele>
        <time>2026-06-21T10:32:00Z</time>
        <extensions><gpxtpx:TrackPointExtension><gpxtpx:hr>135</gpxtpx:hr><gpxtpx:cad>85</gpxtpx:cad></gpxtpx:TrackPointExtension></extensions>
      </trkpt>
      <trkpt lat="45.123401" lon="7.505806">
        <ele>290.8</ele>
        <time>2026-06-21T10:33:00Z</time>
        <extensions><gpxtpx:TrackPointExtension><gpxtpx:hr>132</gpxtpx:hr><gpxtpx:cad>82</gpxtpx:cad></gpxtpx:TrackPointExtension></extensions>
      </trkpt>
      <trkpt lat="45.122169" lon="7.502223">
        <ele>290.6</ele>
        <time>2026-06-21T10:34:00Z</time>
        <extensions><gpxtpx:TrackPointExtension><gpxtpx:hr>136</gpxtpx:hr><gpxtpx:cad>89</gpxtpx:cad></gpxtpx:TrackPointExtension></extensions>
      </trkpt>
      <trkpt lat="45.120522" lon="7.498612">
        <ele>290.2</ele>
        <time>2026-06-21T10:35:00Z</time>
        <extensions><gpxtpx:TrackPointExtension><gpxtpx:hr>138</gpxtpx:hr><gpxtpx:cad>87</gpxtpx:cad></gpxtpx:TrackPointExtension></extensions>
      </trkpt>
      <trkpt lat="45.118678" lon="7.495387">
        <ele>289.8</ele>
        <time>2026-06-21T10:36:00Z</time>
        <extensions><gpxtpx:TrackPointExtension><gpxtpx:hr>134</gpxtpx:hr><gpxtpx:cad>86</gpxtpx:cad></gpxtpx:TrackPointExtension></extensions>
      </trkpt>
      <trkpt lat="45.116625" lon="7.492202">
        <ele>289.4</ele>
        <time>2026-06-21T10:37:00Z</time>
        <extensions><gpxtpx:TrackPointExtension><gpxtpx:hr>138</gpxtpx:hr><gpxtpx:cad>84</gpxtpx:cad></gpxtpx:TrackPointExtension></extensions>
      </trkpt>
      <trkpt lat="45.114958" lon="7.488523">
        <ele>288.9</ele>
        <time>2026-06-21T10:38:00Z</time>
        <extensions><gpxtpx:TrackPointExtension><gpxtpx:hr>134</gpxtpx:hr><gpxtpx:cad>81</gpxtpx:cad></gpxtpx:TrackPointExtension></extensions>
      </trkpt>
      <trkpt lat="45.113424" lon="7.484263">
        <ele>288.2</ele>
        <time>2026-06-21T10:39:00Z</time>
        <extensions><gpxtpx:TrackPointExtension><gpxtpx:hr>132</gpxtpx:hr><gpxtpx:cad>83</gpxtpx:cad></gpxtpx:TrackPointExtension></extensions>
      </trkpt>
      <trkpt lat="45.112068" lon="7.480156">
        <ele>287.5</ele>
        <time>2026-06-21T10:40:00Z</time>
        <extensions><gpxtpx:TrackPointExtension><gpxtpx:hr>142</gpxtpx:hr><gpxtpx:cad>83</gpxtpx:cad></gpxtpx:TrackPointExtension></extensions>
      </trkpt>
      <trkpt lat="45.110428" lon="7.476426">
        <ele>286.8</ele>
        <time>2026-06-21T10:41:00Z</time>
        <extensions><gpxtpx:TrackPointExtension><gpxtpx:hr>136</gpxtpx:hr><gpxtpx:cad>74</gpxtpx:cad></gpxtpx:TrackPointExtension></extensions>
      </trkpt>
      <trkpt lat="45.108329" lon="7.472858">
        <ele>285.9</ele>
        <time>2026-06-21T10:42:00Z</time>
        <extensions><gpxtpx:TrackPointExtension><gpxtpx:hr>137</gpxtpx:hr><gpxtpx:cad>89</gpxtpx:cad></gpxtpx:TrackPointExtension></extensions>
      </trkpt>
      <trkpt lat="45.105467" lon="7.469717">
        <ele>284.9</ele>
        <time>2026-06-21T10:43:00Z</time>
        <extensions><gpxtpx:TrackPointExtension><gpxtpx:hr>133</gpxtpx:hr><gpxtpx:cad>75</gpxtpx:cad></gpxtpx:TrackPointExtension></extensions>
      </trkpt>
      <trkpt lat="45.103074" lon="7.467435">
        <ele>284.0</ele>
        <time>2026-06-21T10:44:00Z</time>
        <extensions><gpxtpx:TrackPointExtension><gpxtpx:hr>137</gpxtpx:hr><gpxtpx:cad>81</gpxtpx:cad></gpxtpx:TrackPointExtension></extensions>
      </trkpt>
      <trkpt lat="45.100493" lon="7.464404">
        <ele>282.9</ele>
        <time>2026-06-21T10:45:00Z</time>
        <extensions><gpxtpx:TrackPointExtension><gpxtpx:hr>139</gpxtpx:hr><gpxtpx:cad>83</gpxtpx:cad></gpxtpx:TrackPointExtension></extensions>
      </trkpt>
      <trkpt lat="45.09794" lon="7.461753">
        <ele>281.9</ele>
        <time>2026-06-21T10:46:00Z</time>
        <extensions><gpxtpx:TrackPointExtension><gpxtpx:hr>137</gpxtpx:hr><gpxtpx:cad>81</gpxtpx:cad></gpxtpx:TrackPointExtension></extensions>
      </trkpt>
      <trkpt lat="45.095492" lon="7.4588">
        <ele>280.7</ele>
        <time>2026-06-21T10:47:00Z</time>
        <extensions><gpxtpx:TrackPointExtension><gpxtpx:hr>136</gpxtpx:hr><gpxtpx:cad>78</gpxtpx:cad></gpxtpx:TrackPointExtension></extensions>
      </trkpt>
      <trkpt lat="45.092982" lon="7.456115">
        <ele>279.5</ele>
        <time>2026-06-21T10:48:00Z</time>
        <extensions><gpxtpx:TrackPointExtension><gpxtpx:hr>135</gpxtpx:hr><gpxtpx:cad>77</gpxtpx:cad></gpxtpx:TrackPointExtension></extensions>
      </trkpt>
      <trkpt lat="45.090699" lon="7.453767">
        <ele>278.4</ele>
        <time>2026-06-21T10:49:00Z</time>
        <extensions><gpxtpx:TrackPointExtension><gpxtpx:hr>140</gpxtpx:hr><gpxtpx:cad>87</gpxtpx:cad></gpxtpx:TrackPointExtension></extensions>
      </trkpt>
      <trkpt lat="45.088143" lon="7.450827">
        <ele>277.1</ele>
        <time>2026-06-21T10:50:00Z</time>
        <extensions><gpxtpx:TrackPointExtension><gpxtpx:hr>134</gpxtpx:hr><gpxtpx:cad>77</gpxtpx:cad></gpxtpx:TrackPointExtension></extensions>
      </trkpt>
      <trkpt lat="45.085786" lon="7.448154">
        <ele>275.8</ele>
        <time>2026-06-21T10:51:00Z</time>
        <extensions><gpxtpx:TrackPointExtension><gpxtpx:hr>135</gpxtpx:hr><gpxtpx:cad>75</gpxtpx:cad></gpxtpx:TrackPointExtension></extensions>
      </trkpt>
      <trkpt lat="45.083074" lon="7.44599">
        <ele>274.4</ele>
        <time>2026-06-21T10:52:00Z</time>
        <extensions><gpxtpx:TrackPointExtension><gpxtpx:hr>135</gpxtpx:hr><gpxtpx:cad>88</gpxtpx:cad></gpxtpx:TrackPointExtension></extensions>
      </trkpt>
      <trkpt lat="45.080279" lon="7.44347">
        <ele>272.9</ele>
        <time>2026-06-21T10:53:00Z</time>
        <extensions><gpxtpx:TrackPointExtension><gpxtpx:hr>135</gpxtpx:hr><gpxtpx:cad>89</gpxtpx:cad></gpxtpx:TrackPointExtension></extensions>
      </trkpt>
      <trkpt lat="45.077783" lon="7.441153">
        <ele>271.5</ele>
        <time>2026-06-21T10:54:00Z</time>
        <extensions><gpxtpx:TrackPointExtension><gpxtpx:hr>133</gpxtpx:hr><gpxtpx:cad>78</gpxtpx:cad></gpxtpx:TrackPointExtension></extensions>
      </trkpt>
      <trkpt lat="45.075222" lon="7.437908">
        <ele>269.8</ele>
        <time>2026-06-21T10:55:00Z</time>
        <extensions><gpxtpx:TrackPointExtension><gpxtpx:hr>134</gpxtpx:hr><gpxtpx:cad>85</gpxtpx:cad></gpxtpx:TrackPointExtension></extensions>
      </trkpt>
      <trkpt lat="45.073224" lon="7.435181">
        <ele>268.5</ele>
        <time>2026-06-21T10:56:00Z</time>
        <extensions><gpxtpx:TrackPointExtension><gpxtpx:hr>137</gpxtpx:hr><gpxtpx:cad>78</gpxtpx:cad></gpxtpx:TrackPointExtension></extensions>
      </trkpt>
      <trkpt lat="45.070897" lon="7.432598">
        <ele>266.9</ele>
        <time>2026-06-21T10:57:00Z</time>
        <extensions><gpxtpx:TrackPointExtension><gpxtpx:hr>139</gpxtpx:hr><gpxtpx:cad>87</gpxtpx:cad></gpxtpx:TrackPointExtension></extensions>
      </trkpt>
      <trkpt lat="45.068427" lon="7.430628">
        <ele>265.5</ele>
        <time>2026-06-21T10:58:00Z</time>
        <extensions><gpxtpx:TrackPointExtension><gpxtpx:hr>138</gpxtpx:hr><gpxtpx:cad>82</gpxtpx:cad></gpxtpx:TrackPointExtension></extensions>
      </trkpt>
      <trkpt lat="45.065465" lon="7.428915">
        <ele>263.8</ele>
        <time>2026-06-21T10:59:00Z</time>
        <extensions><gpxtpx:TrackPointExtension><gpxtpx:hr>132</gpxtpx:hr><gpxtpx:cad>78</gpxtpx:cad></gpxtpx:TrackPointExtension></extensions>
      </trkpt>
      <trkpt lat="45.062552" lon="7.426908">
        <ele>262.0</ele>
        <time>2026-06-21T11:00:00Z</time>
        <extensions><gpxtpx:TrackPointExtension><gpxtpx:hr>139</gpxtpx:hr><gpxtpx:cad>89</gpxtpx:cad></gpxtpx:TrackPointExtension></extensions>
      </trkpt>
      <trkpt lat="45.059977" lon="7.42477">
        <ele>260.4</ele>
        <time>2026-06-21T11:01:00Z</time>
        <extensions><gpxtpx:TrackPointExtension><gpxtpx:hr>136</gpxtpx:hr><gpxtpx:cad>87</gpxtpx:cad></gpxtpx:TrackPointExtension></extensions>
      </trkpt>
      <trkpt lat="45.057139" lon="7.421785">
        <ele>258.4</ele>
        <time>2026-06-21T11:02:00Z</time>
        <extensions><gpxtpx:TrackPointExtension><gpxtpx:hr>134</gpxtpx:hr><gpxtpx:cad>90</gpxtpx:cad></gpxtpx:TrackPointExtension></extensions>
      </trkpt>
      <trkpt lat="45.055101" lon="7.41881">
        <ele>256.7</ele>
        <time>2026-06-21T11:03:00Z</time>
        <extensions><gpxtpx:TrackPointExtension><gpxtpx:hr>136</gpxtpx:hr><gpxtpx:cad>92</gpxtpx:cad></gpxtpx:TrackPointExtension></extensions>
      </trkpt>
      <trkpt lat="45.052826" lon="7.415533">
        <ele>254.9</ele>
        <time>2026-06-21T11:04:00Z</time>
        <extensions><gpxtpx:TrackPointExtension><gpxtpx:hr>136</gpxtpx:hr><gpxtpx:cad>86</gpxtpx:cad></gpxtpx:TrackPointExtension></extensions>
      </trkpt>
      <trkpt lat="45.050856" lon="7.412282">
        <ele>253.1</ele>
        <time>2026-06-21T11:05:00Z</time>
        <extensions><gpxtpx:TrackPointExtension><gpxtpx:hr>135</gpxtpx:hr><gpxtpx:cad>78</gpxtpx:cad></gpxtpx:TrackPointExtension></extensions>
      </trkpt>
      <trkpt lat="45.048908" lon="7.408525">
        <ele>251.2</ele>
        <time>2026-06-21T11:06:00Z</time>
        <extensions><gpxtpx:TrackPointExtension><gpxtpx:hr>135</gpxtpx:hr><gpxtpx:cad>84</gpxtpx:cad></gpxtpx:TrackPointExtension></extensions>
      </trkpt>
      <trkpt lat="45.047389" lon="7.404675">
        <ele>249.3</ele>
        <time>2026-06-21T11:07:00Z</time>
        <extensions><gpxtpx:TrackPointExtension><gpxtpx:hr>135</gpxtpx:hr><gpxtpx:cad>83</gpxtpx:cad></gpxtpx:TrackPointExtension></extensions>
      </trkpt>
      <trkpt lat="45.045988" lon="7.400424">
        <ele>247.3</ele>
        <time>2026-06-21T11:08:00Z</time>
        <extensions><gpxtpx:TrackPointExtension><gpxtpx:hr>136</gpxtpx:hr><gpxtpx:cad>88</gpxtpx:cad></gpxtpx:TrackPointExtension></extensions>
      </trkpt>
      <trkpt lat="45.044399" lon="7.396166">
        <ele>245.3</ele>
        <time>2026-06-21T11:09:00Z</time>
        <extensions><gpxtpx:TrackPointExtension><gpxtpx:hr>137</gpxtpx:hr><gpxtpx:cad>80</gpxtpx:cad></gpxtpx:TrackPointExtension></extensions>
      </trkpt>
      <trkpt lat="45.042797" lon="7.391814">
        <ele>243.2</ele>
        <time>2026-06-21T11:10:00Z</time>
        <extensions><gpxtpx:TrackPointExtension><gpxtpx:hr>137</gpxtpx:hr><gpxtpx:cad>83</gpxtpx:cad></gpxtpx:TrackPointExtension></extensions>
      </trkpt>
      <trkpt lat="45.04065" lon="7.387652">
        <ele>241.0</ele>
        <time>2026-06-21T11:11:00Z</time>
        <extensions><gpxtpx:TrackPointExtension><gpxtpx:hr>135</gpxtpx:hr><gpxtpx:cad>89</gpxtpx:cad></gpxtpx:TrackPointExtension></extensions>
      </trkpt>
      <trkpt lat="45.038961" lon="7.383097">
        <ele>238.8</ele>
        <time>2026-06-21T11:12:00Z</time>
        <extensions><gpxtpx:TrackPointExtension><gpxtpx:hr>134</gpxtpx:hr><gpxtpx:cad>85</gpxtpx:cad></gpxtpx:TrackPointExtension></extensions>
      </trkpt>
    </trkseg>
  </trk>
</gpx>
