<?xml version="1.0" encoding="UTF-8"?>
<gpx creator="StravaGPX Android" version="1.1" xmlns="http://www.topografix.com/GPX/1/1" xmlns:gpxtpx="http://www.garmin.com/xmlschemas/TrackPointExtension/v1">
  <metadata>
    <time>2026-06-24T19:15:00Z</time>
    <name>Interval session</name>
  </metadata>
  <trk>
    <name>Interval session</name>
    <type>running</type>
    <trkseg>
      <trkpt lat="45.064263" lon="7.695716">
        <ele>240.0</ele>
        <time>2026-06-24T19:15:00Z</time>
        <extensions><gpxtpx:TrackPointExtension><gpxtpx:hr>82</gpxtpx:hr><gpxtpx:cad>87</gpxtpx:cad></gpxtpx:TrackPointExtension></extensions>
      </trkpt>
      <trkpt lat="45.065631" lon="7.695424">
        <ele>277.0</ele>
        <time>2026-06-24T19:16:00Z</time>
        <extensions><gpxtpx:TrackPointExtension><gpxtpx:hr>157</gpxtpx:hr><gpxtpx:cad>89</gpxtpx:cad></gpxtpx:TrackPointExtension></extensions>
      </trkpt>
      <trkpt lat="45.066229" lon="7.695097">
        <ele>294.2</ele>
        <time>2026-06-24T19:17:00Z</time>
        <extensions><gpxtpx:TrackPointExtension><gpxtpx:hr>161</gpxtpx:hr><gpxtpx:cad>87</gpxtpx:cad></gpxtpx:TrackPointExtension></extensions>
      </trkpt>
      <trkpt lat="45.066751" lon="7.694684">
        <ele>310.1</ele>
        <time>2026-06-24T19:18:00Z</time>
        <extensions><gpxtpx:TrackPointExtension><gpxtpx:hr>171</gpxtpx:hr><gpxtpx:cad>88</gpxtpx:cad></gpxtpx:TrackPointExtension></extensions>
      </trkpt>
      <trkpt lat="45.067332" lon="7.694204">
        <ele>328.0</ele>
        <time>2026-06-24T19:19:00Z</time>
        <extensions><gpxtpx:TrackPointExtension><gpxtpx:hr>173</gpxtpx:hr><gpxtpx:cad>87</gpxtpx:cad></gpxtpx:TrackPointExtension></extensions>
      </trkpt>
      <trkpt lat="45.067913" lon="7.693659">
        <ele>346.4</ele>
        <time>2026-06-24T19:20:00Z</time>
        <extensions><gpxtpx:TrackPointExtension><gpxtpx:hr>174</gpxtpx:hr><gpxtpx:cad>84</gpxtpx:cad></gpxtpx:TrackPointExtension></extensions>
      </trkpt>
      <trkpt lat="45.068603" lon="7.69317">
        <ele>366.7</ele>
        <time>2026-06-24T19:21:00Z</time>
        <extensions><gpxtpx:TrackPointExtension><gpxtpx:hr>176</gpxtpx:hr><gpxtpx:cad>81</gpxtpx:cad></gpxtpx:TrackPointExtension></extensions>
      </trkpt>
      <trkpt lat="45.069256" lon="7.692694">
        <ele>385.8</ele>
        <time>2026-06-24T19:22:00Z</time>
        <extensions><gpxtpx:TrackPointExtension><gpxtpx:hr>169</gpxtpx:hr><gpxtpx:cad>87</gpxtpx:cad></gpxtpx:TrackPointExtension></extensions>
      </trkpt>
      <trkpt lat="45.069753" lon="7.692166">
        <ele>401.9</ele>
        <time>2026-06-24T19:23:00Z</time>
        <extensions><gpxtpx:TrackPointExtension><gpxtpx:hr>173</gpxtpx:hr><gpxtpx:cad>84</gpxtpx:cad></gpxtpx:TrackPointExtension></extensions>
      </trkpt>
      <trkpt lat="45.070265" lon="7.691551">
        <ele>419.1</ele>
        <time>2026-06-24T19:24:00Z</time>
        <extensions><gpxtpx:TrackPointExtension><gpxtpx:hr>167</gpxtpx:hr><gpxtpx:cad>85</gpxtpx:cad></gpxtpx:TrackPointExtension></extensions>
      </trkpt>
      <trkpt lat="45.070777" lon="7.69089">
        <ele>436.7</ele>
        <time>2026-06-24T19:25:00Z</time>
        <extensions><gpxtpx:TrackPointExtension><gpxtpx:hr>171</gpxtpx:hr><gpxtpx:cad>86</gpxtpx:cad></gpxtpx:TrackPointExtension></extensions>
      </trkpt>
      <trkpt lat="45.071253" lon="7.690079">
        <ele>455.4</ele>
        <time>2026-06-24T19:26:00Z</time>
        <extensions><gpxtpx:TrackPointExtension><gpxtpx:hr>173</gpxtpx:hr><gpxtpx:cad>80</gpxtpx:cad></gpxtpx:TrackPointExtension></extensions>
      </trkpt>
      <trkpt lat="45.071672" lon="7.689172">
        <ele>474.3</ele>
        <time>2026-06-24T19:27:00Z</time>
        <extensions><gpxtpx:TrackPointExtension><gpxtpx:hr>170</gpxtpx:hr><gpxtpx:cad>85</gpxtpx:cad></gpxtpx:TrackPointExtension></extensions>
      </trkpt>
      <trkpt lat="45.07198" lon="7.688299">
        <ele>491.1</ele>
        <time>2026-06-24T19:28:00Z</time>
        <extensions><gpxtpx:TrackPointExtension><gpxtpx:hr>172</gpxtpx:hr><gpxtpx:cad>82</gpxtpx:cad></gpxtpx:TrackPointExtension></extensions>
      </trkpt>
      <trkpt lat="45.072259" lon="7.687345">
        <ele>508.6</ele>
        <time>2026-06-24T19:29:00Z</time>
        <extensions><gpxtpx:TrackPointExtension><gpxtpx:hr>172</gpxtpx:hr><gpxtpx:cad>83</gpxtpx:cad></gpxtpx:TrackPointExtension></extensions>
      </trkpt>
      <trkpt lat="45.072479" lon="7.686484">
        <ele>523.8</ele>
        <time>2026-06-24T19:30:00Z</time>
        <extensions><gpxtpx:TrackPointExtension><gpxtpx:hr>171</gpxtpx:hr><gpxtpx:cad>88</gpxtpx:cad></gpxtpx:TrackPointExtension></extensions>
      </trkpt>
      <trkpt lat="45.072719" lon="7.685528">
        <ele>540.5</ele>
        <time>2026-06-24T19:31:00Z</time>
        <extensions><gpxtpx:TrackPointExtension><gpxtpx:hr>174</gpxtpx:hr><gpxtpx:cad>86</gpxtpx:cad></gpxtpx:TrackPointExtension></extensions>
      </trkpt>
      <trkpt lat="45.07297" lon="7.684582">
        <ele>556.7</ele>
        <time>2026-06-24T19:32:00Z</time>
        <extensions><gpxtpx:TrackPointExtension><gpxtpx:hr>171</gpxtpx:hr><gpxtpx:cad>84</gpxtpx:cad></gpxtpx:TrackPointExtension></extensions>
      </trkpt>
      <trkpt lat="45.073154" lon="7.683698">
        <ele>571.2</ele>
        <time>2026-06-24T19:33:00Z</time>
        <extensions><gpxtpx:TrackPointExtension><gpxtpx:hr>169</gpxtpx:hr><gpxtpx:cad>87</gpxtpx:cad></gpxtpx:TrackPointExtension></extensions>
      </trkpt>
      <trkpt lat="45.073432" lon="7.682823">
        <ele>586.0</ele>
        <time>2026-06-24T19:34:00Z</time>
        <extensions><gpxtpx:TrackPointExtension><gpxtpx:hr>171</gpxtpx:hr><gpxtpx:cad>89</gpxtpx:cad></gpxtpx:TrackPointExtension></extensions>
      </trkpt>
      <trkpt lat="45.073723" lon="7.68196">
        <ele>600.4</ele>
        <time>2026-06-24T19:35:00Z</time>
        <extensions><gpxtpx:TrackPointExtension><gpxtpx:hr>166</gpxtpx:hr><gpxtpx:cad>91</gpxtpx:cad></gpxtpx:TrackPointExtension></extensions>
      </trkpt>
      <trkpt lat="45.074166" lon="7.681124">
        <ele>615.7</ele>
        <time>2026-06-24T19:36:00Z</time>
        <extensions><gpxtpx:TrackPointExtension><gpxtpx:hr>169</gpxtpx:hr><gpxtpx:cad>79</gpxtpx:cad></gpxtpx:TrackPointExtension></extensions>
      </trkpt>
      <trkpt lat="45.07452" lon="7.680257">
        <ele>630.1</ele>
        <time>2026-06-24T19:37:00Z</time>
        <extensions><gpxtpx:TrackPointExtension><gpxtpx:hr>168</gpxtpx:hr><gpxtpx:cad>86</gpxtpx:cad></gpxtpx:TrackPointExtension></extensions>
      </trkpt>
      <trkpt lat="45.074886" lon="7.679416">
        <ele>643.7</ele>
        <time>2026-06-24T19:38:00Z</time>
        <extensions><gpxtpx:TrackPointExtension><gpxtpx:hr>172</gpxtpx:hr><gpxtpx:cad>87</gpxtpx:cad></gpxtpx:TrackPointExtension></extensions>
      </trkpt>
      <trkpt lat="45.075234" lon="7.678563">
        <ele>657.0</ele>
        <time>2026-06-24T19:39:00Z</time>
        <extensions><gpxtpx:TrackPointExtension><gpxtpx:hr>164</gpxtpx:hr><gpxtpx:cad>85</gpxtpx:cad></gpxtpx:TrackPointExtension></extensions>
      </trkpt>
      <trkpt lat="45.075709" lon="7.677701">
        <ele>671.2</ele>
        <time>2026-06-24T19:40:00Z</time>
        <extensions><gpxtpx:TrackPointExtension><gpxtpx:hr>170</gpxtpx:hr><gpxtpx:cad>87</gpxtpx:cad></gpxtpx:TrackPointExtension></extensions>
      </trkpt>
      <trkpt lat="45.076127" lon="7.676923">
        <ele>683.5</ele>
        <time>2026-06-24T19:41:00Z</time>
        <extensions><gpxtpx:TrackPointExtension><gpxtpx:hr>170</gpxtpx:hr><gpxtpx:cad>83</gpxtpx:cad></gpxtpx:TrackPointExtension></extensions>
      </trkpt>
      <trkpt lat="45.076528" lon="7.675996">
        <ele>696.5</ele>
        <time>2026-06-24T19:42:00Z</time>
        <extensions><gpxtpx:TrackPointExtension><gpxtpx:hr>170</gpxtpx:hr><gpxtpx:cad>90</gpxtpx:cad></gpxtpx:TrackPointExtension></extensions>
      </trkpt>
      <trkpt lat="45.076757" lon="7.674854">
        <ele>710.2</ele>
        <time>2026-06-24T19:43:00Z</time>
        <extensions><gpxtpx:TrackPointExtension><gpxtpx:hr>169</gpxtpx:hr><gpxtpx:cad>89</gpxtpx:cad></gpxtpx:TrackPointExtension></extensions>
      </trkpt>
      <trkpt lat="45.076898" lon="7.673869">
        <ele>721.2</ele>
        <time>2026-06-24T19:44:00Z</time>
        <extensions><gpxtpx:TrackPointExtension><gpxtpx:hr>167</gpxtpx:hr><gpxtpx:cad>80</gpxtpx:cad></gpxtpx:TrackPointExtension></extensions>
      </trkpt>
      <trkpt lat="45.077029" lon="7.67258">
        <ele>734.7</ele>
        <time>2026-06-24T19:45:00Z</time>
        <extensions><gpxtpx:TrackPointExtension><gpxtpx:hr>171</gpxtpx:hr><gpxtpx:cad>87</gpxtpx:cad></gpxtpx:TrackPointExtension></extensions>
      </trkpt>
      <trkpt lat="45.077288" lon="7.671603">
        <ele>744.9</ele>
        <time>2026-06-24T19:46:00Z</time>
        <extensions><gpxtpx:TrackPointExtension><gpxtpx:hr>167</gpxtpx:hr><gpxtpx:cad>82</gpxtpx:cad></gpxtpx:TrackPointExtension></extensions>
      </trkpt>
      <trkpt lat="45.077399" lon="7.670452">
        <ele>755.5</ele>
        <time>2026-06-24T19:47:00Z</time>
        <extensions><gpxtpx:TrackPointExtension><gpxtpx:hr>166</gpxtpx:hr><gpxtpx:cad>84</gpxtpx:cad></gpxtpx:TrackPointExtension></extensions>
      </trkpt>
      <trkpt lat="45.077465" lon="7.669302">
        <ele>765.4</ele>
        <time>2026-06-24T19:48:00Z</time>
        <extensions><gpxtpx:TrackPointExtension><gpxtpx:hr>160</gpxtpx:hr><gpxtpx:cad>89</gpxtpx:cad></gpxtpx:TrackPointExtension></extensions>
      </trkpt>
      <trkpt lat="45.077521" lon="7.667923">
        <ele>776.2</ele>
        <time>2026-06-24T19:49:00Z</time>
        <extensions><gpxtpx:TrackPointExtension><gpxtpx:hr>168</gpxtpx:hr><gpxtpx:cad>84</gpxtpx:cad></gpxtpx:TrackPointExtension></extensions>
      </trkpt>
      <trkpt lat="45.077618" lon="7.666703">
        <ele>784.9</ele>
        <time>2026-06-24T19:50:00Z</time>
        <extensions><gpxtpx:TrackPointExtension><gpxtpx:hr>166</gpxtpx:hr><gpxtpx:cad>83</gpxtpx:cad></gpxtpx:TrackPointExtension></extensions>
      </trkpt>
      <trkpt lat="45.077685" lon="7.665193">
        <ele>794.5</ele>
        <time>2026-06-24T19:51:00Z</time>
        <extensions><gpxtpx:TrackPointExtension><gpxtpx:hr>168</gpxtpx:hr><gpxtpx:cad>88</gpxtpx:cad></gpxtpx:TrackPointExtension></extensions>
      </trkpt>
      <trkpt lat="45.077846" lon="7.663915">
        <ele>801.6</ele>
        <time>2026-06-24T19:52:00Z</time>
        <extensions><gpxtpx:TrackPointExtension><gpxtpx:hr>163</gpxtpx:hr><gpxtpx:cad>87</gpxtpx:cad></gpxtpx:TrackPointExtension></extensions>
      </trkpt>
      <trkpt lat="45.078187" lon="7.66237">
        <ele>809.1</ele>
        <time>2026-06-24T19:53:00Z</time>
        <extensions><gpxtpx:TrackPointExtension><gpxtpx:hr>161</gpxtpx:hr><gpxtpx:cad>85</gpxtpx:cad></gpxtpx:TrackPointExtension></extensions>
      </trkpt>
      <trkpt lat="45.078475" lon="7.660667">
        <ele>815.5</ele>
        <time>2026-06-24T19:54:00Z</time>
        <extensions><gpxtpx:TrackPointExtension><gpxtpx:hr>163</gpxtpx:hr><gpxtpx:cad>90</gpxtpx:cad></gpxtpx:TrackPointExtension></extensions>
      </trkpt>
      <trkpt lat="45.078811" lon="7.659064">
        <ele>819.8</ele>
        <time>2026-06-24T19:55:00Z</time>
        <extensions><gpxtpx:TrackPointExtension><gpxtpx:hr>162</gpxtpx:hr><gpxtpx:cad>85</gpxtpx:cad></gpxtpx:TrackPointExtension></extensions>
      </trkpt>
      <trkpt lat="45.079161" lon="7.657106">
        <ele>822.8</ele>
        <time>2026-06-24T19:56:00Z</time>
        <extensions><gpxtpx:TrackPointExtension><gpxtpx:hr>157</gpxtpx:hr><gpxtpx:cad>87</gpxtpx:cad></gpxtpx:TrackPointExtension></extensions>
      </trkpt>
      <trkpt lat="45.079848" lon="7.655292">
        <ele>823.2</ele>
        <time>2026-06-24T19:57:00Z</time>
        <extensions><gpxtpx:TrackPointExtension><gpxtpx:hr>158</gpxtpx:hr><gpxtpx:cad>82</gpxtpx:cad></gpxtpx:TrackPointExtension></extensions>
      </trkpt>
      <trkpt lat="45.08077" lon="7.653622">
        <ele>820.9</ele>
        <time>2026-06-24T19:58:00Z</time>
        <extensions><gpxtpx:TrackPointExtension><gpxtpx:hr>152</gpxtpx:hr><gpxtpx:cad>84</gpxtpx:cad></gpxtpx:TrackPointExtension></extensions>
      </trkpt>
      <trkpt lat="45.081706" lon="7.651597">
        <ele>815.0</ele>
        <time>2026-06-24T19:59:00Z</time>
        <extensions><gpxtpx:TrackPointExtension><gpxtpx:hr>145</gpxtpx:hr><gpxtpx:cad>81</gpxtpx:cad></gpxtpx:TrackPointExtension></extensions>
      </trkpt>
    </trkseg>
  </trk>
</gpx>
