<?xml version="1.0" encoding="UTF-8"?>
<TrainingCenterDatabase xmlns="http://www.garmin.com/xmlschemas/TrainingCenterDatabase/v2" xmlns:ns3="http://www.garmin.com/xmlschemas/ActivityExtension/v2" xmlns:xsi="http://www.w3.org/2001/XMLSchema-instance">
  <Activities>
    <Activity Sport="Biking">
      <Id>2026-06-25T18:45:00Z</Id>
      <Lap StartTime="2026-06-25T18:45:00Z">
        <TotalTimeSeconds>5040.0</TotalTimeSeconds>
        <DistanceMeters>30948.4</DistanceMeters>
        <Calories>861</Calories>
        <AverageHeartRateBpm><Value>134</Value></AverageHeartRateBpm>
        <MaximumHeartRateBpm><Value>143</Value></MaximumHeartRateBpm>
        <Intensity>Active</Intensity>
        <Notes>Morning ride</Notes>
        <Track>
          <Trackpoint>
            <Time>2026-06-25T18:45:00Z</Time>
            <Position>
              <LatitudeDegrees>45.061683</LatitudeDegrees>
              <LongitudeDegrees>7.690613</LongitudeDegrees>
            </Position>
            <AltitudeMeters>240.0</AltitudeMeters>
            <DistanceMeters>0.0</DistanceMeters>
            <HeartRateBpm><Value>80</Value></HeartRateBpm>
            <Cadence>91</Cadence>
          </Trackpoint>
          <Trackpoint>
            <Time>2026-06-25T18:46:00Z</Time>
            <Position>
              <LatitudeDegrees>45.05978</LatitudeDegrees>
              <LongitudeDegrees>7.686773</LongitudeDegrees>
            </Position>
            <AltitudeMeters>251.5</AltitudeMeters>
            <DistanceMeters>368.4</DistanceMeters>
            <HeartRateBpm><Value>106</Value></HeartRateBpm>
            <Cadence>82</Cadence>
          </Trackpoint>
          <Trackpoint>
            <Time>2026-06-25T18:47:00Z</Time>
            <Position>
              <LatitudeDegrees>45.058013</LatitudeDegrees>
              <LongitudeDegrees>7.682804</LongitudeDegrees>
            </Position>
            <AltitudeMeters>262.9</AltitudeMeters>
            <DistanceMeters>736.9</DistanceMeters>
            <HeartRateBpm><Value>129</Value></HeartRateBpm>
            <Cadence>87</Cadence>
          </Trackpoint>
          <Trackpoint>
            <Time>2026-06-25T18:48:00Z</Time>
            <Position>
              <LatitudeDegrees>45.055943</LatitudeDegrees>
              <LongitudeDegrees>7.679142</LongitudeDegrees>
            </Position>
            <AltitudeMeters>274.3</AltitudeMeters>
            <DistanceMeters>1105.3</DistanceMeters>
            <HeartRateBpm><Value>142</Value></HeartRateBpm>
            <Cadence>87</Cadence>
          </Trackpoint>
          <Trackpoint>
            <Time>2026-06-25T18:49:00Z</Time>
            <Position>
              <LatitudeDegrees>45.054585</LatitudeDegrees>
              <LongitudeDegrees>7.674864</LongitudeDegrees>
            </Position>
            <AltitudeMeters>285.7</AltitudeMeters>
            <DistanceMeters>1473.7</DistanceMeters>
            <HeartRateBpm><Value>141</Value></HeartRateBpm>
            <Cadence>77</Cadence>
          </Trackpoint>
          <Trackpoint>
            <Time>2026-06-25T18:50:00Z</Time>
            <Position>
              <LatitudeDegrees>45.053063</LatitudeDegrees>
              <LongitudeDegrees>7.670698</LongitudeDegrees>
            </Position>
            <AltitudeMeters>297.0</AltitudeMeters>
            <DistanceMeters>1842.2</DistanceMeters>
            <HeartRateBpm><Value>139</Value></HeartRateBpm>
            <Cadence>84</Cadence>
          </Trackpoint>
          <Trackpoint>
            <Time>2026-06-25T18:51:00Z</Time>
            <Position>
              <LatitudeDegrees>45.051258</LatitudeDegrees>
              <LongitudeDegrees>7.666764</LongitudeDegrees>
            </Position>
            <AltitudeMeters>308.2</AltitudeMeters>
            <DistanceMeters>2210.6</DistanceMeters>
            <HeartRateBpm><Value>141</Value></HeartRateBpm>
            <Cadence>78</Cadence>
          </Trackpoint>
          <Trackpoint>
            <Time>2026-06-25T18:52:00Z</Time>
            <Position>
              <LatitudeDegrees>45.048993</LatitudeDegrees>
              <LongitudeDegrees>7.663341</LongitudeDegrees>
            </Position>
            <AltitudeMeters>319.4</AltitudeMeters>
            <DistanceMeters>2579.0</DistanceMeters>
            <HeartRateBpm><Value>138</Value></HeartRateBpm>
            <Cadence>87</Cadence>
          </Trackpoint>
          <Trackpoint>
            <Time>2026-06-25T18:53:00Z</Time>
            <Position>
              <LatitudeDegrees>45.046562</LatitudeDegrees>
              <LongitudeDegrees>7.660155</LongitudeDegrees>
            </Position>
            <AltitudeMeters>330.4</AltitudeMeters>
            <DistanceMeters>2947.5</DistanceMeters>
            <HeartRateBpm><Value>139</Value></HeartRateBpm>
            <Cadence>74</Cadence>
          </Trackpoint>
          <Trackpoint>
            <Time>2026-06-25T18:54:00Z</Time>
            <Position>
              <LatitudeDegrees>45.044109</LatitudeDegrees>
              <LongitudeDegrees>7.657002</LongitudeDegrees>
            </Position>
            <AltitudeMeters>341.3</AltitudeMeters>
            <DistanceMeters>3315.9</DistanceMeters>
            <HeartRateBpm><Value>143</Value></HeartRateBpm>
            <Cadence>88</Cadence>
          </Trackpoint>
          <Trackpoint>
            <Time>2026-06-25T18:55:00Z</Time>
            <Position>
              <LatitudeDegrees>45.041414</LatitudeDegrees>
              <LongitudeDegrees>7.654274</LongitudeDegrees>
            </Position>
            <AltitudeMeters>352.0</AltitudeMeters>
            <DistanceMeters>3684.3</DistanceMeters>
            <HeartRateBpm><Value>142</Value></HeartRateBpm>
            <Cadence>90</Cadence>
          </Trackpoint>
          <Trackpoint>
            <Time>2026-06-25T18:56:00Z</Time>
            <Position>
              <LatitudeDegrees>45.038926</LatitudeDegrees>
              <LongitudeDegrees>7.651177</LongitudeDegrees>
            </Position>
            <AltitudeMeters>362.6</AltitudeMeters>
            <DistanceMeters>4052.8</DistanceMeters>
            <HeartRateBpm><Value>141</Value></HeartRateBpm>
            <Cadence>76</Cadence>
          </Trackpoint>
          <Trackpoint>
            <Time>2026-06-25T18:57:00Z</Time>
            <Position>
              <LatitudeDegrees>45.035911</LatitudeDegrees>
              <LongitudeDegrees>7.649233</LongitudeDegrees>
            </Position>
            <AltitudeMeters>373.0</AltitudeMeters>
            <DistanceMeters>4421.2</DistanceMeters>
            <HeartRateBpm><Value>142</Value></HeartRateBpm>
            <Cadence>83</Cadence>
          </Trackpoint>
          <Trackpoint>
            <Time>2026-06-25T18:58:00Z</Time>
            <Position>
              <LatitudeDegrees>45.033065</LatitudeDegrees>
              <LongitudeDegrees>7.646832</LongitudeDegrees>
            </Position>
            <AltitudeMeters>383.3</AltitudeMeters>
            <DistanceMeters>4789.6</DistanceMeters>
            <HeartRateBpm><Value>139</Value></HeartRateBpm>
            <Cadence>85</Cadence>
          </Trackpoint>
          <Trackpoint>
            <Time>2026-06-25T18:59:00Z</Time>
            <Position>
              <LatitudeDegrees>45.030324</LatitudeDegrees>
              <LongitudeDegrees>7.644196</LongitudeDegrees>
            </Position>
            <AltitudeMeters>393.3</AltitudeMeters>
            <DistanceMeters>5158.1</DistanceMeters>
            <HeartRateBpm><Value>137</Value></HeartRateBpm>
            <Cadence>83</Cadence>
          </Trackpoint>
          <Trackpoint>
            <Time>2026-06-25T19:00:00Z</Time>
            <Position>
              <LatitudeDegrees>45.027569</LatitudeDegrees>
              <LongitudeDegrees>7.641593</LongitudeDegrees>
            </Position>
            <AltitudeMeters>403.1</AltitudeMeters>
            <DistanceMeters>5526.5</DistanceMeters>
            <HeartRateBpm><Value>143</Value></HeartRateBpm>
            <Cadence>88</Cadence>
          </Trackpoint>
          <Trackpoint>
            <Time>2026-06-25T19:01:00Z</Time>
            <Position>
              <LatitudeDegrees>45.024694</LatitudeDegrees>
              <LongitudeDegrees>7.639263</LongitudeDegrees>
            </Position>
            <AltitudeMeters>412.7</AltitudeMeters>
            <DistanceMeters>5894.9</DistanceMeters>
            <HeartRateBpm><Value>134</Value></HeartRateBpm>
            <Cadence>79</Cadence>
          </Trackpoint>
          <Trackpoint>
            <Time>2026-06-25T19:02:00Z</Time>
            <Position>
              <LatitudeDegrees>45.021815</LatitudeDegrees>
              <LongitudeDegrees>7.636942</LongitudeDegrees>
            </Position>
            <AltitudeMeters>422.1</AltitudeMeters>
            <DistanceMeters>6263.4</DistanceMeters>
            <HeartRateBpm><Value>140</Value></HeartRateBpm>
            <Cadence>81</Cadence>
          </Trackpoint>
          <Trackpoint>
            <Time>2026-06-25T19:03:00Z</Time>
            <Position>
              <LatitudeDegrees>45.019011</LatitudeDegrees>
              <LongitudeDegrees>7.634444</LongitudeDegrees>
            </Position>
            <AltitudeMeters>431.2</AltitudeMeters>
            <DistanceMeters>6631.8</DistanceMeters>
            <HeartRateBpm><Value>142</Value></HeartRateBpm>
            <Cadence>93</Cadence>
          </Trackpoint>
          <Trackpoint>
            <Time>2026-06-25T19:04:00Z</Time>
            <Position>
              <LatitudeDegrees>45.01622</LatitudeDegrees>
              <LongitudeDegrees>7.631919</LongitudeDegrees>
            </Position>
            <AltitudeMeters>440.0</AltitudeMeters>
            <DistanceMeters>7000.2</DistanceMeters>
            <HeartRateBpm><Value>138</Value></HeartRateBpm>
            <Cadence>81</Cadence>
          </Trackpoint>
          <Trackpoint>
            <Time>2026-06-25T19:05:00Z</Time>
            <Position>
              <LatitudeDegrees>45.013364</LatitudeDegrees>
              <LongitudeDegrees>7.629541</LongitudeDegrees>
            </Position>
            <AltitudeMeters>448.5</AltitudeMeters>
            <DistanceMeters>7368.7</DistanceMeters>
            <HeartRateBpm><Value>142</Value></HeartRateBpm>
            <Cadence>86</Cadence>
          </Trackpoint>
          <Trackpoint>
            <Time>2026-06-25T19:06:00Z</Time>
            <Position>
              <LatitudeDegrees>45.010412</LatitudeDegrees>
              <LongitudeDegrees>7.627413</LongitudeDegrees>
            </Position>
            <AltitudeMeters>456.8</AltitudeMeters>
            <DistanceMeters>7737.1</DistanceMeters>
            <HeartRateBpm><Value>141</Value></HeartRateBpm>
            <Cadence>75</Cadence>
          </Trackpoint>
          <Trackpoint>
            <Time>2026-06-25T19:07:00Z</Time>
            <Position>
              <LatitudeDegrees>45.007622</LatitudeDegrees>
              <LongitudeDegrees>7.624884</LongitudeDegrees>
            </Position>
            <AltitudeMeters>464.8</AltitudeMeters>
            <DistanceMeters>8105.5</DistanceMeters>
            <HeartRateBpm><Value>142</Value></HeartRateBpm>
            <Cadence>87</Cadence>
          </Trackpoint>
          <Trackpoint>
            <Time>2026-06-25T19:08:00Z</Time>
            <Position>
              <LatitudeDegrees>45.004779</LatitudeDegrees>
              <LongitudeDegrees>7.622479</LongitudeDegrees>
            </Position>
            <AltitudeMeters>472.4</AltitudeMeters>
            <DistanceMeters>8474.0</DistanceMeters>
            <HeartRateBpm><Value>140</Value></HeartRateBpm>
            <Cadence>81</Cadence>
          </Trackpoint>
          <Trackpoint>
            <Time>2026-06-25T19:09:00Z</Time>
            <Position>
              <LatitudeDegrees>45.002109</LatitudeDegrees>
              <LongitudeDegrees>7.619703</LongitudeDegrees>
            </Position>
            <AltitudeMeters>479.7</AltitudeMeters>
            <DistanceMeters>8842.4</DistanceMeters>
            <HeartRateBpm><Value>136</Value></HeartRateBpm>
            <Cadence>78</Cadence>
          </Trackpoint>
          <Trackpoint>
            <Time>2026-06-25T19:10:00Z</Time>
            <Position>
              <LatitudeDegrees>44.999766</LatitudeDegrees>
              <LongitudeDegrees>7.616389</LongitudeDegrees>
            </Position>
            <AltitudeMeters>486.7</AltitudeMeters>
            <DistanceMeters>9210.8</DistanceMeters>
            <HeartRateBpm><Value>137</Value></HeartRateBpm>
            <Cadence>84</Cadence>
          </Trackpoint>
          <Trackpoint>
            <Time>2026-06-25T19:11:00Z</Time>
            <Position>
              <LatitudeDegrees>44.997323</LatitudeDegrees>
              <LongitudeDegrees>7.613224</LongitudeDegrees>
            </Position>
            <AltitudeMeters>493.3</AltitudeMeters>
            <DistanceMeters>9579.3</DistanceMeters>
            <HeartRateBpm><Value>137</Value></HeartRateBpm>
            <Cadence>90</Cadence>
          </Trackpoint>
          <Trackpoint>
            <Time>2026-06-25T19:12:00Z</Time>
            <Position>
              <LatitudeDegrees>44.994522</LatitudeDegrees>
              <LongitudeDegrees>7.610722</LongitudeDegrees>
            </Position>
            <AltitudeMeters>499.6</AltitudeMeters>
            <DistanceMeters>9947.7</DistanceMeters>
            <HeartRateBpm><Value>136</Value></HeartRateBpm>
            <Cadence>82</Cadence>
          </Trackpoint>
          <Trackpoint>
            <Time>2026-06-25T19:13:00Z</Time>
            <Position>
              <LatitudeDegrees>44.991668</LatitudeDegrees>
              <LongitudeDegrees>7.60834</LongitudeDegrees>
            </Position>
            <AltitudeMeters>505.5</AltitudeMeters>
            <DistanceMeters>10316.1</DistanceMeters>
            <HeartRateBpm><Value>138</Value></HeartRateBpm>
            <Cadence>86</Cadence>
          </Trackpoint>
          <Trackpoint>
            <Time>2026-06-25T19:14:00Z</Time>
            <Position>
              <LatitudeDegrees>44.988539</LatitudeDegrees>
              <LongitudeDegrees>7.606801</LongitudeDegrees>
            </Position>
            <AltitudeMeters>511.1</AltitudeMeters>
            <DistanceMeters>10684.6</DistanceMeters>
            <HeartRateBpm><Value>137</Value></HeartRateBpm>
            <Cadence>76</Cadence>
          </Trackpoint>
          <Trackpoint>
            <Time>2026-06-25T19:15:00Z</Time>
            <Position>
              <LatitudeDegrees>44.985402</LatitudeDegrees>
              <LongitudeDegrees>7.605293</LongitudeDegrees>
            </Position>
            <AltitudeMeters>516.2</AltitudeMeters>
            <DistanceMeters>11053.0</DistanceMeters>
            <HeartRateBpm><Value>141</Value></HeartRateBpm>
            <Cadence>76</Cadence>
          </Trackpoint>
          <Trackpoint>
            <Time>2026-06-25T19:16:00Z</Time>
            <Position>
              <LatitudeDegrees>44.982413</LatitudeDegrees>
              <LongitudeDegrees>7.60327</LongitudeDegrees>
            </Position>
            <AltitudeMeters>521.0</AltitudeMeters>
            <DistanceMeters>11421.4</DistanceMeters>
            <HeartRateBpm><Value>134</Value></HeartRateBpm>
            <Cadence>81</Cadence>
          </Trackpoint>
          <Trackpoint>
            <Time>2026-06-25T19:17:00Z</Time>
            <Position>
              <LatitudeDegrees>44.979283</LatitudeDegrees>
              <LongitudeDegrees>7.601734</LongitudeDegrees>
            </Position>
            <AltitudeMeters>525.4</AltitudeMeters>
            <DistanceMeters>11789.9</DistanceMeters>
            <HeartRateBpm><Value>133</Value></HeartRateBpm>
            <Cadence>84</Cadence>
          </Trackpoint>
          <Trackpoint>
            <Time>2026-06-25T19:18:00Z</Time>
            <Position>
              <LatitudeDegrees>44.976123</LatitudeDegrees>
              <LongitudeDegrees>7.600327</LongitudeDegrees>
            </Position>
            <AltitudeMeters>529.4</AltitudeMeters>
            <DistanceMeters>12158.3</DistanceMeters>
            <HeartRateBpm><Value>135</Value></HeartRateBpm>
            <Cadence>81</Cadence>
          </Trackpoint>
          <Trackpoint>
            <Time>2026-06-25T19:19:00Z</Time>
            <Position>
              <LatitudeDegrees>44.972843</LatitudeDegrees>
              <LongitudeDegrees>7.599661</LongitudeDegrees>
            </Position>
            <AltitudeMeters>533.0</AltitudeMeters>
            <DistanceMeters>12526.7</DistanceMeters>
            <HeartRateBpm><Value>138</Value></HeartRateBpm>
            <Cadence>79</Cadence>
          </Trackpoint>
          <Trackpoint>
            <Time>2026-06-25T19:20:00Z</Time>
            <Position>
              <LatitudeDegrees>44.969829</LatitudeDegrees>
              <LongitudeDegrees>7.597713</LongitudeDegrees>
            </Position>
            <AltitudeMeters>536.2</AltitudeMeters>
            <DistanceMeters>12895.2</DistanceMeters>
            <HeartRateBpm><Value>136</Value></HeartRateBpm>
            <Cadence>74</Cadence>
          </Trackpoint>
          <Trackpoint>
            <Time>2026-06-25T19:21:00Z</Time>
            <Position>
              <LatitudeDegrees>44.966827</LatitudeDegrees>
              <LongitudeDegrees>7.595731</LongitudeDegrees>
            </Position>
            <AltitudeMeters>538.9</AltitudeMeters>
            <DistanceMeters>13263.6</DistanceMeters>
            <HeartRateBpm><Value>142</Value></HeartRateBpm>
            <Cadence>89</Cadence>
          </Trackpoint>
          <Trackpoint>
            <Time>2026-06-25T19:22:00Z</Time>
            <Position>
              <LatitudeDegrees>44.963539</LatitudeDegrees>
              <LongitudeDegrees>7.595152</LongitudeDegrees>
            </Position>
            <AltitudeMeters>541.3</AltitudeMeters>
            <DistanceMeters>13632.0</DistanceMeters>
            <HeartRateBpm><Value>131</Value></HeartRateBpm>
            <Cadence>84</Cadence>
          </Trackpoint>
          <Trackpoint>
            <Time>2026-06-25T19:23:00Z</Time>
            <Position>
              <LatitudeDegrees>44.960262</LatitudeDegrees>
              <LongitudeDegrees>7.594464</LongitudeDegrees>
            </Position>
            <AltitudeMeters>543.2</AltitudeMeters>
            <DistanceMeters>14000.5</DistanceMeters>
            <HeartRateBpm><Value>133</Value></HeartRateBpm>
            <Cadence>93</Cadence>
          </Trackpoint>
          <Trackpoint>
            <Time>2026-06-25T19:24:00Z</Time>
            <Position>
              <LatitudeDegrees>44.956986</LatitudeDegrees>
              <LongitudeDegrees>7.59376</LongitudeDegrees>
            </Position>
            <AltitudeMeters>544.7</AltitudeMeters>
            <DistanceMeters>14368.9</DistanceMeters>
            <HeartRateBpm><Value>135</Value></HeartRateBpm>
            <Cadence>84</Cadence>
          </Trackpoint>
          <Trackpoint>
            <Time>2026-06-25T19:25:00Z</Time>
            <Position>
              <LatitudeDegrees>44.95372</LatitudeDegrees>
              <LongitudeDegrees>7.59297</LongitudeDegrees>
            </Position>
            <AltitudeMeters>545.7</AltitudeMeters>
            <DistanceMeters>14737.3</DistanceMeters>
            <HeartRateBpm><Value>134</Value></HeartRateBpm>
            <Cadence>87</Cadence>
          </Trackpoint>
          <Trackpoint>
            <Time>2026-06-25T19:26:00Z</Time>
            <Position>
              <LatitudeDegrees>44.950428</LatitudeDegrees>
              <LongitudeDegrees>7.592446</LongitudeDegrees>
            </Position>
            <AltitudeMeters>546.4</AltitudeMeters>
            <DistanceMeters>15105.8</DistanceMeters>
            <HeartRateBpm><Value>131</Value></HeartRateBpm>
            <Cadence>81</Cadence>
          </Trackpoint>
          <Trackpoint>
            <Time>2026-06-25T19:27:00Z</Time>
            <Position>
              <LatitudeDegrees>44.947136</LatitudeDegrees>
              <LongitudeDegrees>7.591915</LongitudeDegrees>
            </Position>
            <AltitudeMeters>546.6</AltitudeMeters>
            <DistanceMeters>15474.2</DistanceMeters>
            <HeartRateBpm><Value>136</Value></HeartRateBpm>
            <Cadence>84</Cadence>
          </Trackpoint>
          <Trackpoint>
            <Time>2026-06-25T19:28:00Z</Time>
            <Position>
              <LatitudeDegrees>44.943906</LatitudeDegrees>
              <LongitudeDegrees>7.590869</LongitudeDegrees>
            </Position>
            <AltitudeMeters>546.4</AltitudeMeters>
            <DistanceMeters>15842.6</DistanceMeters>
            <HeartRateBpm><Value>136</Value></HeartRateBpm>
            <Cadence>88</Cadence>
          </Trackpoint>
          <Trackpoint>
            <Time>2026-06-25T19:29:00Z</Time>
            <Position>
              <LatitudeDegrees>44.940678</LatitudeDegrees>
              <LongitudeDegrees>7.589812</LongitudeDegrees>
            </Position>
            <AltitudeMeters>545.7</AltitudeMeters>
            <DistanceMeters>16211.1</DistanceMeters>
            <HeartRateBpm><Value>136</Value></HeartRateBpm>
            <Cadence>90</Cadence>
          </Trackpoint>
          <Trackpoint>
            <Time>2026-06-25T19:30:00Z</Time>
            <Position>
              <LatitudeDegrees>44.937563</LatitudeDegrees>
              <LongitudeDegrees>7.588218</LongitudeDegrees>
            </Position>
            <AltitudeMeters>544.7</AltitudeMeters>
            <DistanceMeters>16579.5</DistanceMeters>
            <HeartRateBpm><Value>135</Value></HeartRateBpm>
            <Cadence>82</Cadence>
          </Trackpoint>
          <Trackpoint>
            <Time>2026-06-25T19:31:00Z</Time>
            <Position>
              <LatitudeDegrees>44.934289</LatitudeDegrees>
              <LongitudeDegrees>7.587498</LongitudeDegrees>
            </Position>
            <AltitudeMeters>543.2</AltitudeMeters>
            <DistanceMeters>16947.9</DistanceMeters>
            <HeartRateBpm><Value>137</Value></HeartRateBpm>
            <Cadence>84</Cadence>
          </Trackpoint>
          <Trackpoint>
            <Time>2026-06-25T19:32:00Z</Time>
            <Position>
              <LatitudeDegrees>44.931027</LatitudeDegrees>
              <LongitudeDegrees>7.586674</LongitudeDegrees>
            </Position>
            <AltitudeMeters>541.3</AltitudeMeters>
            <DistanceMeters>17316.4</DistanceMeters>
            <HeartRateBpm><Value>135</Value></HeartRateBpm>
            <Cadence>97</Cadence>
          </Trackpoint>
          <Trackpoint>
            <Time>2026-06-25T19:33:00Z</Time>
            <Position>
              <LatitudeDegrees>44.92772</LatitudeDegrees>
              <LongitudeDegrees>7.5864</LongitudeDegrees>
            </Position>
            <AltitudeMeters>538.9</AltitudeMeters>
            <DistanceMeters>17684.8</DistanceMeters>
            <HeartRateBpm><Value>130</Value></HeartRateBpm>
            <Cadence>86</Cadence>
          </Trackpoint>
          <Trackpoint>
            <Time>2026-06-25T19:34:00Z</Time>
            <Position>
              <LatitudeDegrees>44.924408</LatitudeDegrees>
              <LongitudeDegrees>7.586575</LongitudeDegrees>
            </Position>
            <AltitudeMeters>536.2</AltitudeMeters>
            <DistanceMeters>18053.2</DistanceMeters>
            <HeartRateBpm><Value>131</Value></HeartRateBpm>
            <Cadence>96</Cadence>
          </Trackpoint>
          <Trackpoint>
            <Time>2026-06-25T19:35:00Z</Time>
            <Position>
              <LatitudeDegrees>44.921107</LatitudeDegrees>
              <LongitudeDegrees>7.586171</LongitudeDegrees>
            </Position>
            <AltitudeMeters>533.0</AltitudeMeters>
            <DistanceMeters>18421.7</DistanceMeters>
            <HeartRateBpm><Value>132</Value></HeartRateBpm>
            <Cadence>77</Cadence>
          </Trackpoint>
          <Trackpoint>
            <Time>2026-06-25T19:36:00Z</Time>
            <Position>
              <LatitudeDegrees>44.917816</LatitudeDegrees>
              <LongitudeDegrees>7.586708</LongitudeDegrees>
            </Position>
            <AltitudeMeters>529.4</AltitudeMeters>
            <DistanceMeters>18790.1</DistanceMeters>
            <HeartRateBpm><Value>133</Value></HeartRateBpm>
            <Cadence>86</Cadence>
          </Trackpoint>
          <Trackpoint>
            <Time>2026-06-25T19:37:00Z</Time>
            <Position>
              <LatitudeDegrees>44.914733</LatitudeDegrees>
              <LongitudeDegrees>7.588424</LongitudeDegrees>
            </Position>
            <AltitudeMeters>525.4</AltitudeMeters>
            <DistanceMeters>19158.5</DistanceMeters>
            <HeartRateBpm><Value>134</Value></HeartRateBpm>
            <Cadence>78</Cadence>
          </Trackpoint>
          <Trackpoint>
            <Time>2026-06-25T19:38:00Z</Time>
            <Position>
              <LatitudeDegrees>44.911713</LatitudeDegrees>
              <LongitudeDegrees>7.590349</LongitudeDegrees>
            </Position>
            <AltitudeMeters>521.0</AltitudeMeters>
            <DistanceMeters>19527.0</DistanceMeters>
            <HeartRateBpm><Value>133</Value></HeartRateBpm>
            <Cadence>91</Cadence>
          </Trackpoint>
          <Trackpoint>
            <Time>2026-06-25T19:39:00Z</Time>
            <Position>
              <LatitudeDegrees>44.908702</LatitudeDegrees>
              <LongitudeDegrees>7.592302</LongitudeDegrees>
            </Position>
            <AltitudeMeters>516.2</AltitudeMeters>
            <DistanceMeters>19895.4</DistanceMeters>
            <HeartRateBpm><Value>135</Value></HeartRateBpm>
            <Cadence>80</Cadence>
          </Trackpoint>
          <Trackpoint>
            <Time>2026-06-25T19:40:00Z</Time>
            <Position>
              <LatitudeDegrees>44.905659</LatitudeDegrees>
              <LongitudeDegrees>7.594151</LongitudeDegrees>
            </Position>
            <AltitudeMeters>511.1</AltitudeMeters>
            <DistanceMeters>20263.8</DistanceMeters>
            <HeartRateBpm><Value>135</Value></HeartRateBpm>
            <Cadence>89</Cadence>
          </Trackpoint>
          <Trackpoint>
            <Time>2026-06-25T19:41:00Z</Time>
            <Position>
              <LatitudeDegrees>44.902578</LatitudeDegrees>
              <LongitudeDegrees>7.595871</LongitudeDegrees>
            </Position>
            <AltitudeMeters>505.5</AltitudeMeters>
            <DistanceMeters>20632.3</DistanceMeters>
            <HeartRateBpm><Value>134</Value></HeartRateBpm>
            <Cadence>78</Cadence>
          </Trackpoint>
          <Trackpoint>
            <Time>2026-06-25T19:42:00Z</Time>
            <Position>
              <LatitudeDegrees>44.899435</LatitudeDegrees>
              <LongitudeDegrees>7.597356</LongitudeDegrees>
            </Position>
            <AltitudeMeters>499.6</AltitudeMeters>
            <DistanceMeters>21000.7</DistanceMeters>
            <HeartRateBpm><Value>128</Value></HeartRateBpm>
            <Cadence>87</Cadence>
          </Trackpoint>
          <Trackpoint>
            <Time>2026-06-25T19:43:00Z</Time>
            <Position>
              <LatitudeDegrees>44.896297</LatitudeDegrees>
              <LongitudeDegrees>7.598855</LongitudeDegrees>
            </Position>
            <AltitudeMeters>493.3</AltitudeMeters>
            <DistanceMeters>21369.1</DistanceMeters>
            <HeartRateBpm><Value>132</Value></HeartRateBpm>
            <Cadence>73</Cadence>
          </Trackpoint>
          <Trackpoint>
            <Time>2026-06-25T19:44:00Z</Time>
            <Position>
              <LatitudeDegrees>44.893176</LatitudeDegrees>
              <LongitudeDegrees>7.600424</LongitudeDegrees>
            </Position>
            <AltitudeMeters>486.7</AltitudeMeters>
            <DistanceMeters>21737.6</DistanceMeters>
            <HeartRateBpm><Value>136</Value></HeartRateBpm>
            <Cadence>91</Cadence>
          </Trackpoint>
          <Trackpoint>
            <Time>2026-06-25T19:45:00Z</Time>
            <Position>
              <LatitudeDegrees>44.890403</LatitudeDegrees>
              <LongitudeDegrees>7.602985</LongitudeDegrees>
            </Position>
            <AltitudeMeters>479.7</AltitudeMeters>
            <DistanceMeters>22106.0</DistanceMeters>
            <HeartRateBpm><Value>136</Value></HeartRateBpm>
            <Cadence>86</Cadence>
          </Trackpoint>
          <Trackpoint>
            <Time>2026-06-25T19:46:00Z</Time>
            <Position>
              <LatitudeDegrees>44.887988</LatitudeDegrees>
              <LongitudeDegrees>7.606187</LongitudeDegrees>
            </Position>
            <AltitudeMeters>472.4</AltitudeMeters>
            <DistanceMeters>22474.4</DistanceMeters>
            <HeartRateBpm><Value>134</Value></HeartRateBpm>
            <Cadence>79</Cadence>
          </Trackpoint>
          <Trackpoint>
            <Time>2026-06-25T19:47:00Z</Time>
            <Position>
              <LatitudeDegrees>44.885214</LatitudeDegrees>
              <LongitudeDegrees>7.608746</LongitudeDegrees>
            </Position>
            <AltitudeMeters>464.8</AltitudeMeters>
            <DistanceMeters>22842.8</DistanceMeters>
            <HeartRateBpm><Value>131</Value></HeartRateBpm>
            <Cadence>90</Cadence>
          </Trackpoint>
          <Trackpoint>
            <Time>2026-06-25T19:48:00Z</Time>
            <Position>
              <LatitudeDegrees>44.882255</LatitudeDegrees>
              <LongitudeDegrees>7.610848</LongitudeDegrees>
            </Position>
            <AltitudeMeters>456.8</AltitudeMeters>
            <DistanceMeters>23211.3</DistanceMeters>
            <HeartRateBpm><Value>134</Value></HeartRateBpm>
            <Cadence>82</Cadence>
          </Trackpoint>
          <Trackpoint>
            <Time>2026-06-25T19:49:00Z</Time>
            <Position>
              <LatitudeDegrees>44.879123</LatitudeDegrees>
              <LongitudeDegrees>7.612374</LongitudeDegrees>
            </Position>
            <AltitudeMeters>448.5</AltitudeMeters>
            <DistanceMeters>23579.7</DistanceMeters>
            <HeartRateBpm><Value>130</Value></HeartRateBpm>
            <Cadence>75</Cadence>
          </Trackpoint>
          <Trackpoint>
            <Time>2026-06-25T19:50:00Z</Time>
            <Position>
              <LatitudeDegrees>44.875978</LatitudeDegrees>
              <LongitudeDegrees>7.613848</LongitudeDegrees>
            </Position>
            <AltitudeMeters>440.0</AltitudeMeters>
            <DistanceMeters>23948.1</DistanceMeters>
            <HeartRateBpm><Value>132</Value></HeartRateBpm>
            <Cadence>80</Cadence>
          </Trackpoint>
          <Trackpoint>
            <Time>2026-06-25T19:51:00Z</Time>
            <Position>
              <LatitudeDegrees>44.873112</LatitudeDegrees>
              <LongitudeDegrees>7.616194</LongitudeDegrees>
            </Position>
            <AltitudeMeters>431.2</AltitudeMeters>
            <DistanceMeters>24316.6</DistanceMeters>
            <HeartRateBpm><Value>129</Value></HeartRateBpm>
            <Cadence>82</Cadence>
          </Trackpoint>
          <Trackpoint>
            <Time>2026-06-25T19:52:00Z</Time>
            <Position>
              <LatitudeDegrees>44.870267</LatitudeDegrees>
              <LongitudeDegrees>7.618592</LongitudeDegrees>
            </Position>
            <AltitudeMeters>422.1</AltitudeMeters>
            <DistanceMeters>24685.0</DistanceMeters>
            <HeartRateBpm><Value>132</Value></HeartRateBpm>
            <Cadence>85</Cadence>
          </Trackpoint>
          <Trackpoint>
            <Time>2026-06-25T19:53:00Z</Time>
            <Position>
              <LatitudeDegrees>44.867354</LatitudeDegrees>
              <LongitudeDegrees>7.620819</LongitudeDegrees>
            </Position>
            <AltitudeMeters>412.7</AltitudeMeters>
            <DistanceMeters>25053.4</DistanceMeters>
            <HeartRateBpm><Value>132</Value></HeartRateBpm>
            <Cadence>81</Cadence>
          </Trackpoint>
          <Trackpoint>
            <Time>2026-06-25T19:54:00Z</Time>
            <Position>
              <LatitudeDegrees>44.864479</LatitudeDegrees>
              <LongitudeDegrees>7.623143</LongitudeDegrees>
            </Position>
            <AltitudeMeters>403.1</AltitudeMeters>
            <DistanceMeters>25421.9</DistanceMeters>
            <HeartRateBpm><Value>135</Value></HeartRateBpm>
            <Cadence>84</Cadence>
          </Trackpoint>
          <Trackpoint>
            <Time>2026-06-25T19:55:00Z</Time>
            <Position>
              <LatitudeDegrees>44.861492</LatitudeDegrees>
              <LongitudeDegrees>7.625164</LongitudeDegrees>
            </Position>
            <AltitudeMeters>393.3</AltitudeMeters>
            <DistanceMeters>25790.3</DistanceMeters>
            <HeartRateBpm><Value>131</Value></HeartRateBpm>
            <Cadence>86</Cadence>
          </Trackpoint>
          <Trackpoint>
            <Time>2026-06-25T19:56:00Z</Time>
            <Position>
              <LatitudeDegrees>44.858639</LatitudeDegrees>
              <LongitudeDegrees>7.627543</LongitudeDegrees>
            </Position>
            <AltitudeMeters>383.3</AltitudeMeters>
            <DistanceMeters>26158.7</DistanceMeters>
            <HeartRateBpm><Value>135</Value></HeartRateBpm>
            <Cadence>80</Cadence>
          </Trackpoint>
          <Trackpoint>
            <Time>2026-06-25T19:57:00Z</Time>
            <Position>
              <LatitudeDegrees>44.855855</LatitudeDegrees>
              <LongitudeDegrees>7.630076</LongitudeDegrees>
            </Position>
            <AltitudeMeters>373.0</AltitudeMeters>
            <DistanceMeters>26527.2</DistanceMeters>
            <HeartRateBpm><Value>134</Value></HeartRateBpm>
            <Cadence>76</Cadence>
          </Trackpoint>
          <Trackpoint>
            <Time>2026-06-25T19:58:00Z</Time>
            <Position>
              <LatitudeDegrees>44.853301</LatitudeDegrees>
              <LongitudeDegrees>7.633055</LongitudeDegrees>
            </Position>
            <AltitudeMeters>362.6</AltitudeMeters>
            <DistanceMeters>26895.6</DistanceMeters>
            <HeartRateBpm><Value>132</Value></HeartRateBpm>
            <Cadence>89</Cadence>
          </Trackpoint>
          <Trackpoint>
            <Time>2026-06-25T19:59:00Z</Time>
            <Position>
              <LatitudeDegrees>44.850584</LatitudeDegrees>
              <LongitudeDegrees>7.635729</LongitudeDegrees>
            </Position>
            <AltitudeMeters>352.0</AltitudeMeters>
            <DistanceMeters>27264.0</DistanceMeters>
            <HeartRateBpm><Value>134</Value></HeartRateBpm>
            <Cadence>85</Cadence>
          </Trackpoint>
          <Trackpoint>
            <Time>2026-06-25T20:00:00Z</Time>
            <Position>
              <LatitudeDegrees>44.847998</LatitudeDegrees>
              <LongitudeDegrees>7.638652</LongitudeDegrees>
            </Position>
            <AltitudeMeters>341.3</AltitudeMeters>
            <DistanceMeters>27632.5</DistanceMeters>
            <HeartRateBpm><Value>130</Value></HeartRateBpm>
            <Cadence>83</Cadence>
          </Trackpoint>
          <Trackpoint>
            <Time>2026-06-25T20:01:00Z</Time>
            <Position>
              <LatitudeDegrees>44.845455</LatitudeDegrees>
              <LongitudeDegrees>7.641647</LongitudeDegrees>
            </Position>
            <AltitudeMeters>330.4</AltitudeMeters>
            <DistanceMeters>28000.9</DistanceMeters>
            <HeartRateBpm><Value>128</Value></HeartRateBpm>
            <Cadence>89</Cadence>
          </Trackpoint>
          <Trackpoint>
            <Time>2026-06-25T20:02:00Z</Time>
            <Position>
              <LatitudeDegrees>44.843101</LatitudeDegrees>
              <LongitudeDegrees>7.644936</LongitudeDegrees>
            </Position>
            <AltitudeMeters>319.4</AltitudeMeters>
            <DistanceMeters>28369.3</DistanceMeters>
            <HeartRateBpm><Value>129</Value></HeartRateBpm>
            <Cadence>86</Cadence>
          </Trackpoint>
          <Trackpoint>
            <Time>2026-06-25T20:03:00Z</Time>
            <Position>
              <LatitudeDegrees>44.841325</LatitudeDegrees>
              <LongitudeDegrees>7.648881</LongitudeDegrees>
            </Position>
            <AltitudeMeters>308.2</AltitudeMeters>
            <DistanceMeters>28737.8</DistanceMeters>
            <HeartRateBpm><Value>130</Value></HeartRateBpm>
            <Cadence>78</Cadence>
          </Trackpoint>
          <Trackpoint>
            <Time>2026-06-25T20:04:00Z</Time>
            <Position>
              <LatitudeDegrees>44.839812</LatitudeDegrees>
              <LongitudeDegrees>7.653038</LongitudeDegrees>
            </Position>
            <AltitudeMeters>297.0</AltitudeMeters>
            <DistanceMeters>29106.2</DistanceMeters>
            <HeartRateBpm><Value>131</Value></HeartRateBpm>
            <Cadence>83</Cadence>
          </Trackpoint>
          <Trackpoint>
            <Time>2026-06-25T20:05:00Z</Time>
            <Position>
              <LatitudeDegrees>44.838884</LatitudeDegrees>
              <LongitudeDegrees>7.657524</LongitudeDegrees>
            </Position>
            <AltitudeMeters>285.7</AltitudeMeters>
            <DistanceMeters>29474.6</DistanceMeters>
            <HeartRateBpm><Value>130</Value></HeartRateBpm>
            <Cadence>90</Cadence>
          </Trackpoint>
          <Trackpoint>
            <Time>2026-06-25T20:06:00Z</Time>
            <Position>
              <LatitudeDegrees>44.837984</LatitudeDegrees>
              <LongitudeDegrees>7.662021</LongitudeDegrees>
            </Position>
            <AltitudeMeters>274.3</AltitudeMeters>
            <DistanceMeters>29843.1</DistanceMeters>
            <HeartRateBpm><Value>129</Value></HeartRateBpm>
            <Cadence>86</Cadence>
          </Trackpoint>
          <Trackpoint>
            <Time>2026-06-25T20:07:00Z</Time>
            <Position>
              <LatitudeDegrees>44.83704</LatitudeDegrees>
              <LongitudeDegrees>7.6665</LongitudeDegrees>
            </Position>
            <AltitudeMeters>262.9</AltitudeMeters>
            <DistanceMeters>30211.5</DistanceMeters>
            <HeartRateBpm><Value>126</Value></HeartRateBpm>
            <Cadence>91</Cadence>
          </Trackpoint>
          <Trackpoint>
            <Time>2026-06-25T20:08:00Z</Time>
            <Position>
              <LatitudeDegrees>44.83566</LatitudeDegrees>
              <LongitudeDegrees>7.670748</LongitudeDegrees>
            </Position>
            <AltitudeMeters>251.5</AltitudeMeters>
            <DistanceMeters>30579.9</DistanceMeters>
            <HeartRateBpm><Value>133</Value></HeartRateBpm>
            <Cadence>96</Cadence>
          </Trackpoint>
          <Trackpoint>
            <Time>2026-06-25T20:09:00Z</Time>
            <Position>
              <LatitudeDegrees>44.834215</LatitudeDegrees>
              <LongitudeDegrees>7.674953</LongitudeDegrees>
            </Position>
            <AltitudeMeters>240.0</AltitudeMeters>
            <DistanceMeters>30948.4</DistanceMeters>
            <HeartRateBpm><Value>135</Value></HeartRateBpm>
            <Cadence>84</Cadence>
          </Trackpoint>
        </Track>
      </Lap>
      <Creator xsi:type="Device_t">
        <Name>Garmin Fenix 7</Name>
      </Creator>
    </Activity>
  </Activities>
  <Author xsi:type="Application_t"><Name>Garmin Connect</Name></Author>
</TrainingCenterDatabase>
