<?xml version="1.0" encoding="UTF-8"?>
<gpx creator="komoot - https://www.komoot.com" version="1.1" xmlns="http://www.topografix.com/GPX/1/1" xmlns:gpxtpx="http://www.garmin.com/xmlschemas/TrackPointExtension/v1">
  <metadata>
    <time>2026-06-11T18:15:00Z</time>
    <name>Easy run</name>
  </metadata>
  <trk>
    <name>Easy run</name>
    <type>running</type>
    <trkseg>
      <trkpt lat="45.054853" lon="7.672011">
        <ele>240.0</ele>
        <time>2026-06-11T18:15:00Z</time>
        <extensions><gpxtpx:TrackPointExtension><gpxtpx:hr>83</gpxtpx:hr><gpxtpx:cad>85</gpxtpx:cad></gpxtpx:TrackPointExtension></extensions>
      </trkpt>
      <trkpt lat="45.054764" lon="7.669188">
        <ele>300.9</ele>
        <time>2026-06-11T18:16:00Z</time>
        <extensions><gpxtpx:TrackPointExtension><gpxtpx:hr>170</gpxtpx:hr><gpxtpx:cad>85</gpxtpx:cad></gpxtpx:TrackPointExtension></extensions>
      </trkpt>
      <trkpt lat="45.054484" lon="7.666389">
        <ele>361.1</ele>
        <time>2026-06-11T18:17:00Z</time>
        <extensions><gpxtpx:TrackPointExtension><gpxtpx:hr>190</gpxtpx:hr><gpxtpx:cad>87</gpxtpx:cad></gpxtpx:TrackPointExtension></extensions>
      </trkpt>
      <trkpt lat="45.054364" lon="7.663568">
        <ele>419.6</ele>
        <time>2026-06-11T18:18:00Z</time>
        <extensions><gpxtpx:TrackPointExtension><gpxtpx:hr>190</gpxtpx:hr><gpxtpx:cad>85</gpxtpx:cad></gpxtpx:TrackPointExtension></extensions>
      </trkpt>
      <trkpt lat="45.054282" lon="7.660744">
        <ele>475.6</ele>
        <time>2026-06-11T18:19:00Z</time>
        <extensions><gpxtpx:TrackPointExtension><gpxtpx:hr>190</gpxtpx:hr><gpxtpx:cad>89</gpxtpx:cad></gpxtpx:TrackPointExtension></extensions>
      </trkpt>
      <trkpt lat="45.054443" lon="7.657927">
        <ele>528.5</ele>
        <time>2026-06-11T18:20:00Z</time>
        <extensions><gpxtpx:TrackPointExtension><gpxtpx:hr>190</gpxtpx:hr><gpxtpx:cad>91</gpxtpx:cad></gpxtpx:TrackPointExtension></extensions>
      </trkpt>
      <trkpt lat="45.054937" lon="7.655188">
        <ele>577.5</ele>
        <time>2026-06-11T18:21:00Z</time>
        <extensions><gpxtpx:TrackPointExtension><gpxtpx:hr>190</gpxtpx:hr><gpxtpx:cad>86</gpxtpx:cad></gpxtpx:TrackPointExtension></extensions>
      </trkpt>
      <trkpt lat="45.055361" lon="7.652426">
        <ele>621.9</ele>
        <time>2026-06-11T18:22:00Z</time>
        <extensions><gpxtpx:TrackPointExtension><gpxtpx:hr>188</gpxtpx:hr><gpxtpx:cad>91</gpxtpx:cad></gpxtpx:TrackPointExtension></extensions>
      </trkpt>
      <trkpt lat="45.05595" lon="7.649726">
        <ele>661.1</ele>
        <time>2026-06-11T18:23:00Z</time>
        <extensions><gpxtpx:TrackPointExtension><gpxtpx:hr>188</gpxtpx:hr><gpxtpx:cad>85</gpxtpx:cad></gpxtpx:TrackPointExtension></extensions>
      </trkpt>
      <trkpt lat="45.0565" lon="7.647008">
        <ele>694.7</ele>
        <time>2026-06-11T18:24:00Z</time>
        <extensions><gpxtpx:TrackPointExtension><gpxtpx:hr>181</gpxtpx:hr><gpxtpx:cad>82</gpxtpx:cad></gpxtpx:TrackPointExtension></extensions>
      </trkpt>
      <trkpt lat="45.056985" lon="7.644267">
        <ele>722.1</ele>
        <time>2026-06-11T18:25:00Z</time>
        <extensions><gpxtpx:TrackPointExtension><gpxtpx:hr>179</gpxtpx:hr><gpxtpx:cad>85</gpxtpx:cad></gpxtpx:TrackPointExtension></extensions>
      </trkpt>
      <trkpt lat="45.057174" lon="7.641453">
        <ele>742.9</ele>
        <time>2026-06-11T18:26:00Z</time>
        <extensions><gpxtpx:TrackPointExtension><gpxtpx:hr>173</gpxtpx:hr><gpxtpx:cad>89</gpxtpx:cad></gpxtpx:TrackPointExtension></extensions>
      </trkpt>
      <trkpt lat="45.057206" lon="7.638627">
        <ele>757.0</ele>
        <time>2026-06-11T18:27:00Z</time>
        <extensions><gpxtpx:TrackPointExtension><gpxtpx:hr>165</gpxtpx:hr><gpxtpx:cad>85</gpxtpx:cad></gpxtpx:TrackPointExtension></extensions>
      </trkpt>
      <trkpt lat="45.057173" lon="7.635801">
        <ele>764.1</ele>
        <time>2026-06-11T18:28:00Z</time>
        <extensions><gpxtpx:TrackPointExtension><gpxtpx:hr>157</gpxtpx:hr><gpxtpx:cad>87</gpxtpx:cad></gpxtpx:TrackPointExtension></extensions>
      </trkpt>
      <trkpt lat="45.057206" lon="7.632975">
        <ele>764.1</ele>
        <time>2026-06-11T18:29:00Z</time>
        <extensions><gpxtpx:TrackPointExtension><gpxtpx:hr>155</gpxtpx:hr><gpxtpx:cad>88</gpxtpx:cad></gpxtpx:TrackPointExtension></extensions>
      </trkpt>
      <trkpt lat="45.05746" lon="7.630171">
        <ele>757.0</ele>
        <time>2026-06-11T18:30:00Z</time>
        <extensions><gpxtpx:TrackPointExtension><gpxtpx:hr>138</gpxtpx:hr><gpxtpx:cad>83</gpxtpx:cad></gpxtpx:TrackPointExtension></extensions>
      </trkpt>
      <trkpt lat="45.057713" lon="7.627367">
        <ele>742.9</ele>
        <time>2026-06-11T18:31:00Z</time>
        <extensions><gpxtpx:TrackPointExtension><gpxtpx:hr>135</gpxtpx:hr><gpxtpx:cad>84</gpxtpx:cad></gpxtpx:TrackPointExtension></extensions>
      </trkpt>
      <trkpt lat="45.05781" lon="7.624544">
        <ele>722.1</ele>
        <time>2026-06-11T18:32:00Z</time>
        <extensions><gpxtpx:TrackPointExtension><gpxtpx:hr>132</gpxtpx:hr><gpxtpx:cad>90</gpxtpx:cad></gpxtpx:TrackPointExtension></extensions>
      </trkpt>
      <trkpt lat="45.058189" lon="7.621769">
        <ele>694.7</ele>
        <time>2026-06-11T18:33:00Z</time>
        <extensions><gpxtpx:TrackPointExtension><gpxtpx:hr>125</gpxtpx:hr><gpxtpx:cad>84</gpxtpx:cad></gpxtpx:TrackPointExtension></extensions>
      </trkpt>
      <trkpt lat="45.058299" lon="7.618947">
        <ele>661.1</ele>
        <time>2026-06-11T18:34:00Z</time>
        <extensions><gpxtpx:TrackPointExtension><gpxtpx:hr>121</gpxtpx:hr><gpxtpx:cad>83</gpxtpx:cad></gpxtpx:TrackPointExtension></extensions>
      </trkpt>
      <trkpt lat="45.058455" lon="7.616129">
        <ele>621.9</ele>
        <time>2026-06-11T18:35:00Z</time>
        <extensions><gpxtpx:TrackPointExtension><gpxtpx:hr>115</gpxtpx:hr><gpxtpx:cad>89</gpxtpx:cad></gpxtpx:TrackPointExtension></extensions>
      </trkpt>
      <trkpt lat="45.058743" lon="7.613332">
        <ele>577.5</ele>
        <time>2026-06-11T18:36:00Z</time>
        <extensions><gpxtpx:TrackPointExtension><gpxtpx:hr>114</gpxtpx:hr><gpxtpx:cad>86</gpxtpx:cad></gpxtpx:TrackPointExtension></extensions>
      </trkpt>
      <trkpt lat="45.058975" lon="7.610525">
        <ele>528.5</ele>
        <time>2026-06-11T18:37:00Z</time>
        <extensions><gpxtpx:TrackPointExtension><gpxtpx:hr>99</gpxtpx:hr><gpxtpx:cad>85</gpxtpx:cad></gpxtpx:TrackPointExtension></extensions>
      </trkpt>
      <trkpt lat="45.059172" lon="7.607712">
        <ele>475.6</ele>
        <time>2026-06-11T18:38:00Z</time>
        <extensions><gpxtpx:TrackPointExtension><gpxtpx:hr>97</gpxtpx:hr><gpxtpx:cad>92</gpxtpx:cad></gpxtpx:TrackPointExtension></extensions>
      </trkpt>
      <trkpt lat="45.059078" lon="7.604889">
        <ele>419.6</ele>
        <time>2026-06-11T18:39:00Z</time>
        <extensions><gpxtpx:TrackPointExtension><gpxtpx:hr>95</gpxtpx:hr><gpxtpx:cad>89</gpxtpx:cad></gpxtpx:TrackPointExtension></extensions>
      </trkpt>
      <trkpt lat="45.05924" lon="7.602071">
        <ele>361.1</ele>
        <time>2026-06-11T18:40:00Z</time>
        <extensions><gpxtpx:TrackPointExtension><gpxtpx:hr>95</gpxtpx:hr><gpxtpx:cad>84</gpxtpx:cad></gpxtpx:TrackPointExtension></extensions>
      </trkpt>
      <trkpt lat="45.059109" lon="7.599251">
        <ele>300.9</ele>
        <time>2026-06-11T18:41:00Z</time>
        <extensions><gpxtpx:TrackPointExtension><gpxtpx:hr>95</gpxtpx:hr><gpxtpx:cad>86</gpxtpx:cad></gpxtpx:TrackPointExtension></extensions>
      </trkpt>
      <trkpt lat="45.059012" lon="7.596428">
        <ele>240.0</ele>
        <time>2026-06-11T18:42:00Z</time>
        <extensions><gpxtpx:TrackPointExtension><gpxtpx:hr>92</gpxtpx:hr><gpxtpx:cad>87</gpxtpx:cad></gpxtpx:TrackPointExtension></extensions>
      </trkpt>
    </trkseg>
  </trk>
</gpx>
