<?xml version="1.0" encoding="UTF-8"?>
<TrainingCenterDatabase xmlns="http://www.garmin.com/xmlschemas/TrainingCenterDatabase/v2" xmlns:ns3="http://www.garmin.com/xmlschemas/ActivityExtension/v2" xmlns:xsi="http://www.w3.org/2001/XMLSchema-instance">
  <Activities>
    <Activity Sport="Other">
      <Id>2026-05-28T00:00:00Z</Id>
      <Lap StartTime="2026-05-28T00:00:00Z">
        <TotalTimeSeconds>2400.0</TotalTimeSeconds>
        <DistanceMeters>2835.3</DistanceMeters>
        <Calories>416</Calories>
        <AverageHeartRateBpm><Value>124</Value></AverageHeartRateBpm>
        <MaximumHeartRateBpm><Value>190</Value></MaximumHeartRateBpm>
        <Intensity>Active</Intensity>
        <Notes>Hike exported to TCX</Notes>
        <Track>
          <Trackpoint>
            <Time>2026-05-28T00:00:00Z</Time>
            <Position>
              <LatitudeDegrees>45.08746</LatitudeDegrees>
              <LongitudeDegrees>7.705925</LongitudeDegrees>
            </Position>
            <AltitudeMeters>240.0</AltitudeMeters>
            <DistanceMeters>0.0</DistanceMeters>
            <HeartRateBpm><Value>80</Value></HeartRateBpm>
          </Trackpoint>
          <Trackpoint>
            <Time>2026-05-28T00:01:00Z</Time>
            <Position>
              <LatitudeDegrees>45.086874</LatitudeDegrees>
              <LongitudeDegrees>7.70557</LongitudeDegrees>
            </Position>
            <AltitudeMeters>268.9</AltitudeMeters>
            <DistanceMeters>70.9</DistanceMeters>
            <HeartRateBpm><Value>171</Value></HeartRateBpm>
          </Trackpoint>
          <Trackpoint>
            <Time>2026-05-28T00:02:00Z</Time>
            <Position>
              <LatitudeDegrees>45.086292</LatitudeDegrees>
              <LongitudeDegrees>7.705203</LongitudeDegrees>
            </Position>
            <AltitudeMeters>297.5</AltitudeMeters>
            <DistanceMeters>141.8</DistanceMeters>
            <HeartRateBpm><Value>190</Value></HeartRateBpm>
          </Trackpoint>
          <Trackpoint>
            <Time>2026-05-28T00:03:00Z</Time>
            <Position>
              <LatitudeDegrees>45.085696</LatitudeDegrees>
              <LongitudeDegrees>7.70488</LongitudeDegrees>
            </Position>
            <AltitudeMeters>325.8</AltitudeMeters>
            <DistanceMeters>212.6</DistanceMeters>
            <HeartRateBpm><Value>190</Value></HeartRateBpm>
          </Trackpoint>
          <Trackpoint>
            <Time>2026-05-28T00:04:00Z</Time>
            <Position>
              <LatitudeDegrees>45.085095</LatitudeDegrees>
              <LongitudeDegrees>7.704579</LongitudeDegrees>
            </Position>
            <AltitudeMeters>353.6</AltitudeMeters>
            <DistanceMeters>283.5</DistanceMeters>
            <HeartRateBpm><Value>190</Value></HeartRateBpm>
          </Trackpoint>
          <Trackpoint>
            <Time>2026-05-28T00:05:00Z</Time>
            <Position>
              <LatitudeDegrees>45.084515</LatitudeDegrees>
              <LongitudeDegrees>7.704206</LongitudeDegrees>
            </Position>
            <AltitudeMeters>380.7</AltitudeMeters>
            <DistanceMeters>354.4</DistanceMeters>
            <HeartRateBpm><Value>190</Value></HeartRateBpm>
          </Trackpoint>
          <Trackpoint>
            <Time>2026-05-28T00:06:00Z</Time>
            <Position>
              <LatitudeDegrees>45.083942</LatitudeDegrees>
              <LongitudeDegrees>7.703809</LongitudeDegrees>
            </Position>
            <AltitudeMeters>406.9</AltitudeMeters>
            <DistanceMeters>425.3</DistanceMeters>
            <HeartRateBpm><Value>190</Value></HeartRateBpm>
          </Trackpoint>
          <Trackpoint>
            <Time>2026-05-28T00:07:00Z</Time>
            <Position>
              <LatitudeDegrees>45.083391</LatitudeDegrees>
              <LongitudeDegrees>7.703355</LongitudeDegrees>
            </Position>
            <AltitudeMeters>432.1</AltitudeMeters>
            <DistanceMeters>496.2</DistanceMeters>
            <HeartRateBpm><Value>190</Value></HeartRateBpm>
          </Trackpoint>
          <Trackpoint>
            <Time>2026-05-28T00:08:00Z</Time>
            <Position>
              <LatitudeDegrees>45.082791</LatitudeDegrees>
              <LongitudeDegrees>7.703051</LongitudeDegrees>
            </Position>
            <AltitudeMeters>456.2</AltitudeMeters>
            <DistanceMeters>567.1</DistanceMeters>
            <HeartRateBpm><Value>184</Value></HeartRateBpm>
          </Trackpoint>
          <Trackpoint>
            <Time>2026-05-28T00:09:00Z</Time>
            <Position>
              <LatitudeDegrees>45.082171</LatitudeDegrees>
              <LongitudeDegrees>7.70284</LongitudeDegrees>
            </Position>
            <AltitudeMeters>478.8</AltitudeMeters>
            <DistanceMeters>637.9</DistanceMeters>
            <HeartRateBpm><Value>182</Value></HeartRateBpm>
          </Trackpoint>
          <Trackpoint>
            <Time>2026-05-28T00:10:00Z</Time>
            <Position>
              <LatitudeDegrees>45.081572</LatitudeDegrees>
              <LongitudeDegrees>7.702533</LongitudeDegrees>
            </Position>
            <AltitudeMeters>500.0</AltitudeMeters>
            <DistanceMeters>708.8</DistanceMeters>
            <HeartRateBpm><Value>176</Value></HeartRateBpm>
          </Trackpoint>
          <Trackpoint>
            <Time>2026-05-28T00:11:00Z</Time>
            <Position>
              <LatitudeDegrees>45.080961</LatitudeDegrees>
              <LongitudeDegrees>7.702274</LongitudeDegrees>
            </Position>
            <AltitudeMeters>519.6</AltitudeMeters>
            <DistanceMeters>779.7</DistanceMeters>
            <HeartRateBpm><Value>175</Value></HeartRateBpm>
          </Trackpoint>
          <Trackpoint>
            <Time>2026-05-28T00:12:00Z</Time>
            <Position>
              <LatitudeDegrees>45.08034</LatitudeDegrees>
              <LongitudeDegrees>7.70207</LongitudeDegrees>
            </Position>
            <AltitudeMeters>537.5</AltitudeMeters>
            <DistanceMeters>850.6</DistanceMeters>
            <HeartRateBpm><Value>165</Value></HeartRateBpm>
          </Trackpoint>
          <Trackpoint>
            <Time>2026-05-28T00:13:00Z</Time>
            <Position>
              <LatitudeDegrees>45.079746</LatitudeDegrees>
              <LongitudeDegrees>7.701742</LongitudeDegrees>
            </Position>
            <AltitudeMeters>553.5</AltitudeMeters>
            <DistanceMeters>921.5</DistanceMeters>
            <HeartRateBpm><Value>168</Value></HeartRateBpm>
          </Trackpoint>
          <Trackpoint>
            <Time>2026-05-28T00:14:00Z</Time>
            <Position>
              <LatitudeDegrees>45.079137</LatitudeDegrees>
              <LongitudeDegrees>7.701474</LongitudeDegrees>
            </Position>
            <AltitudeMeters>567.7</AltitudeMeters>
            <DistanceMeters>992.4</DistanceMeters>
            <HeartRateBpm><Value>158</Value></HeartRateBpm>
          </Trackpoint>
          <Trackpoint>
            <Time>2026-05-28T00:15:00Z</Time>
            <Position>
              <LatitudeDegrees>45.078511</LatitudeDegrees>
              <LongitudeDegrees>7.701305</LongitudeDegrees>
            </Position>
            <AltitudeMeters>579.7</AltitudeMeters>
            <DistanceMeters>1063.2</DistanceMeters>
            <HeartRateBpm><Value>154</Value></HeartRateBpm>
          </Trackpoint>
          <Trackpoint>
            <Time>2026-05-28T00:16:00Z</Time>
            <Position>
              <LatitudeDegrees>45.077876</LatitudeDegrees>
              <LongitudeDegrees>7.701228</LongitudeDegrees>
            </Position>
            <AltitudeMeters>589.7</AltitudeMeters>
            <DistanceMeters>1134.1</DistanceMeters>
            <HeartRateBpm><Value>144</Value></HeartRateBpm>
          </Trackpoint>
          <Trackpoint>
            <Time>2026-05-28T00:17:00Z</Time>
            <Position>
              <LatitudeDegrees>45.077239</LatitudeDegrees>
              <LongitudeDegrees>7.701248</LongitudeDegrees>
            </Position>
            <AltitudeMeters>597.6</AltitudeMeters>
            <DistanceMeters>1205.0</DistanceMeters>
            <HeartRateBpm><Value>136</Value></HeartRateBpm>
          </Trackpoint>
          <Trackpoint>
            <Time>2026-05-28T00:18:00Z</Time>
            <Position>
              <LatitudeDegrees>45.076628</LatitudeDegrees>
              <LongitudeDegrees>7.701508</LongitudeDegrees>
            </Position>
            <AltitudeMeters>603.2</AltitudeMeters>
            <DistanceMeters>1275.9</DistanceMeters>
            <HeartRateBpm><Value>134</Value></HeartRateBpm>
          </Trackpoint>
          <Trackpoint>
            <Time>2026-05-28T00:19:00Z</Time>
            <Position>
              <LatitudeDegrees>45.075992</LatitudeDegrees>
              <LongitudeDegrees>7.701552</LongitudeDegrees>
            </Position>
            <AltitudeMeters>606.6</AltitudeMeters>
            <DistanceMeters>1346.8</DistanceMeters>
            <HeartRateBpm><Value>127</Value></HeartRateBpm>
          </Trackpoint>
          <Trackpoint>
            <Time>2026-05-28T00:20:00Z</Time>
            <Position>
              <LatitudeDegrees>45.075376</LatitudeDegrees>
              <LongitudeDegrees>7.701785</LongitudeDegrees>
            </Position>
            <AltitudeMeters>607.7</AltitudeMeters>
            <DistanceMeters>1417.6</DistanceMeters>
            <HeartRateBpm><Value>112</Value></HeartRateBpm>
          </Trackpoint>
          <Trackpoint>
            <Time>2026-05-28T00:21:00Z</Time>
            <Position>
              <LatitudeDegrees>45.074762</LatitudeDegrees>
              <LongitudeDegrees>7.702028</LongitudeDegrees>
            </Position>
            <AltitudeMeters>606.6</AltitudeMeters>
            <DistanceMeters>1488.5</DistanceMeters>
            <HeartRateBpm><Value>111</Value></HeartRateBpm>
          </Trackpoint>
          <Trackpoint>
            <Time>2026-05-28T00:22:00Z</Time>
            <Position>
              <LatitudeDegrees>45.074148</LatitudeDegrees>
              <LongitudeDegrees>7.702268</LongitudeDegrees>
            </Position>
            <AltitudeMeters>603.2</AltitudeMeters>
            <DistanceMeters>1559.4</DistanceMeters>
            <HeartRateBpm><Value>103</Value></HeartRateBpm>
          </Trackpoint>
          <Trackpoint>
            <Time>2026-05-28T00:23:00Z</Time>
            <Position>
              <LatitudeDegrees>45.073518</LatitudeDegrees>
              <LongitudeDegrees>7.702413</LongitudeDegrees>
            </Position>
            <AltitudeMeters>597.6</AltitudeMeters>
            <DistanceMeters>1630.3</DistanceMeters>
            <HeartRateBpm><Value>96</Value></HeartRateBpm>
          </Trackpoint>
          <Trackpoint>
            <Time>2026-05-28T00:24:00Z</Time>
            <Position>
              <LatitudeDegrees>45.072913</LatitudeDegrees>
              <LongitudeDegrees>7.702694</LongitudeDegrees>
            </Position>
            <AltitudeMeters>589.7</AltitudeMeters>
            <DistanceMeters>1701.2</DistanceMeters>
            <HeartRateBpm><Value>86</Value></HeartRateBpm>
          </Trackpoint>
          <Trackpoint>
            <Time>2026-05-28T00:25:00Z</Time>
            <Position>
              <LatitudeDegrees>45.072299</LatitudeDegrees>
              <LongitudeDegrees>7.702938</LongitudeDegrees>
            </Position>
            <AltitudeMeters>579.7</AltitudeMeters>
            <DistanceMeters>1772.1</DistanceMeters>
            <HeartRateBpm><Value>84</Value></HeartRateBpm>
          </Trackpoint>
          <Trackpoint>
            <Time>2026-05-28T00:26:00Z</Time>
            <Position>
              <LatitudeDegrees>45.071713</LatitudeDegrees>
              <LongitudeDegrees>7.703295</LongitudeDegrees>
            </Position>
            <AltitudeMeters>567.7</AltitudeMeters>
            <DistanceMeters>1842.9</DistanceMeters>
            <HeartRateBpm><Value>80</Value></HeartRateBpm>
          </Trackpoint>
          <Trackpoint>
            <Time>2026-05-28T00:27:00Z</Time>
            <Position>
              <LatitudeDegrees>45.071162</LatitudeDegrees>
              <LongitudeDegrees>7.703748</LongitudeDegrees>
            </Position>
            <AltitudeMeters>553.5</AltitudeMeters>
            <DistanceMeters>1913.8</DistanceMeters>
            <HeartRateBpm><Value>80</Value></HeartRateBpm>
          </Trackpoint>
          <Trackpoint>
            <Time>2026-05-28T00:28:00Z</Time>
            <Position>
              <LatitudeDegrees>45.070629</LatitudeDegrees>
              <LongitudeDegrees>7.704243</LongitudeDegrees>
            </Position>
            <AltitudeMeters>537.5</AltitudeMeters>
            <DistanceMeters>1984.7</DistanceMeters>
            <HeartRateBpm><Value>80</Value></HeartRateBpm>
          </Trackpoint>
          <Trackpoint>
            <Time>2026-05-28T00:29:00Z</Time>
            <Position>
              <LatitudeDegrees>45.070048</LatitudeDegrees>
              <LongitudeDegrees>7.704615</LongitudeDegrees>
            </Position>
            <AltitudeMeters>519.6</AltitudeMeters>
            <DistanceMeters>2055.6</DistanceMeters>
            <HeartRateBpm><Value>80</Value></HeartRateBpm>
          </Trackpoint>
          <Trackpoint>
            <Time>2026-05-28T00:30:00Z</Time>
            <Position>
              <LatitudeDegrees>45.069458</LatitudeDegrees>
              <LongitudeDegrees>7.704955</LongitudeDegrees>
            </Position>
            <AltitudeMeters>500.0</AltitudeMeters>
            <DistanceMeters>2126.5</DistanceMeters>
            <HeartRateBpm><Value>80</Value></HeartRateBpm>
          </Trackpoint>
          <Trackpoint>
            <Time>2026-05-28T00:31:00Z</Time>
            <Position>
              <LatitudeDegrees>45.068891</LatitudeDegrees>
              <LongitudeDegrees>7.70537</LongitudeDegrees>
            </Position>
            <AltitudeMeters>478.8</AltitudeMeters>
            <DistanceMeters>2197.4</DistanceMeters>
            <HeartRateBpm><Value>80</Value></HeartRateBpm>
          </Trackpoint>
          <Trackpoint>
            <Time>2026-05-28T00:32:00Z</Time>
            <Position>
              <LatitudeDegrees>45.068299</LatitudeDegrees>
              <LongitudeDegrees>7.705701</LongitudeDegrees>
            </Position>
            <AltitudeMeters>456.2</AltitudeMeters>
            <DistanceMeters>2268.2</DistanceMeters>
            <HeartRateBpm><Value>80</Value></HeartRateBpm>
          </Trackpoint>
          <Trackpoint>
            <Time>2026-05-28T00:33:00Z</Time>
            <Position>
              <LatitudeDegrees>45.067667</LatitudeDegrees>
              <LongitudeDegrees>7.705826</LongitudeDegrees>
            </Position>
            <AltitudeMeters>432.1</AltitudeMeters>
            <DistanceMeters>2339.1</DistanceMeters>
            <HeartRateBpm><Value>80</Value></HeartRateBpm>
          </Trackpoint>
          <Trackpoint>
            <Time>2026-05-28T00:34:00Z</Time>
            <Position>
              <LatitudeDegrees>45.067039</LatitudeDegrees>
              <LongitudeDegrees>7.70598</LongitudeDegrees>
            </Position>
            <AltitudeMeters>406.9</AltitudeMeters>
            <DistanceMeters>2410.0</DistanceMeters>
            <HeartRateBpm><Value>80</Value></HeartRateBpm>
          </Trackpoint>
          <Trackpoint>
            <Time>2026-05-28T00:35:00Z</Time>
            <Position>
              <LatitudeDegrees>45.066402</LatitudeDegrees>
              <LongitudeDegrees>7.705998</LongitudeDegrees>
            </Position>
            <AltitudeMeters>380.7</AltitudeMeters>
            <DistanceMeters>2480.9</DistanceMeters>
            <HeartRateBpm><Value>80</Value></HeartRateBpm>
          </Trackpoint>
          <Trackpoint>
            <Time>2026-05-28T00:36:00Z</Time>
            <Position>
              <LatitudeDegrees>45.065767</LatitudeDegrees>
              <LongitudeDegrees>7.706087</LongitudeDegrees>
            </Position>
            <AltitudeMeters>353.6</AltitudeMeters>
            <DistanceMeters>2551.8</DistanceMeters>
            <HeartRateBpm><Value>80</Value></HeartRateBpm>
          </Trackpoint>
          <Trackpoint>
            <Time>2026-05-28T00:37:00Z</Time>
            <Position>
              <LatitudeDegrees>45.065136</LatitudeDegrees>
              <LongitudeDegrees>7.706212</LongitudeDegrees>
            </Position>
            <AltitudeMeters>325.8</AltitudeMeters>
            <DistanceMeters>2622.7</DistanceMeters>
            <HeartRateBpm><Value>80</Value></HeartRateBpm>
          </Trackpoint>
          <Trackpoint>
            <Time>2026-05-28T00:38:00Z</Time>
            <Position>
              <LatitudeDegrees>45.064499</LatitudeDegrees>
              <LongitudeDegrees>7.706235</LongitudeDegrees>
            </Position>
            <AltitudeMeters>297.5</AltitudeMeters>
            <DistanceMeters>2693.5</DistanceMeters>
            <HeartRateBpm><Value>80</Value></HeartRateBpm>
          </Trackpoint>
          <Trackpoint>
            <Time>2026-05-28T00:39:00Z</Time>
            <Position>
              <LatitudeDegrees>45.063864</LatitudeDegrees>
              <LongitudeDegrees>7.706155</LongitudeDegrees>
            </Position>
            <AltitudeMeters>268.9</AltitudeMeters>
            <DistanceMeters>2764.4</DistanceMeters>
            <HeartRateBpm><Value>80</Value></HeartRateBpm>
          </Trackpoint>
          <Trackpoint>
            <Time>2026-05-28T00:40:00Z</Time>
            <Position>
              <LatitudeDegrees>45.063227</LatitudeDegrees>
              <LongitudeDegrees>7.706121</LongitudeDegrees>
            </Position>
            <AltitudeMeters>240.0</AltitudeMeters>
            <DistanceMeters>2835.3</DistanceMeters>
            <HeartRateBpm><Value>80</Value></HeartRateBpm>
          </Trackpoint>
        </Track>
      </Lap>
      <Creator xsi:type="Device_t">
        <Name>Garmin Forerunner 265</Name>
      </Creator>
    </Activity>
  </Activities>
  <Author xsi:type="Application_t"><Name>Garmin Connect</Name></Author>
</TrainingCenterDatabase>
