<?xml version="1.0" encoding="UTF-8"?>
<gpx creator="StravaGPX iPhone" version="1.1" xmlns="http://www.topografix.com/GPX/1/1" xmlns:gpxtpx="http://www.garmin.com/xmlschemas/TrackPointExtension/v1">
  <metadata>
    <time>2026-06-03T00:00:00Z</time>
    <name>Aborted ride</name>
  </metadata>
  <trk>
    <name>Aborted ride</name>
    <type>cycling</type>
    <trkseg>
      <trkpt lat="45.076882" lon="7.683771">
        <ele>240.0</ele>
        <time>2026-06-03T00:00:00Z</time>
        <extensions><gpxtpx:TrackPointExtension><gpxtpx:hr>80</gpxtpx:hr><gpxtpx:cad>72</gpxtpx:cad></gpxtpx:TrackPointExtension></extensions>
      </trkpt>
    </trkseg>
  </trk>
</gpx>
