<?xml version="1.0" encoding="UTF-8"?>
<gpx creator="StravaGPX Android" version="1.1" xmlns="http://www.topografix.com/GPX/1/1" xmlns:gpxtpx="http://www.garmin.com/xmlschemas/TrackPointExtension/v1">
  <metadata>
    <time>2026-06-25T00:00:00Z</time>
    <name>Ride without a strap</name>
  </metadata>
  <trk>
    <name>Ride without a strap</name>
    <type>cycling</type>
    <trkseg>
      <trkpt lat="45.070073" lon="7.69366">
        <ele>240.0</ele>
        <time>2026-06-25T00:00:00Z</time>
        <extensions><gpxtpx:TrackPointExtension><gpxtpx:cad>76</gpxtpx:cad></gpxtpx:TrackPointExtension></extensions>
      </trkpt>
      <trkpt lat="45.066623" lon="7.698789">
        <ele>297.5</ele>
        <time>2026-06-25T00:01:00Z</time>
        <extensions><gpxtpx:TrackPointExtension><gpxtpx:cad>84</gpxtpx:cad></gpxtpx:TrackPointExtension></extensions>
      </trkpt>
      <trkpt lat="45.064996" lon="7.700645">
        <ele>321.4</ele>
        <time>2026-06-25T00:02:00Z</time>
        <extensions><gpxtpx:TrackPointExtension><gpxtpx:cad>81</gpxtpx:cad></gpxtpx:TrackPointExtension></extensions>
      </trkpt>
      <trkpt lat="45.062265" lon="7.703006">
        <ele>357.5</ele>
        <time>2026-06-25T00:03:00Z</time>
        <extensions><gpxtpx:TrackPointExtension><gpxtpx:cad>77</gpxtpx:cad></gpxtpx:TrackPointExtension></extensions>
      </trkpt>
      <trkpt lat="45.060092" lon="7.703889">
        <ele>382.6</ele>
        <time>2026-06-25T00:04:00Z</time>
        <extensions><gpxtpx:TrackPointExtension><gpxtpx:cad>82</gpxtpx:cad></gpxtpx:TrackPointExtension></extensions>
      </trkpt>
      <trkpt lat="45.05749" lon="7.704906">
        <ele>412.0</ele>
        <time>2026-06-25T00:05:00Z</time>
        <extensions><gpxtpx:TrackPointExtension><gpxtpx:cad>86</gpxtpx:cad></gpxtpx:TrackPointExtension></extensions>
      </trkpt>
      <trkpt lat="45.05529" lon="7.706176">
        <ele>437.3</ele>
        <time>2026-06-25T00:06:00Z</time>
        <extensions><gpxtpx:TrackPointExtension><gpxtpx:cad>85</gpxtpx:cad></gpxtpx:TrackPointExtension></extensions>
      </trkpt>
      <trkpt lat="45.052613" lon="7.707354">
        <ele>466.3</ele>
        <time>2026-06-25T00:07:00Z</time>
        <extensions><gpxtpx:TrackPointExtension><gpxtpx:cad>78</gpxtpx:cad></gpxtpx:TrackPointExtension></extensions>
      </trkpt>
      <trkpt lat="45.050048" lon="7.707856">
        <ele>492.2</ele>
        <time>2026-06-25T00:08:00Z</time>
        <extensions><gpxtpx:TrackPointExtension><gpxtpx:cad>84</gpxtpx:cad></gpxtpx:TrackPointExtension></extensions>
      </trkpt>
      <trkpt lat="45.046994" lon="7.708178">
        <ele>521.6</ele>
        <time>2026-06-25T00:09:00Z</time>
        <extensions><gpxtpx:TrackPointExtension><gpxtpx:cad>91</gpxtpx:cad></gpxtpx:TrackPointExtension></extensions>
      </trkpt>
      <trkpt lat="45.044804" lon="7.708245">
        <ele>541.7</ele>
        <time>2026-06-25T00:10:00Z</time>
        <extensions><gpxtpx:TrackPointExtension><gpxtpx:cad>77</gpxtpx:cad></gpxtpx:TrackPointExtension></extensions>
      </trkpt>
      <trkpt lat="45.04143" lon="7.708004">
        <ele>571.0</ele>
        <time>2026-06-25T00:11:00Z</time>
        <extensions><gpxtpx:TrackPointExtension><gpxtpx:cad>89</gpxtpx:cad></gpxtpx:TrackPointExtension></extensions>
      </trkpt>
      <trkpt lat="45.039207" lon="7.707287">
        <ele>589.6</ele>
        <time>2026-06-25T00:12:00Z</time>
        <extensions><gpxtpx:TrackPointExtension><gpxtpx:cad>92</gpxtpx:cad></gpxtpx:TrackPointExtension></extensions>
      </trkpt>
      <trkpt lat="45.036242" lon="7.705893">
        <ele>613.3</ele>
        <time>2026-06-25T00:13:00Z</time>
        <extensions><gpxtpx:TrackPointExtension><gpxtpx:cad>80</gpxtpx:cad></gpxtpx:TrackPointExtension></extensions>
      </trkpt>
      <trkpt lat="45.033844" lon="7.703986">
        <ele>632.5</ele>
        <time>2026-06-25T00:14:00Z</time>
        <extensions><gpxtpx:TrackPointExtension><gpxtpx:cad>90</gpxtpx:cad></gpxtpx:TrackPointExtension></extensions>
      </trkpt>
      <trkpt lat="45.030898" lon="7.70257">
        <ele>652.2</ele>
        <time>2026-06-25T00:15:00Z</time>
        <extensions><gpxtpx:TrackPointExtension><gpxtpx:cad>85</gpxtpx:cad></gpxtpx:TrackPointExtension></extensions>
      </trkpt>
      <trkpt lat="45.027928" lon="7.701635">
        <ele>669.2</ele>
        <time>2026-06-25T00:16:00Z</time>
        <extensions><gpxtpx:TrackPointExtension><gpxtpx:cad>89</gpxtpx:cad></gpxtpx:TrackPointExtension></extensions>
      </trkpt>
      <trkpt lat="45.024561" lon="7.70127">
        <ele>685.4</ele>
        <time>2026-06-25T00:17:00Z</time>
        <extensions><gpxtpx:TrackPointExtension><gpxtpx:cad>86</gpxtpx:cad></gpxtpx:TrackPointExtension></extensions>
      </trkpt>
      <trkpt lat="45.021235" lon="7.701546">
        <ele>698.6</ele>
        <time>2026-06-25T00:18:00Z</time>
        <extensions><gpxtpx:TrackPointExtension><gpxtpx:cad>84</gpxtpx:cad></gpxtpx:TrackPointExtension></extensions>
      </trkpt>
      <trkpt lat="45.017707" lon="7.701727">
        <ele>709.3</ele>
        <time>2026-06-25T00:19:00Z</time>
        <extensions><gpxtpx:TrackPointExtension><gpxtpx:cad>77</gpxtpx:cad></gpxtpx:TrackPointExtension></extensions>
      </trkpt>
      <trkpt lat="45.013664" lon="7.701823">
        <ele>717.5</ele>
        <time>2026-06-25T00:20:00Z</time>
        <extensions><gpxtpx:TrackPointExtension><gpxtpx:cad>89</gpxtpx:cad></gpxtpx:TrackPointExtension></extensions>
      </trkpt>
      <trkpt lat="45.010087" lon="7.701845">
        <ele>721.0</ele>
        <time>2026-06-25T00:21:00Z</time>
        <extensions><gpxtpx:TrackPointExtension><gpxtpx:cad>93</gpxtpx:cad></gpxtpx:TrackPointExtension></extensions>
      </trkpt>
      <trkpt lat="45.005627" lon="7.702775">
        <ele>720.4</ele>
        <time>2026-06-25T00:22:00Z</time>
        <extensions><gpxtpx:TrackPointExtension><gpxtpx:cad>79</gpxtpx:cad></gpxtpx:TrackPointExtension></extensions>
      </trkpt>
      <trkpt lat="45.001148" lon="7.703744">
        <ele>714.1</ele>
        <time>2026-06-25T00:23:00Z</time>
        <extensions><gpxtpx:TrackPointExtension><gpxtpx:cad>88</gpxtpx:cad></gpxtpx:TrackPointExtension></extensions>
      </trkpt>
      <trkpt lat="44.996875" lon="7.704802">
        <ele>702.9</ele>
        <time>2026-06-25T00:24:00Z</time>
        <extensions><gpxtpx:TrackPointExtension><gpxtpx:cad>83</gpxtpx:cad></gpxtpx:TrackPointExtension></extensions>
      </trkpt>
      <trkpt lat="44.992531" lon="7.705212">
        <ele>686.7</ele>
        <time>2026-06-25T00:25:00Z</time>
        <extensions><gpxtpx:TrackPointExtension><gpxtpx:cad>90</gpxtpx:cad></gpxtpx:TrackPointExtension></extensions>
      </trkpt>
      <trkpt lat="44.987333" lon="7.705795">
        <ele>660.8</ele>
        <time>2026-06-25T00:26:00Z</time>
        <extensions><gpxtpx:TrackPointExtension><gpxtpx:cad>79</gpxtpx:cad></gpxtpx:TrackPointExtension></extensions>
      </trkpt>
      <trkpt lat="44.981035" lon="7.705936">
        <ele>620.9</ele>
        <time>2026-06-25T00:27:00Z</time>
        <extensions><gpxtpx:TrackPointExtension><gpxtpx:cad>87</gpxtpx:cad></gpxtpx:TrackPointExtension></extensions>
      </trkpt>
      <trkpt lat="44.974034" lon="7.707321">
        <ele>565.8</ele>
        <time>2026-06-25T00:28:00Z</time>
        <extensions><gpxtpx:TrackPointExtension><gpxtpx:cad>91</gpxtpx:cad></gpxtpx:TrackPointExtension></extensions>
      </trkpt>
      <trkpt lat="44.967224" lon="7.708963">
        <ele>503.0</ele>
        <time>2026-06-25T00:29:00Z</time>
        <extensions><gpxtpx:TrackPointExtension><gpxtpx:cad>79</gpxtpx:cad></gpxtpx:TrackPointExtension></extensions>
      </trkpt>
      <trkpt lat="44.959577" lon="7.710188">
        <ele>424.6</ele>
        <time>2026-06-25T00:30:00Z</time>
        <extensions><gpxtpx:TrackPointExtension><gpxtpx:cad>80</gpxtpx:cad></gpxtpx:TrackPointExtension></extensions>
      </trkpt>
    </trkseg>
  </trk>
</gpx>
