<?xml version="1.0" encoding="UTF-8"?>
<TrainingCenterDatabase xmlns="http://www.garmin.com/xmlschemas/TrainingCenterDatabase/v2" xmlns:ns3="http://www.garmin.com/xmlschemas/ActivityExtension/v2" xmlns:xsi="http://www.w3.org/2001/XMLSchema-instance">
  <Activities>
    <Activity Sport="Running">
      <Id>2026-06-10T02:00:00+02:00</Id>
      <Lap StartTime="2026-06-10T02:00:00+02:00">
        <TotalTimeSeconds>2400.0</TotalTimeSeconds>
        <DistanceMeters>5747.0</DistanceMeters>
        <Calories>571</Calories>
        <AverageHeartRateBpm><Value>160</Value></AverageHeartRateBpm>
        <MaximumHeartRateBpm><Value>175</Value></MaximumHeartRateBpm>
        <Intensity>Active</Intensity>
        <Notes>Late evening run</Notes>
        <Track>
          <Trackpoint>
            <Time>2026-06-10T02:00:00+02:00</Time>
            <Position>
              <LatitudeDegrees>45.081224</LatitudeDegrees>
              <LongitudeDegrees>7.679285</LongitudeDegrees>
            </Position>
            <AltitudeMeters>240.0</AltitudeMeters>
            <DistanceMeters>0.0</DistanceMeters>
            <HeartRateBpm><Value>86</Value></HeartRateBpm>
            <Extensions><ns3:TPX><ns3:RunCadence>87</ns3:RunCadence></ns3:TPX></Extensions>
          </Trackpoint>
          <Trackpoint>
            <Time>2026-06-10T02:01:00+02:00</Time>
            <Position>
              <LatitudeDegrees>45.082587</LatitudeDegrees>
              <LongitudeDegrees>7.681615</LongitudeDegrees>
            </Position>
            <AltitudeMeters>283.2</AltitudeMeters>
            <DistanceMeters>237.6</DistanceMeters>
            <HeartRateBpm><Value>159</Value></HeartRateBpm>
            <Extensions><ns3:TPX><ns3:RunCadence>81</ns3:RunCadence></ns3:TPX></Extensions>
          </Trackpoint>
          <Trackpoint>
            <Time>2026-06-10T02:02:00+02:00</Time>
            <Position>
              <LatitudeDegrees>45.083064</LatitudeDegrees>
              <LongitudeDegrees>7.682599</LongitudeDegrees>
            </Position>
            <AltitudeMeters>300.2</AltitudeMeters>
            <DistanceMeters>331.3</DistanceMeters>
            <HeartRateBpm><Value>157</Value></HeartRateBpm>
            <Extensions><ns3:TPX><ns3:RunCadence>91</ns3:RunCadence></ns3:TPX></Extensions>
          </Trackpoint>
          <Trackpoint>
            <Time>2026-06-10T02:03:00+02:00</Time>
            <Position>
              <LatitudeDegrees>45.083631</LatitudeDegrees>
              <LongitudeDegrees>7.683673</LongitudeDegrees>
            </Position>
            <AltitudeMeters>319.2</AltitudeMeters>
            <DistanceMeters>436.6</DistanceMeters>
            <HeartRateBpm><Value>171</Value></HeartRateBpm>
            <Extensions><ns3:TPX><ns3:RunCadence>83</ns3:RunCadence></ns3:TPX></Extensions>
          </Trackpoint>
          <Trackpoint>
            <Time>2026-06-10T02:04:00+02:00</Time>
            <Position>
              <LatitudeDegrees>45.084256</LatitudeDegrees>
              <LongitudeDegrees>7.684493</LongitudeDegrees>
            </Position>
            <AltitudeMeters>336.2</AltitudeMeters>
            <DistanceMeters>531.3</DistanceMeters>
            <HeartRateBpm><Value>164</Value></HeartRateBpm>
            <Extensions><ns3:TPX><ns3:RunCadence>80</ns3:RunCadence></ns3:TPX></Extensions>
          </Trackpoint>
          <Trackpoint>
            <Time>2026-06-10T02:05:00+02:00</Time>
            <Position>
              <LatitudeDegrees>45.084928</LatitudeDegrees>
              <LongitudeDegrees>7.685373</LongitudeDegrees>
            </Position>
            <AltitudeMeters>354.3</AltitudeMeters>
            <DistanceMeters>633.1</DistanceMeters>
            <HeartRateBpm><Value>165</Value></HeartRateBpm>
            <Extensions><ns3:TPX><ns3:RunCadence>82</ns3:RunCadence></ns3:TPX></Extensions>
          </Trackpoint>
          <Trackpoint>
            <Time>2026-06-10T02:06:00+02:00</Time>
            <Position>
              <LatitudeDegrees>45.085641</LatitudeDegrees>
              <LongitudeDegrees>7.686024</LongitudeDegrees>
            </Position>
            <AltitudeMeters>371.0</AltitudeMeters>
            <DistanceMeters>727.4</DistanceMeters>
            <HeartRateBpm><Value>166</Value></HeartRateBpm>
            <Extensions><ns3:TPX><ns3:RunCadence>85</ns3:RunCadence></ns3:TPX></Extensions>
          </Trackpoint>
          <Trackpoint>
            <Time>2026-06-10T02:07:00+02:00</Time>
            <Position>
              <LatitudeDegrees>45.086422</LatitudeDegrees>
              <LongitudeDegrees>7.686718</LongitudeDegrees>
            </Position>
            <AltitudeMeters>388.9</AltitudeMeters>
            <DistanceMeters>830.0</DistanceMeters>
            <HeartRateBpm><Value>165</Value></HeartRateBpm>
            <Extensions><ns3:TPX><ns3:RunCadence>92</ns3:RunCadence></ns3:TPX></Extensions>
          </Trackpoint>
          <Trackpoint>
            <Time>2026-06-10T02:08:00+02:00</Time>
            <Position>
              <LatitudeDegrees>45.087242</LatitudeDegrees>
              <LongitudeDegrees>7.687393</LongitudeDegrees>
            </Position>
            <AltitudeMeters>407.2</AltitudeMeters>
            <DistanceMeters>935.4</DistanceMeters>
            <HeartRateBpm><Value>168</Value></HeartRateBpm>
            <Extensions><ns3:TPX><ns3:RunCadence>91</ns3:RunCadence></ns3:TPX></Extensions>
          </Trackpoint>
          <Trackpoint>
            <Time>2026-06-10T02:09:00+02:00</Time>
            <Position>
              <LatitudeDegrees>45.087977</LatitudeDegrees>
              <LongitudeDegrees>7.687971</LongitudeDegrees>
            </Position>
            <AltitudeMeters>423.2</AltitudeMeters>
            <DistanceMeters>1028.9</DistanceMeters>
            <HeartRateBpm><Value>165</Value></HeartRateBpm>
            <Extensions><ns3:TPX><ns3:RunCadence>87</ns3:RunCadence></ns3:TPX></Extensions>
          </Trackpoint>
          <Trackpoint>
            <Time>2026-06-10T02:10:00+02:00</Time>
            <Position>
              <LatitudeDegrees>45.088731</LatitudeDegrees>
              <LongitudeDegrees>7.688347</LongitudeDegrees>
            </Position>
            <AltitudeMeters>438.2</AltitudeMeters>
            <DistanceMeters>1117.8</DistanceMeters>
            <HeartRateBpm><Value>162</Value></HeartRateBpm>
            <Extensions><ns3:TPX><ns3:RunCadence>82</ns3:RunCadence></ns3:TPX></Extensions>
          </Trackpoint>
          <Trackpoint>
            <Time>2026-06-10T02:11:00+02:00</Time>
            <Position>
              <LatitudeDegrees>45.089674</LatitudeDegrees>
              <LongitudeDegrees>7.68911</LongitudeDegrees>
            </Position>
            <AltitudeMeters>458.3</AltitudeMeters>
            <DistanceMeters>1238.5</DistanceMeters>
            <HeartRateBpm><Value>166</Value></HeartRateBpm>
            <Extensions><ns3:TPX><ns3:RunCadence>86</ns3:RunCadence></ns3:TPX></Extensions>
          </Trackpoint>
          <Trackpoint>
            <Time>2026-06-10T02:12:00+02:00</Time>
            <Position>
              <LatitudeDegrees>45.090373</LatitudeDegrees>
              <LongitudeDegrees>7.689845</LongitudeDegrees>
            </Position>
            <AltitudeMeters>474.1</AltitudeMeters>
            <DistanceMeters>1335.4</DistanceMeters>
            <HeartRateBpm><Value>165</Value></HeartRateBpm>
            <Extensions><ns3:TPX><ns3:RunCadence>84</ns3:RunCadence></ns3:TPX></Extensions>
          </Trackpoint>
          <Trackpoint>
            <Time>2026-06-10T02:13:00+02:00</Time>
            <Position>
              <LatitudeDegrees>45.091235</LatitudeDegrees>
              <LongitudeDegrees>7.690535</LongitudeDegrees>
            </Position>
            <AltitudeMeters>491.7</AltitudeMeters>
            <DistanceMeters>1445.5</DistanceMeters>
            <HeartRateBpm><Value>168</Value></HeartRateBpm>
            <Extensions><ns3:TPX><ns3:RunCadence>81</ns3:RunCadence></ns3:TPX></Extensions>
          </Trackpoint>
          <Trackpoint>
            <Time>2026-06-10T02:14:00+02:00</Time>
            <Position>
              <LatitudeDegrees>45.091901</LatitudeDegrees>
              <LongitudeDegrees>7.691328</LongitudeDegrees>
            </Position>
            <AltitudeMeters>506.9</AltitudeMeters>
            <DistanceMeters>1542.2</DistanceMeters>
            <HeartRateBpm><Value>169</Value></HeartRateBpm>
            <Extensions><ns3:TPX><ns3:RunCadence>90</ns3:RunCadence></ns3:TPX></Extensions>
          </Trackpoint>
          <Trackpoint>
            <Time>2026-06-10T02:15:00+02:00</Time>
            <Position>
              <LatitudeDegrees>45.092804</LatitudeDegrees>
              <LongitudeDegrees>7.691962</LongitudeDegrees>
            </Position>
            <AltitudeMeters>524.1</AltitudeMeters>
            <DistanceMeters>1654.2</DistanceMeters>
            <HeartRateBpm><Value>166</Value></HeartRateBpm>
            <Extensions><ns3:TPX><ns3:RunCadence>83</ns3:RunCadence></ns3:TPX></Extensions>
          </Trackpoint>
          <Trackpoint>
            <Time>2026-06-10T02:16:00+02:00</Time>
            <Position>
              <LatitudeDegrees>45.093644</LatitudeDegrees>
              <LongitudeDegrees>7.692522</LongitudeDegrees>
            </Position>
            <AltitudeMeters>539.5</AltitudeMeters>
            <DistanceMeters>1757.4</DistanceMeters>
            <HeartRateBpm><Value>162</Value></HeartRateBpm>
            <Extensions><ns3:TPX><ns3:RunCadence>88</ns3:RunCadence></ns3:TPX></Extensions>
          </Trackpoint>
          <Trackpoint>
            <Time>2026-06-10T02:17:00+02:00</Time>
            <Position>
              <LatitudeDegrees>45.094578</LatitudeDegrees>
              <LongitudeDegrees>7.693128</LongitudeDegrees>
            </Position>
            <AltitudeMeters>556.1</AltitudeMeters>
            <DistanceMeters>1871.7</DistanceMeters>
            <HeartRateBpm><Value>168</Value></HeartRateBpm>
            <Extensions><ns3:TPX><ns3:RunCadence>85</ns3:RunCadence></ns3:TPX></Extensions>
          </Trackpoint>
          <Trackpoint>
            <Time>2026-06-10T02:18:00+02:00</Time>
            <Position>
              <LatitudeDegrees>45.095385</LatitudeDegrees>
              <LongitudeDegrees>7.693532</LongitudeDegrees>
            </Position>
            <AltitudeMeters>569.6</AltitudeMeters>
            <DistanceMeters>1966.9</DistanceMeters>
            <HeartRateBpm><Value>165</Value></HeartRateBpm>
            <Extensions><ns3:TPX><ns3:RunCadence>81</ns3:RunCadence></ns3:TPX></Extensions>
          </Trackpoint>
          <Trackpoint>
            <Time>2026-06-10T02:19:00+02:00</Time>
            <Position>
              <LatitudeDegrees>45.096408</LatitudeDegrees>
              <LongitudeDegrees>7.694086</LongitudeDegrees>
            </Position>
            <AltitudeMeters>586.2</AltitudeMeters>
            <DistanceMeters>2088.6</DistanceMeters>
            <HeartRateBpm><Value>169</Value></HeartRateBpm>
            <Extensions><ns3:TPX><ns3:RunCadence>83</ns3:RunCadence></ns3:TPX></Extensions>
          </Trackpoint>
          <Trackpoint>
            <Time>2026-06-10T02:20:00+02:00</Time>
            <Position>
              <LatitudeDegrees>45.097262</LatitudeDegrees>
              <LongitudeDegrees>7.694689</LongitudeDegrees>
            </Position>
            <AltitudeMeters>600.1</AltitudeMeters>
            <DistanceMeters>2194.8</DistanceMeters>
            <HeartRateBpm><Value>166</Value></HeartRateBpm>
            <Extensions><ns3:TPX><ns3:RunCadence>90</ns3:RunCadence></ns3:TPX></Extensions>
          </Trackpoint>
          <Trackpoint>
            <Time>2026-06-10T02:21:00+02:00</Time>
            <Position>
              <LatitudeDegrees>45.098452</LatitudeDegrees>
              <LongitudeDegrees>7.695026</LongitudeDegrees>
            </Position>
            <AltitudeMeters>617.2</AltitudeMeters>
            <DistanceMeters>2329.7</DistanceMeters>
            <HeartRateBpm><Value>175</Value></HeartRateBpm>
            <Extensions><ns3:TPX><ns3:RunCadence>80</ns3:RunCadence></ns3:TPX></Extensions>
          </Trackpoint>
          <Trackpoint>
            <Time>2026-06-10T02:22:00+02:00</Time>
            <Position>
              <LatitudeDegrees>45.099327</LatitudeDegrees>
              <LongitudeDegrees>7.695025</LongitudeDegrees>
            </Position>
            <AltitudeMeters>628.9</AltitudeMeters>
            <DistanceMeters>2427.0</DistanceMeters>
            <HeartRateBpm><Value>168</Value></HeartRateBpm>
            <Extensions><ns3:TPX><ns3:RunCadence>87</ns3:RunCadence></ns3:TPX></Extensions>
          </Trackpoint>
          <Trackpoint>
            <Time>2026-06-10T02:23:00+02:00</Time>
            <Position>
              <LatitudeDegrees>45.100607</LatitudeDegrees>
              <LongitudeDegrees>7.695084</LongitudeDegrees>
            </Position>
            <AltitudeMeters>645.2</AltitudeMeters>
            <DistanceMeters>2569.4</DistanceMeters>
            <HeartRateBpm><Value>170</Value></HeartRateBpm>
            <Extensions><ns3:TPX><ns3:RunCadence>89</ns3:RunCadence></ns3:TPX></Extensions>
          </Trackpoint>
          <Trackpoint>
            <Time>2026-06-10T02:24:00+02:00</Time>
            <Position>
              <LatitudeDegrees>45.101524</LatitudeDegrees>
              <LongitudeDegrees>7.695381</LongitudeDegrees>
            </Position>
            <AltitudeMeters>656.5</AltitudeMeters>
            <DistanceMeters>2674.0</DistanceMeters>
            <HeartRateBpm><Value>160</Value></HeartRateBpm>
            <Extensions><ns3:TPX><ns3:RunCadence>82</ns3:RunCadence></ns3:TPX></Extensions>
          </Trackpoint>
          <Trackpoint>
            <Time>2026-06-10T02:25:00+02:00</Time>
            <Position>
              <LatitudeDegrees>45.102888</LatitudeDegrees>
              <LongitudeDegrees>7.696339</LongitudeDegrees>
            </Position>
            <AltitudeMeters>673.6</AltitudeMeters>
            <DistanceMeters>2843.3</DistanceMeters>
            <HeartRateBpm><Value>163</Value></HeartRateBpm>
            <Extensions><ns3:TPX><ns3:RunCadence>85</ns3:RunCadence></ns3:TPX></Extensions>
          </Trackpoint>
          <Trackpoint>
            <Time>2026-06-10T02:26:00+02:00</Time>
            <Position>
              <LatitudeDegrees>45.103634</LatitudeDegrees>
              <LongitudeDegrees>7.696839</LongitudeDegrees>
            </Position>
            <AltitudeMeters>682.2</AltitudeMeters>
            <DistanceMeters>2935.0</DistanceMeters>
            <HeartRateBpm><Value>160</Value></HeartRateBpm>
            <Extensions><ns3:TPX><ns3:RunCadence>83</ns3:RunCadence></ns3:TPX></Extensions>
          </Trackpoint>
          <Trackpoint>
            <Time>2026-06-10T02:27:00+02:00</Time>
            <Position>
              <LatitudeDegrees>45.105013</LatitudeDegrees>
              <LongitudeDegrees>7.697715</LongitudeDegrees>
            </Position>
            <AltitudeMeters>696.8</AltitudeMeters>
            <DistanceMeters>3103.1</DistanceMeters>
            <HeartRateBpm><Value>167</Value></HeartRateBpm>
            <Extensions><ns3:TPX><ns3:RunCadence>83</ns3:RunCadence></ns3:TPX></Extensions>
          </Trackpoint>
          <Trackpoint>
            <Time>2026-06-10T02:28:00+02:00</Time>
            <Position>
              <LatitudeDegrees>45.10588</LatitudeDegrees>
              <LongitudeDegrees>7.698532</LongitudeDegrees>
            </Position>
            <AltitudeMeters>705.9</AltitudeMeters>
            <DistanceMeters>3218.9</DistanceMeters>
            <HeartRateBpm><Value>163</Value></HeartRateBpm>
            <Extensions><ns3:TPX><ns3:RunCadence>88</ns3:RunCadence></ns3:TPX></Extensions>
          </Trackpoint>
          <Trackpoint>
            <Time>2026-06-10T02:29:00+02:00</Time>
            <Position>
              <LatitudeDegrees>45.106934</LatitudeDegrees>
              <LongitudeDegrees>7.69988</LongitudeDegrees>
            </Position>
            <AltitudeMeters>716.9</AltitudeMeters>
            <DistanceMeters>3376.8</DistanceMeters>
            <HeartRateBpm><Value>163</Value></HeartRateBpm>
            <Extensions><ns3:TPX><ns3:RunCadence>85</ns3:RunCadence></ns3:TPX></Extensions>
          </Trackpoint>
          <Trackpoint>
            <Time>2026-06-10T02:30:00+02:00</Time>
            <Position>
              <LatitudeDegrees>45.107978</LatitudeDegrees>
              <LongitudeDegrees>7.701352</LongitudeDegrees>
            </Position>
            <AltitudeMeters>726.8</AltitudeMeters>
            <DistanceMeters>3540.5</DistanceMeters>
            <HeartRateBpm><Value>160</Value></HeartRateBpm>
            <Extensions><ns3:TPX><ns3:RunCadence>88</ns3:RunCadence></ns3:TPX></Extensions>
          </Trackpoint>
          <Trackpoint>
            <Time>2026-06-10T02:31:00+02:00</Time>
            <Position>
              <LatitudeDegrees>45.109017</LatitudeDegrees>
              <LongitudeDegrees>7.702928</LongitudeDegrees>
            </Position>
            <AltitudeMeters>735.3</AltitudeMeters>
            <DistanceMeters>3709.8</DistanceMeters>
            <HeartRateBpm><Value>160</Value></HeartRateBpm>
            <Extensions><ns3:TPX><ns3:RunCadence>92</ns3:RunCadence></ns3:TPX></Extensions>
          </Trackpoint>
          <Trackpoint>
            <Time>2026-06-10T02:32:00+02:00</Time>
            <Position>
              <LatitudeDegrees>45.109937</LatitudeDegrees>
              <LongitudeDegrees>7.704586</LongitudeDegrees>
            </Position>
            <AltitudeMeters>741.9</AltitudeMeters>
            <DistanceMeters>3875.3</DistanceMeters>
            <HeartRateBpm><Value>156</Value></HeartRateBpm>
            <Extensions><ns3:TPX><ns3:RunCadence>87</ns3:RunCadence></ns3:TPX></Extensions>
          </Trackpoint>
          <Trackpoint>
            <Time>2026-06-10T02:33:00+02:00</Time>
            <Position>
              <LatitudeDegrees>45.111023</LatitudeDegrees>
              <LongitudeDegrees>7.705931</LongitudeDegrees>
            </Position>
            <AltitudeMeters>746.6</AltitudeMeters>
            <DistanceMeters>4035.7</DistanceMeters>
            <HeartRateBpm><Value>153</Value></HeartRateBpm>
            <Extensions><ns3:TPX><ns3:RunCadence>84</ns3:RunCadence></ns3:TPX></Extensions>
          </Trackpoint>
          <Trackpoint>
            <Time>2026-06-10T02:34:00+02:00</Time>
            <Position>
              <LatitudeDegrees>45.112181</LatitudeDegrees>
              <LongitudeDegrees>7.707532</LongitudeDegrees>
            </Position>
            <AltitudeMeters>749.9</AltitudeMeters>
            <DistanceMeters>4215.7</DistanceMeters>
            <HeartRateBpm><Value>159</Value></HeartRateBpm>
            <Extensions><ns3:TPX><ns3:RunCadence>86</ns3:RunCadence></ns3:TPX></Extensions>
          </Trackpoint>
          <Trackpoint>
            <Time>2026-06-10T02:35:00+02:00</Time>
            <Position>
              <LatitudeDegrees>45.11377</LatitudeDegrees>
              <LongitudeDegrees>7.708955</LongitudeDegrees>
            </Position>
            <AltitudeMeters>751.1</AltitudeMeters>
            <DistanceMeters>4424.6</DistanceMeters>
            <HeartRateBpm><Value>154</Value></HeartRateBpm>
            <Extensions><ns3:TPX><ns3:RunCadence>85</ns3:RunCadence></ns3:TPX></Extensions>
          </Trackpoint>
          <Trackpoint>
            <Time>2026-06-10T02:36:00+02:00</Time>
            <Position>
              <LatitudeDegrees>45.115474</LatitudeDegrees>
              <LongitudeDegrees>7.710007</LongitudeDegrees>
            </Position>
            <AltitudeMeters>749.6</AltitudeMeters>
            <DistanceMeters>4631.3</DistanceMeters>
            <HeartRateBpm><Value>150</Value></HeartRateBpm>
            <Extensions><ns3:TPX><ns3:RunCadence>83</ns3:RunCadence></ns3:TPX></Extensions>
          </Trackpoint>
          <Trackpoint>
            <Time>2026-06-10T02:37:00+02:00</Time>
            <Position>
              <LatitudeDegrees>45.117323</LatitudeDegrees>
              <LongitudeDegrees>7.711368</LongitudeDegrees>
            </Position>
            <AltitudeMeters>744.5</AltitudeMeters>
            <DistanceMeters>4863.0</DistanceMeters>
            <HeartRateBpm><Value>148</Value></HeartRateBpm>
            <Extensions><ns3:TPX><ns3:RunCadence>87</ns3:RunCadence></ns3:TPX></Extensions>
          </Trackpoint>
          <Trackpoint>
            <Time>2026-06-10T02:38:00+02:00</Time>
            <Position>
              <LatitudeDegrees>45.119004</LatitudeDegrees>
              <LongitudeDegrees>7.71282</LongitudeDegrees>
            </Position>
            <AltitudeMeters>736.6</AltitudeMeters>
            <DistanceMeters>5081.9</DistanceMeters>
            <HeartRateBpm><Value>148</Value></HeartRateBpm>
            <Extensions><ns3:TPX><ns3:RunCadence>80</ns3:RunCadence></ns3:TPX></Extensions>
          </Trackpoint>
          <Trackpoint>
            <Time>2026-06-10T02:39:00+02:00</Time>
            <Position>
              <LatitudeDegrees>45.121128</LatitudeDegrees>
              <LongitudeDegrees>7.715166</LongitudeDegrees>
            </Position>
            <AltitudeMeters>720.8</AltitudeMeters>
            <DistanceMeters>5381.3</DistanceMeters>
            <HeartRateBpm><Value>142</Value></HeartRateBpm>
            <Extensions><ns3:TPX><ns3:RunCadence>81</ns3:RunCadence></ns3:TPX></Extensions>
          </Trackpoint>
          <Trackpoint>
            <Time>2026-06-10T02:40:00+02:00</Time>
            <Position>
              <LatitudeDegrees>45.123962</LatitudeDegrees>
              <LongitudeDegrees>7.717533</LongitudeDegrees>
            </Position>
            <AltitudeMeters>694.2</AltitudeMeters>
            <DistanceMeters>5747.0</DistanceMeters>
            <HeartRateBpm><Value>130</Value></HeartRateBpm>
            <Extensions><ns3:TPX><ns3:RunCadence>89</ns3:RunCadence></ns3:TPX></Extensions>
          </Trackpoint>
        </Track>
      </Lap>
      <Creator xsi:type="Device_t">
        <Name>Garmin Forerunner 265</Name>
      </Creator>
    </Activity>
  </Activities>
  <Author xsi:type="Application_t"><Name>Garmin Connect</Name></Author>
</TrainingCenterDatabase>
